Year,m,d,Time,Time zone,Cloud amount (1/8),Pressure (msl) (hPa),Relative humidity (%),Precipitation intensity (mm/h),Snow depth (cm),Air temperature (degC),Dew-point temperature (degC),Horizontal visibility (m),Wind direction (deg),Gust speed (m/s),Wind speed (m/s)
2020,1,1,00:00,UTC,0,1011.3,98,0,0,-1.2,-1.5,50000,275,6.2,4.7
2020,1,1,01:00,UTC,0,1011.3,95,0,0,-0.7,-1.4,50000,279,8,5.1
2020,1,1,02:00,UTC,0,1010.8,93,0,0,-0.5,-1.4,50000,286,7.2,5.7
2020,1,1,03:00,UTC,2,1010.6,90,0,0,0.1,-1.4,50000,279,7.1,5.5
2020,1,1,04:00,UTC,6,1009.8,92,0,0,-0.3,-1.5,50000,260,5.6,4.3
2020,1,1,05:00,UTC,0,1009.7,100,0,0,-1.3,-1.3,50000,240,5.4,4.1
2020,1,1,06:00,UTC,7,1009.5,95,0,0,-0.3,-1,50000,248,6.3,4.8
2020,1,1,07:00,UTC,8,1009.5,90,0,0,0.5,-0.9,50000,257,5.2,3.8
2020,1,1,08:00,UTC,7,1009.3,89,0,0,0.9,-0.8,50000,246,5.2,3.6
2020,1,1,09:00,UTC,8,1009.1,88,0,0,1.5,-0.3,50000,236,5.4,4
2020,1,1,10:00,UTC,7,1008.4,89,0,0,1.8,0.1,50000,231,5,4.1
2020,1,1,11:00,UTC,2,1007.5,90,0,0,1.8,0.3,50000,218,5.1,3.8
2020,1,1,12:00,UTC,8,1007.5,89,0,0,2.1,0.5,50000,233,7.5,5.1
2020,1,1,13:00,UTC,8,1007.1,83,0,0,2.6,0.1,50000,259,7.7,5.5
2020,1,1,14:00,UTC,6,1006.9,86,0,0,2.3,0.2,50000,252,7.9,5.5
2020,1,1,15:00,UTC,8,1006.7,87,0,0,2.3,0.3,50000,256,7.1,5.4
2020,1,1,16:00,UTC,7,1006.7,86,0,0,2.3,0.1,50000,264,8.2,6
2020,1,1,17:00,UTC,0,1006.4,89,0,0,1.8,0.1,50000,261,7.8,6
2020,1,1,18:00,UTC,1,1006.2,91,0,0,1.5,0.2,50000,252,6.7,5.2
2020,1,1,19:00,UTC,0,1006,88,0,0,2,0.2,50000,269,8.6,6
2020,1,1,20:00,UTC,0,1005.3,88,0,0,2,0.2,50000,259,8,5.3
2020,1,1,21:00,UTC,5,1005.2,90,0,0,2,0.4,50000,256,8.6,6.2
2020,1,1,22:00,UTC,0,1004.4,89,0,0,1.8,0.1,50000,254,5.9,4.3
2020,1,1,23:00,UTC,5,1003.8,90,0,0,1.6,0.2,50000,234,7,5
2020,1,2,00:00,UTC,1,1004.2,86,0,0,2.1,0.1,50000,262,7.9,5.7
2020,1,2,01:00,UTC,1,1003.7,92,0,0,1.4,0.2,50000,251,7,5.2
2020,1,2,02:00,UTC,0,1003.5,91,0,0,1.5,0.2,50000,249,6.5,5.1
2020,1,2,03:00,UTC,0,1004,87,0,0,1.9,0,50000,258,7.9,5.4
2020,1,2,04:00,UTC,0,1004,88,0,0,1.9,0.1,50000,260,5.8,4.5
2020,1,2,05:00,UTC,0,1004.3,88,0,0,1.8,0.1,50000,259,7.4,5.4
2020,1,2,06:00,UTC,0,1004.4,93,0,0,1.1,0.1,50000,242,5.9,5
2020,1,2,07:00,UTC,3,1004.3,89,0,0,2.1,0.4,45200,250,7.2,5.6
2020,1,2,08:00,UTC,2,1004.7,86,0,0,2.7,0.6,50000,258,6.9,5.2
2020,1,2,09:00,UTC,1,1004.7,91,0,0,2.2,0.9,50000,239,5.3,4.6
2020,1,2,10:00,UTC,0,1004.6,88,0,0,3.1,1.4,49020,237,5.9,4.4
2020,1,2,11:00,UTC,0,1003.8,93,0,0,3.1,2.2,39680,213,6.3,4.7
2020,1,2,12:00,UTC,3,1003.6,97,0,0,3.4,2.9,33630,223,7,5.3
2020,1,2,13:00,UTC,7,1003.6,99,0,0,3.9,3.7,32730,228,6.9,5.1
2020,1,2,14:00,UTC,3,1002.7,100,0,0,3.5,3.5,20900,218,7.6,5.7
2020,1,2,15:00,UTC,7,1002.8,100,0,0,3.8,3.8,16580,232,9.6,6.4
2020,1,2,16:00,UTC,7,1002.8,100,0,0,4.1,4.1,16640,233,9.1,6.9
2020,1,2,17:00,UTC,3,1002.7,100,0,0,4,4,15000,234,8.6,5.9
2020,1,2,18:00,UTC,4,1002.3,100,0,0,4.1,4.1,15780,229,9.8,7.1
2020,1,2,19:00,UTC,7,1002.4,100,0,0,4.3,4.3,13430,235,9,6.2
2020,1,2,20:00,UTC,8,1002,99,0,0,4.6,4.5,15100,234,9.1,6.5
2020,1,2,21:00,UTC,7,1001.5,99,0,0,4.4,4.2,19310,236,9.6,7.2
2020,1,2,22:00,UTC,8,1001.4,97,0,0,4.5,4.1,24190,241,10.3,7.1
2020,1,2,23:00,UTC,8,1001,98,0,0,4.5,4.2,20770,236,9.6,7.6
2020,1,3,00:00,UTC,8,1001,97,0,0,4.7,4.2,20720,243,12.9,8.4
2020,1,3,01:00,UTC,8,1000.3,95,0,0,4.5,3.8,22220,239,13.6,9.3
2020,1,3,02:00,UTC,8,999.5,95,0,0,4.4,3.7,21500,236,14.2,9.6
2020,1,3,03:00,UTC,8,999,95,0,0,4.5,3.7,18350,236,13.4,9.9
2020,1,3,04:00,UTC,8,998.3,90,0,0,4.6,3,21930,240,16,9.8
2020,1,3,05:00,UTC,8,997.7,90,0,0,4.6,3.1,24940,238,14.9,10
2020,1,3,06:00,UTC,8,996.9,91,0,0,4.7,3.4,22800,230,11,7.9
2020,1,3,07:00,UTC,8,996.8,91,0,0,4.5,3.2,24190,232,16.5,10.5
2020,1,3,08:00,UTC,8,996.1,88,0,0,4.5,2.7,41260,231,15.1,10.2
2020,1,3,09:00,UTC,8,995.9,87,0,0,4.6,2.6,25700,242,20.6,12.5
2020,1,3,10:00,UTC,8,994.7,93,0,0,4.3,3.3,29820,229,15.8,11.3
2020,1,3,11:00,UTC,8,993.9,99,0.5,0,4.1,3.9,28320,228,15.2,10.7
2020,1,3,12:00,UTC,8,993.2,100,0,0,4.1,4.1,6450,228,19.5,13.2
2020,1,3,13:00,UTC,8,992.3,100,0,0,4.3,4.3,5620,228,16.1,11.7
2020,1,3,14:00,UTC,8,991.7,100,0.4,0,4.7,4.7,4890,228,16.5,11.4
2020,1,3,15:00,UTC,8,990.7,100,0.4,0,5.2,5.2,9280,226,13.2,10.2
2020,1,3,16:00,UTC,7,990.3,100,0,0,5.3,5.3,50000,235,13,8.9
2020,1,3,17:00,UTC,2,990.3,97,0,0,4.3,3.8,50000,243,11.5,8
2020,1,3,18:00,UTC,2,990.3,98,0,0,4.3,4,50000,243,9.8,7.1
2020,1,3,19:00,UTC,3,990.6,93,0,0,3.8,2.9,50000,250,9.6,6.7
2020,1,3,20:00,UTC,2,991,82,0,0,3,0.3,50000,249,9.6,7.2
2020,1,3,21:00,UTC,0,991.6,70,0,0,2.2,-2.6,50000,247,9.1,6.3
2020,1,3,22:00,UTC,0,991.6,64,0,0,1.4,-4.6,50000,246,8.8,6.1
2020,1,3,23:00,UTC,0,991.4,65,0,0,0.4,-5.4,50000,233,6.6,5
2020,1,4,00:00,UTC,0,990,66,0,0,-0.7,-6.3,50000,205,5.5,4.6
2020,1,4,01:00,UTC,1,989.2,65,0,0,1.1,-4.6,50000,216,9.6,6.8
2020,1,4,02:00,UTC,7,988.4,75,0,0,1.8,-2.1,50000,239,8.9,6.6
2020,1,4,03:00,UTC,7,987.3,86,0.8,0,1.9,-0.2,19190,227,9.5,6.7
2020,1,4,04:00,UTC,0,986.7,85,0,0,0.9,-1.3,50000,226,6.1,4.6
2020,1,4,05:00,UTC,0,986.6,78,0,0,1,-2.3,50000,224,9.7,5.8
2020,1,4,06:00,UTC,1,985.9,76,0,0,0.6,-3.2,50000,233,6.2,4.5
2020,1,4,07:00,UTC,0,985.7,71,0,0,0.5,-4.1,50000,236,8.2,5.5
2020,1,4,08:00,UTC,0,985.6,72,0,0,0.5,-4,50000,220,8.1,5.6
2020,1,4,09:00,UTC,1,985.6,73,0,0,0.7,-3.7,50000,233,6.8,4.9
2020,1,4,10:00,UTC,0,985.1,68,0,0,1.3,-3.9,50000,242,7.9,6.1
2020,1,4,11:00,UTC,0,984.8,69,0,0,1.8,-3.4,50000,252,9.2,6.6
2020,1,4,12:00,UTC,7,985.5,71,0,0,2.2,-2.5,50000,255,9.9,6.7
2020,1,4,13:00,UTC,7,985.9,73,0,0,2.5,-1.9,50000,257,8.7,6.4
2020,1,4,14:00,UTC,5,987.3,99,0,0,0.8,0.7,47460,298,8.8,6.2
2020,1,4,15:00,UTC,7,988.7,78,0,0,1.7,-1.6,50000,303,10.7,8.3
2020,1,4,16:00,UTC,7,990.3,66,0,0,2.8,-3,38980,308,14.4,9.3
2020,1,4,17:00,UTC,7,991.8,67,0,0,2,-3.5,50000,311,11.6,7.9
2020,1,4,18:00,UTC,6,993.4,68,0,0,1.5,-3.8,50000,318,12.6,8
2020,1,4,19:00,UTC,3,995,67,0,0,1.3,-4.2,50000,321,13.3,8.4
2020,1,4,20:00,UTC,6,997,75,0,0,0.9,-3,50000,319,12.5,7.9
2020,1,4,21:00,UTC,2,999.1,78,0,0,0.3,-3.1,50000,320,9.1,6.3
2020,1,4,22:00,UTC,2,1000.8,72,0,0,-0.1,-4.6,50000,316,9.4,6.8
2020,1,4,23:00,UTC,0,1002,65,0,0,-0.3,-6.1,50000,312,12.1,8.1
2020,1,5,00:00,UTC,1,1003.5,63,0,0,-0.7,-6.8,50000,319,11.1,8
2020,1,5,01:00,UTC,2,1004.9,64,0,0,-1,-6.9,50000,314,9.9,7.3
2020,1,5,02:00,UTC,7,1006.6,65,0,0,-0.5,-6.4,50000,323,11.7,8.1
2020,1,5,03:00,UTC,8,1008.1,66,0,0,-0.3,-5.9,45400,341,14.2,9.4
2020,1,5,04:00,UTC,8,1009.9,67,0,0,-0.4,-5.7,50000,340,10.8,7.5
2020,1,5,05:00,UTC,8,1011.8,67,0,0,-0.7,-6.1,50000,342,11.7,8.1
2020,1,5,06:00,UTC,7,1013.6,64,0,0,-1,-6.9,50000,342,13.1,9.3
2020,1,5,07:00,UTC,7,1015.6,66,0,0,-1.6,-7.2,50000,332,10.2,7.6
2020,1,5,08:00,UTC,0,1017.4,66,0,0,-2.4,-8,50000,337,9.7,7.2
2020,1,5,09:00,UTC,0,1018.1,60,0,0,-2.5,-9.2,50000,350,10.9,7.1
2020,1,5,10:00,UTC,0,1018.6,57,0,0,-2.5,-9.8,50000,351,5.9,4.3
2020,1,5,11:00,UTC,0,1019.3,55,0,0,-2.5,-10.4,50000,352,6.1,4.2
2020,1,5,12:00,UTC,0,1020.3,52,0,0,-2.7,-11.1,30520,325,6.2,4
2020,1,5,13:00,UTC,0,1021.5,59,0,0,-3.5,-10.3,50000,289,4.8,3.6
2020,1,5,14:00,UTC,0,1021.9,68,0,0,-4.8,-9.8,50000,287,2.1,1.7
2020,1,5,15:00,UTC,0,1021.5,73,0,0,-5.4,-9.5,50000,201,2.3,1.6
2020,1,5,16:00,UTC,0,1021.5,75,0,0,-5.8,-9.5,50000,207,3.3,2.9
2020,1,5,17:00,UTC,2,1021.7,85,0,0,-6.4,-8.5,36930,231,3.6,3.1
2020,1,5,18:00,UTC,6,1020.2,74,0,0,-4.6,-8.6,50000,191,4,3.2
2020,1,5,19:00,UTC,7,1019,72,0,0,-3.9,-8.2,50000,147,4.6,3.7
2020,1,5,20:00,UTC,8,1018,63,0,0,-1.5,-7.6,50000,172,6.1,4.4
2020,1,5,21:00,UTC,8,1016.8,74,0,0,0.2,-3.9,31630,192,11.3,8.2
2020,1,5,22:00,UTC,8,1016.2,100,1.7,0,-0.8,-0.8,1170,190,10.2,7.3
2020,1,5,23:00,UTC,8,1014.6,100,1.4,2,-0.2,-0.2,960,185,11.1,7.5
2020,1,6,00:00,UTC,8,1013.5,100,1.1,5,0,0,1780,192,14.5,9.8
2020,1,6,01:00,UTC,8,1012.6,100,0.8,5,0,0,1740,195,12.5,8.9
2020,1,6,02:00,UTC,8,1011.9,100,0.8,6,0.4,0.4,3740,198,9.5,7.2
2020,1,6,03:00,UTC,8,1011.8,100,0,6,0.6,0.6,5060,215,5.8,4.5
2020,1,6,04:00,UTC,8,1011.7,100,0,6,0.6,0.6,10240,239,4.4,3.3
2020,1,6,05:00,UTC,8,1012.1,100,0,6,0.6,0.6,15330,257,4.2,3.3
2020,1,6,06:00,UTC,8,1012.5,100,0,6,0.7,0.7,7210,250,4.2,3.3
2020,1,6,07:00,UTC,8,1013,100,0,6,0.7,0.7,11190,281,5.9,3.9
2020,1,6,08:00,UTC,8,1013.6,100,0,6,0.8,0.8,4950,273,4.1,2.8
2020,1,6,09:00,UTC,8,1013.7,100,0,6,0.8,0.8,15140,280,5.9,4.3
2020,1,6,10:00,UTC,8,1013.9,100,0,6,0.8,0.8,11740,265,5.6,3.7
2020,1,6,11:00,UTC,8,1014.1,100,0,5,0.7,0.7,10100,255,6.9,4
2020,1,6,12:00,UTC,8,1014.4,100,0,5,0.7,0.7,3800,249,5.5,3.7
2020,1,6,13:00,UTC,8,1014.5,100,0,5,0.6,0.6,2120,241,5.5,4.2
2020,1,6,14:00,UTC,9,1014.7,100,0,4,0.6,0.6,670,240,2,1.4
2020,1,6,15:00,UTC,8,1014.7,100,0,4,0.4,0.4,1450,244,4.7,3.3
2020,1,6,16:00,UTC,9,1014.7,100,0,4,0.3,0.3,540,223,5,3.9
2020,1,6,17:00,UTC,9,1014.5,100,0,4,0.4,0.4,320,240,3.3,2.4
2020,1,6,18:00,UTC,9,1014.6,100,0.3,4,0.6,0.6,230,229,3.2,2
2020,1,6,19:00,UTC,8,1014.7,100,0,4,1.3,1.3,2060,233,3.5,2.4
2020,1,6,20:00,UTC,8,1014.4,100,0,4,1.7,1.7,1200,196,2.9,2.2
2020,1,6,21:00,UTC,8,1013.9,100,0,3,2.5,2.5,2590,213,5.1,4
2020,1,6,22:00,UTC,8,1013.7,100,0,3,3.1,3.1,4370,218,6.7,4.4
2020,1,6,23:00,UTC,8,1013.5,100,0,2,3.4,3.4,14570,220,9.1,6.1
2020,1,7,00:00,UTC,8,1013.4,100,0,2,3.4,3.4,4170,222,6.6,4.7
2020,1,7,01:00,UTC,8,1013.1,100,0,0,3.6,3.6,50000,227,9,6.2
2020,1,7,02:00,UTC,8,1013,100,0,0,3.4,3.4,8840,208,6.7,4.2
2020,1,7,03:00,UTC,8,1012.8,100,0,0,3.5,3.5,5640,221,6.6,4.9
2020,1,7,04:00,UTC,8,1012.8,100,0,0,3.7,3.7,6970,224,8.8,6.2
2020,1,7,05:00,UTC,8,1012.4,100,0,0,3.7,3.7,3310,209,7.1,5.3
2020,1,7,06:00,UTC,8,1012.6,100,0,0,4,4,4590,211,8.3,6.1
2020,1,7,07:00,UTC,8,1012.7,100,0,0,4,4,3200,215,7.4,5.3
2020,1,7,08:00,UTC,8,1012.7,100,0,0,4,4,2970,213,5.9,4.4
2020,1,7,09:00,UTC,8,1013,100,0,0,4.5,4.5,31980,227,7.7,5
2020,1,7,10:00,UTC,8,1013.3,100,0,0,4.8,4.8,47870,231,7.6,5.6
2020,1,7,11:00,UTC,8,1013.3,100,0,0,4.9,4.9,50000,235,7.8,5.9
2020,1,7,12:00,UTC,8,1013,100,0,0,5.1,5.1,29540,225,8.6,5.2
2020,1,7,13:00,UTC,7,1013,100,0,0,5,5,50000,224,8.3,5.7
2020,1,7,14:00,UTC,8,1013.3,100,0,0,4.4,4.4,12210,225,8.1,5.7
2020,1,7,15:00,UTC,8,1013.6,100,0.3,0,4.2,4.2,13080,228,8,5.6
2020,1,7,16:00,UTC,8,1013.6,100,0,0,4.1,4.1,49730,223,7.5,5.2
2020,1,7,17:00,UTC,7,1013.8,100,0,0,4,4,50000,225,7.4,5.3
2020,1,7,18:00,UTC,8,1013.5,100,0,0,4,4,22290,217,7.9,6
2020,1,7,19:00,UTC,8,1012.8,100,0,0,4.2,4.2,10780,219,8.2,6.1
2020,1,7,20:00,UTC,8,1012.2,100,0,0,4.4,4.4,26110,219,9.7,6.7
2020,1,7,21:00,UTC,8,1011.9,100,0,0,4.5,4.5,21730,225,10.4,7.4
2020,1,7,22:00,UTC,8,1011.5,100,0,0,4.5,4.5,17190,222,14.3,9.1
2020,1,7,23:00,UTC,8,1011,100,0,0,4.3,4.3,15190,225,13.4,8.9
2020,1,8,00:00,UTC,8,1010.3,100,0,0,4.4,4.4,20490,221,11.7,8.5
2020,1,8,01:00,UTC,8,1009.5,100,0,0,4.4,4.4,22220,217,13.6,9
2020,1,8,02:00,UTC,8,1007.8,100,0,0,4.6,4.6,19220,215,15.3,10.7
2020,1,8,03:00,UTC,8,1007.2,100,0,0,4.5,4.5,19870,215,14.9,11.4
2020,1,8,04:00,UTC,8,1005.5,100,0,0,4.4,4.4,16140,214,16.4,11.8
2020,1,8,05:00,UTC,8,1004.3,100,0,0,4.6,4.6,13840,212,15.8,10.6
2020,1,8,06:00,UTC,8,1002.9,99,0,0,5.1,5,33890,216,17.8,12.3
2020,1,8,07:00,UTC,8,1001.6,100,0,0,4.7,4.7,9430,210,17.9,12.9
2020,1,8,08:00,UTC,8,1001,100,1.5,0,4.3,4.3,2890,214,18.9,12.1
2020,1,8,09:00,UTC,8,999.7,100,0.7,0,4.9,4.9,11760,216,18.4,12.4
2020,1,8,10:00,UTC,8,998.9,100,0.5,0,5.2,5.2,8080,224,16.4,12.3
2020,1,8,11:00,UTC,8,997.8,100,0,0,5.4,5.4,9170,221,18.6,13
2020,1,8,12:00,UTC,8,997.3,100,0,0,5.5,5.5,11310,228,14.5,10.1
2020,1,8,13:00,UTC,8,996.7,100,0,0,5.9,5.9,4830,228,14.8,9.3
2020,1,8,14:00,UTC,8,996.4,100,0.3,0,5.9,5.9,4250,226,15.7,11.4
2020,1,8,15:00,UTC,8,996.1,100,0.3,0,6.2,6.2,8890,231,15.8,10.4
2020,1,8,16:00,UTC,8,996,100,0,0,6.8,6.8,23400,239,14.8,9.9
2020,1,8,17:00,UTC,7,996.1,100,0,0,7,6.9,32680,243,13.1,9.2
2020,1,8,18:00,UTC,8,996.2,97,0,0,7,6.5,36930,257,12.9,8.1
2020,1,8,19:00,UTC,7,997,93,0,0,6.4,5.4,50000,273,11.5,7.8
2020,1,8,20:00,UTC,1,998,98,0,0,5.1,4.9,50000,261,10.3,6.8
2020,1,8,21:00,UTC,0,999.2,100,0,0,4,4,50000,248,6,4.5
2020,1,8,22:00,UTC,0,999.6,99,0,0,3.6,3.5,50000,240,7,4.8
2020,1,8,23:00,UTC,0,1000.7,95,0,0,3.5,2.8,50000,266,8.5,5.3
2020,1,9,00:00,UTC,0,1001.1,96,0,0,2.7,2.1,50000,249,6.9,4.7
2020,1,9,01:00,UTC,0,1001.3,93,0,0,2.4,1.4,50000,255,7.8,6
2020,1,9,02:00,UTC,0,1001.6,92,0,0,2.2,1.1,50000,259,8.9,5.7
2020,1,9,03:00,UTC,0,1001.7,88,0,0,2.4,0.6,50000,255,9,6.3
2020,1,9,04:00,UTC,0,1002,89,0,0,2.2,0.5,50000,255,8.8,6.4
2020,1,9,05:00,UTC,0,1002.1,89,0,0,2.3,0.6,50000,255,8.8,6.4
2020,1,9,06:00,UTC,0,1002.6,91,0,0,2.1,0.9,46490,256,8.4,6
2020,1,9,07:00,UTC,0,1003.4,89,0,0,2,0.3,50000,260,8.7,6.1
2020,1,9,08:00,UTC,0,1004.4,86,0,0,2.4,0.4,50000,266,10.6,7.7
2020,1,9,09:00,UTC,0,1004.7,83,0,0,2.9,0.3,50000,264,10.1,6.8
2020,1,9,10:00,UTC,0,1005.3,81,0,0,3.2,0.2,50000,273,11.1,8
2020,1,9,11:00,UTC,0,1005.5,78,0,0,3.4,-0.1,50000,260,8.6,6.1
2020,1,9,12:00,UTC,0,1006.1,77,0,0,3.4,-0.2,50000,258,8.1,5.5
2020,1,9,13:00,UTC,0,1006.9,82,0,0,2.6,-0.1,50000,246,6,4.7
2020,1,9,14:00,UTC,0,1007.4,88,0,0,1.5,-0.2,50000,244,6.2,5
2020,1,9,15:00,UTC,0,1007.9,90,0,0,1.3,-0.2,50000,248,6,4.2
2020,1,9,16:00,UTC,0,1008.1,90,0,0,1.1,-0.4,50000,252,6.5,5
2020,1,9,17:00,UTC,0,1008.2,95,0,0,0.3,-0.4,50000,268,5.9,4.2
2020,1,9,18:00,UTC,0,1008.6,96,0,0,0,-0.6,50000,271,5.1,4.1
2020,1,9,19:00,UTC,1,1008.9,100,0,0,-0.9,-1,50000,251,4.2,3.4
2020,1,9,20:00,UTC,6,1009.5,100,0,0,-1.2,-1.2,48130,243,4.4,3.8
2020,1,9,21:00,UTC,1,1009.7,100,0,0,-1.3,-1.3,50000,250,4.1,3.5
2020,1,9,22:00,UTC,2,1010,100,0,0,-1.8,-1.8,41100,258,3.7,3.2
2020,1,9,23:00,UTC,5,1010,100,0,0,-2.1,-2.1,38630,282,2.6,2.3
2020,1,10,00:00,UTC,5,1010.1,100,0,0,-2.3,-2.3,36250,256,3.8,3.2
2020,1,10,01:00,UTC,0,1010.3,100,0,0,-1.9,-1.9,37600,352,2.9,2.2
2020,1,10,02:00,UTC,0,1010.6,100,0,0,-3,-3,24860,264,2.1,1.5
2020,1,10,03:00,UTC,0,1010.9,100,0,0,-3.2,-3.2,20610,286,2.1,1.4
2020,1,10,04:00,UTC,1,1010.7,100,0,0,-3.4,-3.4,16140,292,2.2,1.6
2020,1,10,05:00,UTC,0,1010.8,100,0,0,-4.1,-4.1,21390,274,2.4,1.9
2020,1,10,06:00,UTC,8,1011.1,100,0,0,-3.3,-3.3,23650,319,2.7,1.6
2020,1,10,07:00,UTC,2,1011.7,100,0,0,-3.5,-3.5,18890,298,1.7,1.3
2020,1,10,08:00,UTC,1,1012.3,100,0,0,-4.1,-4.1,19280,291,3,2
2020,1,10,09:00,UTC,0,1012.4,100,0,0,-2.9,-2.9,18610,323,2.2,1.5
2020,1,10,10:00,UTC,0,1012.7,100,0,0,-1.4,-1.4,19440,324,1.3,0.6
2020,1,10,11:00,UTC,0,1012.9,100,0,0,-1.2,-1.2,17540,339,3,2.2
2020,1,10,12:00,UTC,0,1012.8,100,0,0,-0.7,-0.7,17940,340,1.9,1.5
2020,1,10,13:00,UTC,0,1013.1,99,0,0,-1.1,-1.2,22840,356,3.2,1.9
2020,1,10,14:00,UTC,0,1013.7,100,0,0,-2.2,-2.2,17570,340,2.3,1.3
2020,1,10,15:00,UTC,0,1013.9,100,0,0,-2.7,-2.7,15080,297,5,2.4
2020,1,10,16:00,UTC,0,1014,99,0,0,-3.1,-3.2,14270,318,2.7,1.4
2020,1,10,17:00,UTC,0,1014.5,100,0,0,-4.3,-4.3,12270,317,1.7,1.1
2020,1,10,18:00,UTC,0,1014.8,100,0,0,-4.6,-4.6,15090,311,2.8,1.8
2020,1,10,19:00,UTC,0,1015.1,100,0,0,-4.2,-4.2,12820,302,3.8,2.5
2020,1,10,20:00,UTC,0,1015.3,100,0,0,-5.3,-5.3,14120,308,2.1,1.7
2020,1,10,21:00,UTC,0,1015.4,100,0,0,-5.5,-5.5,15590,308,1.7,1.3
2020,1,10,22:00,UTC,0,1015.7,100,0,0,-5.6,-5.6,16790,306,3.9,2.9
2020,1,10,23:00,UTC,0,1016.1,100,0,0,-6.1,-6.1,18300,305,4.8,2.3
2020,1,11,00:00,UTC,0,1016.4,100,0,0,-5.8,-5.8,19410,275,4,3.4
2020,1,11,01:00,UTC,0,1017,100,0,0,-6.2,-6.2,20350,273,3.8,3.3
2020,1,11,02:00,UTC,1,1017.2,100,0,0,-5.8,-5.8,25320,259,3.1,2.7
2020,1,11,03:00,UTC,0,1016.8,99,0,0,-5.9,-6,24140,247,4.2,3.7
2020,1,11,04:00,UTC,0,1017.5,100,0,0,-6.2,-6.2,21760,241,3,2.9
2020,1,11,05:00,UTC,0,1017.7,100,0,0,-6.3,-6.3,22140,239,3.5,3.3
2020,1,11,06:00,UTC,0,1017.7,100,0,0,-6.1,-6.1,24350,225,3.5,3.3
2020,1,11,07:00,UTC,0,1017.8,100,0,0,-5.8,-5.8,23840,228,3.5,2.9
2020,1,11,08:00,UTC,0,1017.9,100,0,0,-5.2,-5.2,19340,225,3.2,2.9
2020,1,11,09:00,UTC,0,1017.7,100,0,0,-2.5,-2.5,17770,192,4,3
2020,1,11,10:00,UTC,0,1017.1,100,0,0,-1.3,-1.3,18980,224,5.1,3.6
2020,1,11,11:00,UTC,0,1016.9,100,0,0,-0.3,-0.3,24160,231,6.1,3.6
2020,1,11,12:00,UTC,0,1016.8,99,0,0,0.1,0,34970,233,4.5,3.5
2020,1,11,13:00,UTC,3,1016,94,0,0,0.9,0.1,40100,221,6.9,5.2
2020,1,11,14:00,UTC,8,1015,96,0,0,1,0.4,44190,209,5.7,4.1
2020,1,11,15:00,UTC,8,1013.4,85,0,0,2.7,0.5,50000,212,12.2,8.6
2020,1,11,16:00,UTC,8,1012.7,89,0,0,2.8,1.2,48270,211,14,9.9
2020,1,11,17:00,UTC,7,1010.9,96,0,0,2.6,2,32580,207,16.1,9.9
2020,1,11,18:00,UTC,7,1009.3,97,0,0,2.8,2.3,33060,208,14.4,9.7
2020,1,11,19:00,UTC,7,1007.4,96,0,0,2.7,2.2,16050,216,17.4,11.7
2020,1,11,20:00,UTC,8,1006.3,100,1.1,0,2.2,2.2,8480,220,14.8,10.7
2020,1,11,21:00,UTC,8,1004.6,100,0.3,0,2.8,2.8,12660,219,14.9,10.9
2020,1,11,22:00,UTC,8,1003.2,100,1.7,0,3.4,3.4,9280,224,18.7,13.6
2020,1,11,23:00,UTC,8,1001.8,100,0.8,0,3.7,3.7,10290,226,18.3,11.7
2020,1,12,00:00,UTC,8,1000.5,100,1.6,0,4.2,4.2,8780,230,16.9,12.5
2020,1,12,01:00,UTC,8,999.9,100,0.7,0,4.1,4.1,8630,230,15.5,10.5
2020,1,12,02:00,UTC,8,998.5,100,0.7,0,4.6,4.6,22920,229,15.4,10.8
2020,1,12,03:00,UTC,8,997.8,100,1,0,4.8,4.8,18730,229,14.3,10.9
2020,1,12,04:00,UTC,8,997.1,100,0.6,0,4.8,4.8,35090,232,16.4,10.1
2020,1,12,05:00,UTC,8,996.5,100,0,0,4.9,4.9,7640,234,13.8,9.4
2020,1,12,06:00,UTC,8,995.8,100,0.4,0,5,5,5740,235,11.8,8.4
2020,1,12,07:00,UTC,8,995.5,100,0,0,5.1,5.1,8550,239,11.4,8.1
2020,1,12,08:00,UTC,8,995.5,100,0,0,5.1,5.1,7590,245,10.6,7.7
2020,1,12,09:00,UTC,8,995.8,100,0,0,5.3,5.3,13070,247,8.8,6.5
2020,1,12,10:00,UTC,8,995.8,100,0,0,5.5,5.5,50000,255,10.1,7.4
2020,1,12,11:00,UTC,8,995.8,100,0,0,5.8,5.8,50000,255,10.1,7.4
2020,1,12,12:00,UTC,8,996.2,100,0,0,5.9,5.9,50000,252,9.6,6.3
2020,1,12,13:00,UTC,8,996.6,100,0,0,5.6,5.6,50000,262,7.7,5
2020,1,12,14:00,UTC,7,996.9,100,0,0,5,5,50000,245,6.2,4.5
2020,1,12,15:00,UTC,7,997,100,0,0,4.7,4.7,50000,240,5.8,4.7
2020,1,12,16:00,UTC,7,997.1,100,0,0,4.9,4.9,50000,230,6.4,5
2020,1,12,17:00,UTC,7,997.2,100,0,0,5,5,50000,243,7.3,4.8
2020,1,12,18:00,UTC,8,997.2,100,0,0,5.1,5.1,50000,257,7.3,5.3
2020,1,12,19:00,UTC,7,997.5,100,0,0,4.6,4.6,50000,257,8.8,6.3
2020,1,12,20:00,UTC,7,998.3,99,0,0,4.2,4,50000,261,9.6,6.4
2020,1,12,21:00,UTC,8,998.8,99,0,0,3.9,3.8,50000,258,7.1,5
2020,1,12,22:00,UTC,7,1000.1,96,0,0,3.7,3.1,50000,275,8,6.3
2020,1,12,23:00,UTC,0,1001.1,100,0,0,2.3,2.3,50000,287,6,4.6
2020,1,13,00:00,UTC,7,1002.2,100,0,0,1.9,1.9,50000,264,7.5,5.1
2020,1,13,01:00,UTC,7,1002.7,100,0,0,1.7,1.7,50000,273,8.1,5.7
2020,1,13,02:00,UTC,0,1003.1,100,0,0,0.2,0.2,50000,266,3.9,2.9
2020,1,13,03:00,UTC,0,1003.2,100,0,0,-0.8,-0.8,50000,217,4.9,4.2
2020,1,13,04:00,UTC,5,1003.6,100,0,0,-0.5,-0.5,40310,224,5.4,4.3
2020,1,13,05:00,UTC,4,1003.6,100,0,0,-0.8,-0.8,27410,215,4.1,3.5
2020,1,13,06:00,UTC,0,1003.7,100,0,0,-1,-1,50000,228,4.4,3.1
2020,1,13,07:00,UTC,0,1004,100,0,0,-0.3,-0.3,50000,234,7.2,5.1
2020,1,13,08:00,UTC,7,1004.7,100,0,0,1,1,42760,264,6.5,4.8
2020,1,13,09:00,UTC,7,1005.4,100,0,0,1,1,50000,263,7.5,5.1
2020,1,13,10:00,UTC,8,1005.6,100,0,0,1.3,1.3,50000,266,6.8,4.7
2020,1,13,11:00,UTC,8,1006,97,0,0,1.4,1,50000,261,7.2,5
2020,1,13,12:00,UTC,7,1006.1,98,0,0,1.2,0.9,50000,256,6.2,4.1
2020,1,13,13:00,UTC,7,1006.4,97,0,0,1,0.6,48950,257,6.3,4.5
2020,1,13,14:00,UTC,7,1006.4,99,0,0,0.8,0.6,50000,260,7.6,5.1
2020,1,13,15:00,UTC,7,1006.7,99,0,0,1,0.8,44550,252,6.9,4.6
2020,1,13,16:00,UTC,7,1006.8,99,0,0,1,0.9,41080,244,5.3,3.8
2020,1,13,17:00,UTC,8,1007.1,98,0,0,1.3,1,45720,245,8.2,5.8
2020,1,13,18:00,UTC,8,1007.1,97,0,0,1.3,0.9,42520,243,8.5,4.8
2020,1,13,19:00,UTC,7,1007.3,96,0,0,1.6,1,49310,245,9.2,5.7
2020,1,13,20:00,UTC,7,1007.3,100,0,0,1.2,1.2,48760,227,5.1,3.9
2020,1,13,21:00,UTC,7,1007.5,99,0,0,1.4,1.3,50000,232,8.9,6
2020,1,13,22:00,UTC,7,1008.1,99,0,0,1.7,1.6,50000,252,8.2,5.7
2020,1,13,23:00,UTC,7,1007.7,97,0,0,1.7,1.3,50000,242,8.4,5.8
2020,1,14,00:00,UTC,7,1007.9,97,0,0,1.8,1.4,50000,252,8.2,5.4
2020,1,14,01:00,UTC,8,1008.4,93,0,0,2.3,1.2,50000,252,9.3,5.6
2020,1,14,02:00,UTC,7,1008.5,92,0,0,2.5,1.3,50000,243,8.3,5.8
2020,1,14,03:00,UTC,7,1008.7,90,0,0,2.4,1,50000,247,7.7,5.4
2020,1,14,04:00,UTC,7,1008.9,92,0,0,2.3,1.1,50000,238,7.3,5.3
2020,1,14,05:00,UTC,3,1009.2,96,0,0,1.8,1.1,50000,232,7.7,5.1
2020,1,14,06:00,UTC,7,1009.3,98,0,0,1.8,1.4,50000,240,6.1,4.1
2020,1,14,07:00,UTC,7,1009.7,92,0,0,2.5,1.4,50000,247,8.6,5.5
2020,1,14,08:00,UTC,7,1009.5,94,0,0,2.5,1.6,49710,213,4.6,3.5
2020,1,14,09:00,UTC,7,1009.5,95,0,0,3.1,2.4,47750,200,5.9,4.5
2020,1,14,10:00,UTC,7,1009.3,92,0,0,3.6,2.4,43960,207,9.5,6.7
2020,1,14,11:00,UTC,7,1009,95,0,0,3.4,2.7,49260,205,12.7,8.5
2020,1,14,12:00,UTC,8,1008.4,97,0,0,3.4,2.9,44990,203,13.5,8.8
2020,1,14,13:00,UTC,8,1007.4,95,0,0,3.6,2.8,50000,191,12.7,8.9
2020,1,14,14:00,UTC,8,1006.5,92,0,0,3.7,2.6,50000,200,12,9.4
2020,1,14,15:00,UTC,7,1005.5,92,0,0,3.4,2.3,50000,193,15.7,10.1
2020,1,14,16:00,UTC,8,1004.6,93,0,0,3,1.9,50000,193,15.7,10.9
2020,1,14,17:00,UTC,8,1003.4,95,0,0,3,2.3,50000,186,14.6,10.2
2020,1,14,18:00,UTC,8,1002.3,100,1.7,0,2.3,2.3,7000,184,13.6,8.9
2020,1,14,19:00,UTC,8,1001.3,100,2.3,0,2.6,2.6,4870,195,17.4,11.7
2020,1,14,20:00,UTC,8,1000.6,100,0.2,0,2.5,2.5,11170,200,14.8,11.1
2020,1,14,21:00,UTC,8,1000.1,100,0.3,0,2.8,2.8,5120,206,13.3,10
2020,1,14,22:00,UTC,8,999.6,100,0,0,3.8,3.8,11950,211,13.3,9
2020,1,14,23:00,UTC,8,999.9,100,0,0,4.5,4.5,22000,228,9.5,6.9
2020,1,15,00:00,UTC,8,1000.3,100,0,0,4.9,4.9,39020,225,9.4,6.6
2020,1,15,01:00,UTC,7,1000.4,100,0,0,4.9,4.9,37610,224,11.3,7.5
2020,1,15,02:00,UTC,7,999.7,100,0,0,4.7,4.7,31970,214,11.5,7.3
2020,1,15,03:00,UTC,7,999.9,99,0,0,5.3,5.2,33750,220,14.6,9.6
2020,1,15,04:00,UTC,8,999.8,100,0,0,5.2,5.2,34180,221,12.4,8.9
2020,1,15,05:00,UTC,8,998.5,100,0.9,0,4.7,4.7,15360,208,11.3,7.3
2020,1,15,06:00,UTC,8,996.8,100,2.7,0,4.7,4.7,11810,196,13.4,9.6
2020,1,15,07:00,UTC,8,995.7,100,2.6,0,5.1,5.1,6560,194,14.7,11.3
2020,1,15,08:00,UTC,8,994.8,100,2.7,0,5.2,5.2,6550,205,15.9,11.4
2020,1,15,09:00,UTC,8,994.2,100,1.3,0,5.9,5.9,7550,216,16.2,12.2
2020,1,15,10:00,UTC,8,994.1,100,0.3,0,6.4,6.4,6140,224,18.8,13.1
2020,1,15,11:00,UTC,8,994.5,100,0,0,6.9,6.9,8900,228,18.4,12.2
2020,1,15,12:00,UTC,8,994.8,100,0,0,7.1,7.1,23190,226,16,11.5
2020,1,15,13:00,UTC,8,995.2,100,0,0,7.1,7.1,13730,229,13.9,9.6
2020,1,15,14:00,UTC,8,995.4,100,0.7,0,7.2,7.2,10910,224,15,10.6
2020,1,15,15:00,UTC,8,996.1,100,0.9,0,6.9,6.9,3160,227,12.8,8.6
2020,1,15,16:00,UTC,7,996.6,100,0,0,7.3,7.3,41140,230,12.3,9.3
2020,1,15,17:00,UTC,7,997.3,100,0,0,7.4,7.4,50000,234,12.9,8.9
2020,1,15,18:00,UTC,1,998,94,0,0,6.9,6.1,50000,244,10,7.5
2020,1,15,19:00,UTC,5,998.8,94,0,0,6.3,5.4,50000,246,11.1,6.7
2020,1,15,20:00,UTC,3,999.8,91,0,0,5.9,4.6,50000,245,9.1,6.7
2020,1,15,21:00,UTC,0,1000.5,92,0,0,5.2,4.1,50000,234,6.7,5.4
2020,1,15,22:00,UTC,4,1001.1,96,0,0,5,4.5,50000,233,6,4.3
2020,1,15,23:00,UTC,8,1001.5,96,0,0,5.2,4.6,50000,223,5.5,4.4
2020,1,16,00:00,UTC,8,1001.7,100,0,0,5.3,5.3,50000,226,6.8,5
2020,1,16,01:00,UTC,8,1001.2,95,0,0,5.2,4.5,50000,225,4.9,3.8
2020,1,16,02:00,UTC,8,1001.2,86,0,0,5.3,3.2,50000,228,8,6.2
2020,1,16,03:00,UTC,7,1001.8,85,0,0,5,2.7,50000,233,10,7.4
2020,1,16,04:00,UTC,7,1002.4,92,0,0,4.3,3.1,50000,236,10.6,7.7
2020,1,16,05:00,UTC,7,1003,95,0,0,4.1,3.3,50000,233,9.6,6.3
2020,1,16,06:00,UTC,7,1003.5,97,0,0,3.8,3.4,50000,237,7.6,5.3
2020,1,16,07:00,UTC,5,1004.5,99,0,0,3.7,3.6,50000,245,6.7,4.6
2020,1,16,08:00,UTC,7,1005.2,95,0,0,4.5,3.8,50000,238,8.6,6.5
2020,1,16,09:00,UTC,8,1006.3,92,0,0,5,3.8,50000,242,9.1,6.5
2020,1,16,10:00,UTC,8,1006.6,100,0.7,0,4.4,4.4,12560,239,8.2,5.7
2020,1,16,11:00,UTC,8,1007.3,100,0,0,4.7,4.7,23860,238,7.1,5.3
2020,1,16,12:00,UTC,8,1007.9,98,0,0,5.1,4.8,32190,246,7.3,5.2
2020,1,16,13:00,UTC,8,1008.7,96,0,0,5.2,4.7,16590,240,6.6,4.6
2020,1,16,14:00,UTC,8,1009.5,95,0,0,5.2,4.5,25140,245,6.8,5.2
2020,1,16,15:00,UTC,8,1010.3,95,0,0,5.2,4.5,23760,245,8.3,5.5
2020,1,16,16:00,UTC,7,1011,100,0,0,4.8,4.8,19500,241,7.7,5.6
2020,1,16,17:00,UTC,8,1011.6,100,0,0,4.5,4.5,17800,239,6.3,4.8
2020,1,16,18:00,UTC,7,1012.1,100,0,0,4.5,4.5,18910,248,7.1,5.2
2020,1,16,19:00,UTC,2,1012.8,99,0,0,4.6,4.4,22300,248,7.9,5.2
2020,1,16,20:00,UTC,0,1013.5,100,0,0,3.9,3.9,19620,252,7.5,4.8
2020,1,16,21:00,UTC,0,1014.6,100,0,0,4,4,23160,254,7.8,5.9
2020,1,16,22:00,UTC,0,1014.9,100,0,0,3.6,3.6,21690,255,6.2,4.3
2020,1,16,23:00,UTC,0,1015.6,100,0,0,2.8,2.8,16730,254,4.6,3.3
2020,1,17,00:00,UTC,0,1016.1,100,0,0,1.9,1.9,11420,228,4.2,3.4
2020,1,17,01:00,UTC,0,1017,100,0,0,1.8,1.8,10120,217,4.4,3.4
2020,1,17,02:00,UTC,7,1016.9,100,0,0,1.5,1.5,8580,219,4.4,3.8
2020,1,17,03:00,UTC,8,1017.2,100,0,0,2,2,8940,229,4.9,4
2020,1,17,04:00,UTC,8,1017.5,100,0,0,2.5,2.5,11670,244,6.1,4.1
2020,1,17,05:00,UTC,7,1017.8,100,0,0,1.9,1.9,9140,225,4.3,3.5
2020,1,17,06:00,UTC,8,1018.1,100,0,0,2.2,2.2,10630,227,5.7,4.4
2020,1,17,07:00,UTC,5,1018.4,100,0,0,2.1,2.1,11080,230,4.3,3.5
2020,1,17,08:00,UTC,8,1018.8,100,0,0,2.9,2.9,12650,230,6.2,4.7
2020,1,17,09:00,UTC,8,1018.9,100,0,0,3.4,3.4,14220,235,6.5,5.2
2020,1,17,10:00,UTC,8,1018.9,100,0,0,4.1,4.1,16950,236,8.1,5.1
2020,1,17,11:00,UTC,8,1018.8,99,0,0,4.5,4.4,21070,233,10.4,6.4
2020,1,17,12:00,UTC,8,1019,98,0,0,5,4.7,23850,233,9.2,6.8
2020,1,17,13:00,UTC,7,1018.6,95,0,0,4.8,4,33730,224,9.8,7.3
2020,1,17,14:00,UTC,7,1018.6,95,0,0,4.5,3.8,41790,221,7.9,5.9
2020,1,17,15:00,UTC,8,1018.1,100,0,0,4.5,4.5,27140,213,8.4,6.2
2020,1,17,16:00,UTC,8,1017.9,100,0,0,4.8,4.8,29710,219,9.8,6.8
2020,1,17,17:00,UTC,8,1017.6,100,0,0,4.6,4.6,27360,222,12.1,8.6
2020,1,17,18:00,UTC,8,1017.2,100,0,0,4.6,4.6,22140,222,11,7.7
2020,1,17,19:00,UTC,8,1016.7,100,0,0,4.7,4.7,23900,219,10.9,7.8
2020,1,17,20:00,UTC,8,1016.5,100,0,0,4.7,4.7,12670,221,10.8,7.5
2020,1,17,21:00,UTC,8,1016.4,100,0,0,4.5,4.5,6910,222,9.2,6
2020,1,17,22:00,UTC,8,1016.2,100,0,0,4.6,4.6,16370,227,10.3,6.7
2020,1,17,23:00,UTC,8,1015.9,100,0,0,4.6,4.6,21850,218,10.2,6.8
2020,1,18,00:00,UTC,8,1015.6,100,0,0,4.3,4.3,26580,217,7.1,5.3
2020,1,18,01:00,UTC,8,1015.2,100,0,0,3.9,3.9,30080,219,7,5.2
2020,1,18,02:00,UTC,0,1014.7,100,0,0,2.4,2.4,29280,197,5.1,4.3
2020,1,18,03:00,UTC,3,1013.6,99,0,0,2.6,2.4,50000,171,5.7,4
2020,1,18,04:00,UTC,3,1012.4,95,0,0,2,1.4,50000,166,4.5,2.9
2020,1,18,05:00,UTC,0,1012.1,97,0,0,1.4,1,50000,166,4.2,3.1
2020,1,18,06:00,UTC,7,1011.3,95,0,0,1.8,1,45910,194,10,6.7
2020,1,18,07:00,UTC,8,1010.7,97,0,0,1.6,1.1,33380,196,8.3,6
2020,1,18,08:00,UTC,8,1010.2,96,0,0,1.8,1.1,35760,206,6.4,4.8
2020,1,18,09:00,UTC,8,1009.9,100,0,0,1.7,1.7,3420,203,7.4,5.8
2020,1,18,10:00,UTC,8,1009.5,100,0,0,2.1,2.1,5310,208,10.4,7
2020,1,18,11:00,UTC,8,1009.1,100,0,0,2.4,2.4,2290,205,9.4,6.8
2020,1,18,12:00,UTC,8,1009,100,0.4,0,3,3,2650,210,11.3,8.3
2020,1,18,13:00,UTC,8,1009,100,0,0,3.4,3.4,3310,209,11.1,7.7
2020,1,18,14:00,UTC,8,1008.9,100,0,0,3.7,3.7,3120,216,10.2,6.8
2020,1,18,15:00,UTC,8,1008.8,100,0.4,0,3.6,3.6,3750,205,8.9,6.7
2020,1,18,16:00,UTC,8,1008.7,100,0,0,3.8,3.8,3210,206,10,7.1
2020,1,18,17:00,UTC,8,1008.9,100,0.4,0,4.2,4.2,3270,210,9.4,7.1
2020,1,18,18:00,UTC,8,1009,100,0,0,4.7,4.7,5460,212,10.6,6.7
2020,1,18,19:00,UTC,8,1009.1,100,0,0,4.9,4.9,3730,216,8.6,6.4
2020,1,18,20:00,UTC,8,1009.1,100,0,0,5,5,10630,223,10.1,7.5
2020,1,18,21:00,UTC,8,1009.4,100,0,0,4.9,4.9,20040,223,11.8,7.8
2020,1,18,22:00,UTC,8,1009.9,100,0,0,4.9,4.9,43360,221,10.4,7
2020,1,18,23:00,UTC,7,1010,100,0,0,4.5,4.5,40060,220,11.7,7.4
2020,1,19,00:00,UTC,7,1010.1,97,0,0,4.5,4.1,50000,219,11.3,8.5
2020,1,19,01:00,UTC,8,1010.1,96,0,0,4.6,4,50000,217,13.4,8.7
2020,1,19,02:00,UTC,7,1010.3,99,0,0,4.3,4.1,30500,218,12.5,9
2020,1,19,03:00,UTC,8,1010.1,100,0.7,0,4.1,4.1,18140,215,11.4,8.2
2020,1,19,04:00,UTC,8,1010.5,100,0.3,0,3.5,3.5,8040,241,9.5,6.3
2020,1,19,05:00,UTC,8,1010.8,100,0,0,3.8,3.8,50000,232,9.2,5.8
2020,1,19,06:00,UTC,7,1011.1,100,0,0,3.8,3.8,50000,228,9.3,6.9
2020,1,19,07:00,UTC,8,1011.8,100,0,0,4.1,4.1,50000,236,9.7,6.5
2020,1,19,08:00,UTC,8,1013.1,100,0,0,3.9,3.8,50000,270,11.5,8.2
2020,1,19,09:00,UTC,7,1014.9,99,0,0,2.6,2.4,50000,273,10,7.6
2020,1,19,10:00,UTC,8,1016.2,94,0,0,2.1,1.2,50000,276,9.9,6.9
2020,1,19,11:00,UTC,8,1017.4,94,0,0,2.3,1.4,50000,283,11.2,8.3
2020,1,19,12:00,UTC,7,1018.4,95,0,0,2.6,1.9,50000,266,9,5.8
2020,1,19,13:00,UTC,7,1019.3,95,0,0,2.7,1.9,50000,269,8.8,6.5
2020,1,19,14:00,UTC,7,1020.1,100,0,0,2.1,2.1,50000,239,5.2,4
2020,1,19,15:00,UTC,7,1020.8,100,0,0,2.5,2.5,50000,246,5.8,4.6
2020,1,19,16:00,UTC,7,1021.2,99,0,0,2.7,2.7,50000,253,7.6,5.3
2020,1,19,17:00,UTC,8,1022.1,97,0,0,3,2.6,50000,265,7.8,5.7
2020,1,19,18:00,UTC,8,1022.8,94,0,0,3.3,2.4,50000,278,8.3,6.2
2020,1,19,19:00,UTC,8,1023.1,94,0,0,3.4,2.5,50000,273,6.6,4.8
2020,1,19,20:00,UTC,8,1023.6,95,0,0,3.3,2.5,50000,278,11,8.2
2020,1,19,21:00,UTC,8,1024.4,91,0,0,3.6,2.4,50000,281,10.2,7.1
2020,1,19,22:00,UTC,8,1024.7,91,0,0,3.6,2.2,50000,278,8.3,6
2020,1,19,23:00,UTC,8,1024.9,93,0,0,3.5,2.4,50000,279,9.2,6.6
2020,1,20,00:00,UTC,8,1025.4,90,0,0,3.5,2,50000,286,9.3,6.6
2020,1,20,01:00,UTC,8,1025.4,92,0,0,3.5,2.3,50000,280,8.2,6.1
2020,1,20,02:00,UTC,8,1026,96,0,0,3.3,2.6,50000,289,10.2,7.7
2020,1,20,03:00,UTC,8,1025.9,92,0,0,3.3,2.1,50000,290,9.7,7.3
2020,1,20,04:00,UTC,7,1025.4,93,0,0,2.8,1.8,50000,255,5.2,4.3
2020,1,20,05:00,UTC,7,1025.1,95,0,0,2.2,1.5,50000,250,6.4,4.4
2020,1,20,06:00,UTC,1,1024.7,95,0,0,1.6,0.8,50000,251,7.3,5.5
2020,1,20,07:00,UTC,2,1024.9,95,0,0,0.8,0.1,47730,248,6.7,4.9
2020,1,20,08:00,UTC,3,1024.6,92,0,0,1,-0.1,49100,244,5.6,3.8
2020,1,20,09:00,UTC,5,1024.3,84,0,0,1.7,-0.6,50000,246,7.3,4.6
2020,1,20,10:00,UTC,7,1023,75,0,0,2.6,-1.5,50000,242,7.8,5.7
2020,1,20,11:00,UTC,7,1022.2,68,0,0,3.2,-2,50000,247,9.9,7
2020,1,20,12:00,UTC,8,1021.7,76,0,0,3.3,-0.5,50000,249,10.8,7.6
2020,1,20,13:00,UTC,80,1020.6,86,0,0,3.1,0.9,50000,241,8.3,6.2
2020,1,20,14:00,UTC,7,1019.9,87,0,0,3.2,1.3,50000,247,8.9,5.8
2020,1,20,15:00,UTC,8,1019.5,89,0,0,3.2,1.7,50000,256,8.9,6.2
2020,1,20,16:00,UTC,3,1018.4,93,0,0,2.7,1.7,50000,240,8.2,5.6
2020,1,20,17:00,UTC,8,1017.3,95,0,0,2.6,1.8,50000,241,8.1,6
2020,1,20,18:00,UTC,5,1016.5,97,0,0,2.3,1.8,50000,242,8.5,6.1
2020,1,20,19:00,UTC,7,1014.7,97,0,0,2.6,2.2,50000,232,7.7,5.6
2020,1,20,20:00,UTC,2,1013.6,97,0,0,3,2.7,50000,246,9.3,6.8
2020,1,20,21:00,UTC,4,1012.4,96,0,0,3.4,2.8,50000,248,9.3,6.6
2020,1,20,22:00,UTC,0,1011.9,90,0,0,4.3,2.9,50000,260,8.5,6.3
2020,1,20,23:00,UTC,0,1011,90,0,0,4.4,2.9,50000,254,8.5,6.3
2020,1,21,00:00,UTC,4,1010.1,89,0,0,5,3.3,50000,259,10.7,6.8
2020,1,21,01:00,UTC,4,1009.5,89,0,0,5.1,3.5,50000,260,9.9,7.1
2020,1,21,02:00,UTC,5,1009,88,0,0,5.5,3.7,50000,271,9.3,6.7
2020,1,21,03:00,UTC,7,1007.5,87,0,0,6.1,4.1,50000,265,10.7,7.8
2020,1,21,04:00,UTC,7,1007.3,88,0,0,6.1,4.2,50000,262,8.8,6.1
2020,1,21,05:00,UTC,8,1006.2,89,0,0,6.4,4.7,50000,277,10.8,8.2
2020,1,21,06:00,UTC,8,1005.9,87,0,0,6.8,4.8,50000,275,11.1,8.1
2020,1,21,07:00,UTC,8,1005.4,82,0,0,7.5,4.6,50000,279,11.1,8
2020,1,21,08:00,UTC,8,1005.5,69,0,0,7.2,2,50000,307,12.9,9.4
2020,1,21,09:00,UTC,3,1006.3,58,0,0,6.7,-0.9,50000,308,16,10.4
2020,1,21,10:00,UTC,0,1006.7,58,0,0,5.9,-1.7,44140,312,16.6,10.6
2020,1,21,11:00,UTC,0,1007.1,55,0,0,5.6,-2.7,44990,307,16.6,10.6
2020,1,21,12:00,UTC,0,1008.1,54,0,0,5.2,-3.4,49500,305,17.6,10.8
2020,1,21,13:00,UTC,0,1008.5,55,0,0,4.6,-3.6,47430,298,15.6,11
2020,1,21,14:00,UTC,8,1008.4,60,0,0,3.9,-3.3,50000,293,15.8,10.8
2020,1,21,15:00,UTC,0,1008.9,62,0,0,3.5,-3.1,50000,295,13.3,10
2020,1,21,16:00,UTC,0,1008.8,61,0,0,3.6,-3.2,50000,296,12,9.2
2020,1,21,17:00,UTC,0,1008.8,62,0,0,3,-3.6,50000,284,14.2,8.9
2020,1,21,18:00,UTC,7,1008.2,61,0,0,3.2,-3.5,50000,283,14.2,9.6
2020,1,21,19:00,UTC,7,1007.4,61,0,0,3.3,-3.4,50000,280,12.4,9.1
2020,1,21,20:00,UTC,7,1006.2,60,0,0,3.4,-3.6,50000,273,13.3,8.7
2020,1,21,21:00,UTC,8,1005.7,62,0,0,3.4,-3.2,50000,272,12.8,9.1
2020,1,21,22:00,UTC,7,1005,62,0,0,3.3,-3.2,50000,279,13.7,9.8
2020,1,21,23:00,UTC,7,1004,62,0,0,3.4,-3.3,50000,280,14.4,10.4
2020,1,22,00:00,UTC,6,1003,64,0,0,3,-3.3,50000,285,11.9,9.2
2020,1,22,01:00,UTC,0,1002.3,65,0,0,2.7,-3.2,50000,287,12.5,9.1
2020,1,22,02:00,UTC,0,1001.7,66,0,0,2.4,-3.3,50000,289,13.2,9
2020,1,22,03:00,UTC,0,1001.2,66,0,0,2.3,-3.4,50000,299,13.2,9.6
2020,1,22,04:00,UTC,6,1001.6,91,0,0,0.8,-0.5,50000,307,11.2,7.7
2020,1,22,05:00,UTC,0,1001.5,93,0,0,0,-1,50000,298,8.9,6.7
2020,1,22,06:00,UTC,0,1001.4,86,0,0,0.3,-1.7,48150,298,9.2,7.3
2020,1,22,07:00,UTC,0,1002.1,83,0,0,0.3,-2.2,50000,308,10.7,7.3
2020,1,22,08:00,UTC,5,1003.5,83,0,0,0.5,-2.1,50000,307,9.7,6.7
2020,1,22,09:00,UTC,8,1004.3,66,0,0,1.6,-4.1,50000,318,13.2,7.3
2020,1,22,10:00,UTC,7,1005.6,64,0,0,1.9,-4.3,49840,331,10.5,7.2
2020,1,22,11:00,UTC,0,1006.7,62,0,0,1.9,-4.7,45840,333,11.8,8.3
2020,1,22,12:00,UTC,0,1007.7,59,0,0,2.1,-5,39420,326,13.7,9.1
2020,1,22,13:00,UTC,1,1009.2,62,0,0,1.7,-4.8,50000,326,12.5,8
2020,1,22,14:00,UTC,0,1010.7,66,0,0,0.9,-4.7,50000,329,11.4,8.1
2020,1,22,15:00,UTC,0,1012,67,0,0,0.6,-4.8,50000,325,11.8,7.7
2020,1,22,16:00,UTC,0,1012.7,70,0,0,0,-4.9,50000,322,8,6
2020,1,22,17:00,UTC,6,1013.5,75,0,0,-0.6,-4.4,50000,304,7.4,4.7
2020,1,22,18:00,UTC,7,1014,79,0,0,-1,-4.2,50000,287,7.3,5.6
2020,1,22,19:00,UTC,7,1014.6,80,0,0,-1,-4,50000,288,8,5.8
2020,1,22,20:00,UTC,7,1015.2,79,0,0,-0.8,-4,50000,309,9.9,6.4
2020,1,22,21:00,UTC,3,1015.9,77,0,0,-0.7,-4.2,50000,320,9.5,6.8
2020,1,22,22:00,UTC,0,1016.9,77,0,0,-0.6,-4.2,49100,318,9.2,6.4
2020,1,22,23:00,UTC,0,1017.8,77,0,0,-1.4,-4.9,50000,334,8.9,5.9
2020,1,23,00:00,UTC,0,1018.3,80,0,0,-2.1,-5.2,50000,303,5.8,4.1
2020,1,23,01:00,UTC,0,1018.5,83,0,0,-3.2,-5.7,50000,297,4.4,3.6
2020,1,23,02:00,UTC,0,1018.4,90,0,0,-3.5,-4.9,50000,287,5.4,4.5
2020,1,23,03:00,UTC,0,1018.3,97,0,0,-4.1,-4.5,50000,275,4.2,3.8
2020,1,23,04:00,UTC,0,1018.1,96,0,0,-3.6,-4.1,50000,268,4.9,4.1
2020,1,23,05:00,UTC,2,1017.8,98,0,0,-3,-3.2,50000,269,5.8,4.8
2020,1,23,06:00,UTC,0,1017.3,97,0,0,-2.6,-3,50000,273,5.1,4.1
2020,1,23,07:00,UTC,0,1017.1,99,0,0,-2.9,-3,50000,266,5.2,4.3
2020,1,23,08:00,UTC,0,1016.9,100,0,0,-2.1,-2.1,50000,268,5.7,4.4
2020,1,23,09:00,UTC,3,1016.4,100,0,0,-1.6,-1.6,50000,283,6.2,4.6
2020,1,23,10:00,UTC,3,1015.7,100,0,0,-0.5,-0.6,50000,265,6.7,4.8
2020,1,23,11:00,UTC,6,1014.7,96,0,0,0.4,-0.2,50000,262,6.8,4.4
2020,1,23,12:00,UTC,7,1013.6,96,0,0,0.7,0.1,50000,242,5.8,3.9
2020,1,23,13:00,UTC,8,1012.7,96,0,0,0.7,0.2,13130,242,5.7,3.9
2020,1,23,14:00,UTC,8,1011.1,97,0,0,0.7,0.3,50000,217,5.5,4.1
2020,1,23,15:00,UTC,8,1009.4,93,0,0,1.1,0,50000,192,6.4,4.8
2020,1,23,16:00,UTC,8,1007.9,88,0,0,1.6,-0.3,50000,216,5.9,4.5
2020,1,23,17:00,UTC,8,1006.4,84,0,0,2.5,0.1,50000,229,10,6.7
2020,1,23,18:00,UTC,8,1005.3,87,0,0,2.6,0.7,50000,237,8.3,6.1
2020,1,23,19:00,UTC,8,1004.3,88,0,0,2.6,0.9,50000,246,6.7,4.5
2020,1,23,20:00,UTC,7,1004.1,84,0,0,2.1,-0.2,50000,262,8.7,6.5
2020,1,23,21:00,UTC,6,1003.6,86,0,0,1.5,-0.6,50000,253,6.8,5.3
2020,1,23,22:00,UTC,2,1003,89,0,0,1,-0.7,50000,255,8.2,5.9
2020,1,23,23:00,UTC,0,1002.9,95,0,0,0.5,-0.2,50000,250,6.6,4.9
2020,1,24,00:00,UTC,1,1002,97,0,0,0.2,-0.2,50000,241,6.8,5.4
2020,1,24,01:00,UTC,8,1001.9,94,0,0,1,0.1,50000,255,5.6,4.2
2020,1,24,02:00,UTC,8,1001.2,94,0,0,1.1,0.2,50000,247,5.6,4.4
2020,1,24,03:00,UTC,8,1000.8,89,0,0,1.6,0,50000,270,6.2,4.4
2020,1,24,04:00,UTC,8,1000.5,93,0,0,1.5,0.5,50000,251,5.3,4.2
2020,1,24,05:00,UTC,8,1000.4,93,0,0,1.7,0.6,50000,249,5.8,4
2020,1,24,06:00,UTC,8,999.6,96,0,0,1.4,0.8,50000,241,6.9,5.5
2020,1,24,07:00,UTC,7,999.5,96,0,0,1.4,0.8,50000,263,5.1,3.9
2020,1,24,08:00,UTC,7,999.7,96,0,0,1.5,0.9,50000,267,4.9,3.8
2020,1,24,09:00,UTC,8,999.7,89,0,0,2.3,0.7,50000,281,7,4.6
2020,1,24,10:00,UTC,8,999,83,0,0,2.6,0,50000,278,5.4,4.2
2020,1,24,11:00,UTC,8,999,87,0,0,2.7,0.7,50000,298,8.2,6.1
2020,1,24,12:00,UTC,8,998.7,94,0,0,2.9,2.1,50000,268,8,6.2
2020,1,24,13:00,UTC,8,998.1,91,0,0,2.8,1.4,50000,254,8.4,5.5
2020,1,24,14:00,UTC,2,998.5,87,0,0,2.4,0.5,50000,278,7.3,5.2
2020,1,24,15:00,UTC,0,998.9,99,0,0,1,0.9,21750,255,4.8,3.8
2020,1,24,16:00,UTC,0,999,100,0,0,0.3,0.3,16420,254,4.6,3.5
2020,1,24,17:00,UTC,0,999.2,100,0,0,-0.4,-0.4,47860,245,5.7,3.8
2020,1,24,18:00,UTC,0,999.1,100,0,0,-0.1,-0.1,50000,262,6.9,4.6
2020,1,24,19:00,UTC,0,998.6,100,0,0,0.1,0.1,50000,262,6.7,4.3
2020,1,24,20:00,UTC,0,997.7,100,0,0,-0.7,-0.7,50000,236,6.4,4.7
2020,1,24,21:00,UTC,0,997.1,100,0,0,-0.5,-0.5,50000,232,7.2,5
2020,1,24,22:00,UTC,0,996.5,100,0,0,-0.5,-0.5,50000,248,5.6,4.3
2020,1,24,23:00,UTC,4,996.4,99,0,0,0.4,0.3,50000,260,7.2,4.7
2020,1,25,00:00,UTC,7,996.1,97,0,0,0.5,0.2,50000,259,7,4.9
2020,1,25,01:00,UTC,1,996,87,0,0,0.9,-0.9,50000,282,10.5,7
2020,1,25,02:00,UTC,0,996,87,0,0,0,-2,50000,290,8.1,6.4
2020,1,25,03:00,UTC,0,996.2,74,0,0,0.4,-3.7,50000,297,10.9,7.9
2020,1,25,04:00,UTC,0,996.4,73,0,0,0.2,-4,50000,288,10.6,8.2
2020,1,25,05:00,UTC,0,996.9,76,0,0,0,-3.8,50000,288,10.5,8
2020,1,25,06:00,UTC,0,997.5,75,0,0,0.1,-3.8,50000,283,9.4,7.2
2020,1,25,07:00,UTC,0,998.2,75,0,0,0,-4,50000,289,9.1,7
2020,1,25,08:00,UTC,0,998.9,75,0,0,0.1,-3.8,50000,284,10.1,7.5
2020,1,25,09:00,UTC,0,999.8,71,0,0,1.1,-3.6,50000,294,13,8.8
2020,1,25,10:00,UTC,0,1000.5,65,0,0,1.7,-4.2,50000,298,14.8,10.9
2020,1,25,11:00,UTC,1,1001.5,64,0,0,1.9,-4.2,50000,303,13.2,9.5
2020,1,25,12:00,UTC,0,1002.2,65,0,0,1.7,-4.1,50000,294,11.8,8.3
2020,1,25,13:00,UTC,0,1003.1,66,0,0,1.2,-4.5,50000,295,11.5,8.7
2020,1,25,14:00,UTC,0,1003.7,70,0,0,0.6,-4.3,50000,304,8.9,6.2
2020,1,25,15:00,UTC,0,1004.7,77,0,0,-0.5,-3.9,50000,279,5.8,4.7
2020,1,25,16:00,UTC,0,1005.3,81,0,0,-0.9,-3.8,50000,280,5.9,4.5
2020,1,25,17:00,UTC,0,1006,86,0,0,-1.2,-3.3,50000,276,5.8,4.1
2020,1,25,18:00,UTC,0,1006.5,86,0,0,-1,-3.1,50000,265,6.8,4.8
2020,1,25,19:00,UTC,0,1007,90,0,0,-1.4,-2.8,50000,265,6.2,4.8
2020,1,25,20:00,UTC,0,1007.3,95,0,0,-2,-2.8,50000,271,4.3,3.5
2020,1,25,21:00,UTC,0,1007.4,99,0,0,-2.7,-2.9,50000,258,4.6,3.5
2020,1,25,22:00,UTC,5,1007.4,99,0,0,-1.8,-2,50000,251,4.4,3.3
2020,1,25,23:00,UTC,8,1007,98,0,0,-1.4,-1.6,50000,228,2.9,2.4
2020,1,26,00:00,UTC,8,1006.7,97,0,0,-1.1,-1.5,50000,202,2.2,1.4
2020,1,26,01:00,UTC,8,1005.7,89,0,0,0.2,-1.4,37330,193,6.1,4.3
2020,1,26,02:00,UTC,8,1003.8,100,0.6,0,0.2,0.2,6980,184,6.4,4.9
2020,1,26,03:00,UTC,8,1002.4,100,0,0,2,2,26210,195,10.4,8.1
2020,1,26,04:00,UTC,8,1000.9,100,0,0,2.5,2.5,7530,216,7.4,5.5
2020,1,26,05:00,UTC,8,1000.2,100,0,0,2.7,2.7,7500,237,7.7,5.8
2020,1,26,06:00,UTC,8,999.8,100,0,0,3,3,19170,250,7.9,5.8
2020,1,26,07:00,UTC,8,999.8,100,0,0,3.3,3.3,50000,250,9.1,6.4
2020,1,26,08:00,UTC,8,1000,98,0,0,3.7,3.4,50000,261,11.7,7.6
2020,1,26,09:00,UTC,7,1000.5,96,0,0,4,3.4,50000,264,10.8,7.8
2020,1,26,10:00,UTC,3,1000.3,93,0,0,4.4,3.4,50000,259,9,6.5
2020,1,26,11:00,UTC,3,1000.9,93,0,0,4.7,3.7,50000,265,9.3,6.7
2020,1,26,12:00,UTC,0,1001.5,91,0,0,4.8,3.4,50000,275,8.4,6
2020,1,26,13:00,UTC,6,1002.1,90,0,0,4.8,3.4,50000,276,7.3,5.3
2020,1,26,14:00,UTC,7,1002.9,92,0,0,4.3,3.2,50000,268,5,4.1
2020,1,26,15:00,UTC,8,1003.9,96,0,0,3.7,3.1,50000,283,4.6,3.6
2020,1,26,16:00,UTC,8,1004.7,96,0,0,3.5,3,50000,275,3.8,3.1
2020,1,26,17:00,UTC,8,1005.4,99,0,0,3,2.9,50000,298,2.9,2.2
2020,1,26,18:00,UTC,8,1006.6,99,0,0,2.3,2.1,50000,44,5.6,4.2
2020,1,26,19:00,UTC,8,1007.2,100,0,0,1.6,1.5,50000,53,5.5,4
2020,1,26,20:00,UTC,8,1007.8,100,0,0,0.7,0.7,9290,69,7.1,5.6
2020,1,26,21:00,UTC,8,1008.6,100,0,0,-0.1,-0.1,5920,76,8.2,6
2020,1,26,22:00,UTC,8,1009.3,100,0,0,-0.8,-0.8,4280,78,6.5,4.2
2020,1,26,23:00,UTC,8,1009.8,100,0,0,-1.2,-1.2,5000,74,7.7,5.4
2020,1,27,00:00,UTC,8,1010.1,100,0,0,-1.3,-1.3,4280,94,6,4.1
2020,1,27,01:00,UTC,8,1010,100,0,0,-1.4,-1.4,5880,79,5.9,4.4
2020,1,27,02:00,UTC,8,1010.3,100,0,0,-1.5,-1.5,6810,88,6.9,5
2020,1,27,03:00,UTC,8,1010.2,100,0,0,-1.7,-1.7,4540,81,6.3,4.5
2020,1,27,04:00,UTC,8,1010.4,100,0,0,-1.8,-1.8,6730,79,6.6,4.6
2020,1,27,05:00,UTC,8,1009.9,100,0,0,-1.9,-1.9,5350,86,6.9,5
2020,1,27,06:00,UTC,8,1009.8,100,0,0,-1.8,-1.8,3150,91,6.7,5
2020,1,27,07:00,UTC,8,1009.9,100,0.7,0,-1.8,-1.8,1310,70,4.9,3.8
2020,1,27,08:00,UTC,8,1009.7,100,0.3,0,-1.7,-1.7,2060,68,4.4,3.5
2020,1,27,09:00,UTC,8,1009.6,100,0,0,-0.6,-0.6,2070,100,6.5,4.5
2020,1,27,10:00,UTC,8,1009.2,100,0.7,0,-0.3,-0.3,2170,104,8,4.8
2020,1,27,11:00,UTC,8,1008.8,100,0,2,-0.2,-0.2,3760,105,7.5,5.1
2020,1,27,12:00,UTC,8,1008.4,100,0,2,-0.1,-0.1,3800,103,8,5.6
2020,1,27,13:00,UTC,8,1007.9,100,0,2,0,0,3180,101,7.7,5.3
2020,1,27,14:00,UTC,8,1007.7,100,0,2,0.1,0.1,2200,95,7.2,5.4
2020,1,27,15:00,UTC,8,1007.3,100,0,2,0.1,0.1,3500,91,7.7,4.6
2020,1,27,16:00,UTC,8,1007.1,100,0,0,0.2,0.2,3190,95,7,4.7
2020,1,27,17:00,UTC,9,1007,100,0,0,0.2,0.2,1450,95,4.7,3.2
2020,1,27,18:00,UTC,9,1006.6,100,0,0,0.2,0.2,1740,85,5.5,4
2020,1,27,19:00,UTC,8,1006.3,100,0,2,0.2,0.2,2530,94,4.8,3.3
2020,1,27,20:00,UTC,8,1005.7,100,0,2,0.3,0.3,4570,89,4.7,3.5
2020,1,27,21:00,UTC,8,1005.5,100,1,0,0.4,0.4,2290,89,4,3.2
2020,1,27,22:00,UTC,8,1005.2,100,0.6,0,0.4,0.4,1620,90,3,2.1
2020,1,27,23:00,UTC,9,1004.7,100,0.6,0,0.7,0.7,680,97,3.4,2.2
2020,1,28,00:00,UTC,9,1004.4,100,0.3,0,0.5,0.5,350,120,2.4,1.9
2020,1,28,01:00,UTC,8,1003.9,100,0,0,2.4,2.4,36110,177,4.9,3.1
2020,1,28,02:00,UTC,8,1003.2,100,0,0,2.7,2.7,47130,169,4.2,3.1
2020,1,28,03:00,UTC,8,1002.8,100,0.7,0,2.8,2.8,25350,179,8,4.5
2020,1,28,04:00,UTC,8,1002.4,100,0.3,0,2.8,2.8,20300,190,6.2,4.7
2020,1,28,05:00,UTC,8,1002.1,100,0.4,0,2.3,2.3,14580,193,6.1,4.6
2020,1,28,06:00,UTC,8,1001.7,100,0,0,2.2,2.2,9990,166,5.5,3.7
2020,1,28,07:00,UTC,8,1001.6,100,0,0,2.7,2.7,7180,173,5.5,3.5
2020,1,28,08:00,UTC,8,1001.6,100,0.6,0,2.8,2.8,14110,200,8.5,6.5
2020,1,28,09:00,UTC,8,1001.4,100,0,0,2.7,2.7,9170,201,9.2,6.6
2020,1,28,10:00,UTC,8,1001.5,100,0,0,2.6,2.6,9350,196,7.4,5.5
2020,1,28,11:00,UTC,8,1001.2,100,0,0,2.6,2.6,8180,197,7.9,6
2020,1,28,12:00,UTC,8,1001.1,100,0.3,0,2.3,2.3,10650,194,5.7,4.6
2020,1,28,13:00,UTC,8,1000.9,100,0,0,2.2,2.2,6060,183,5.5,3.7
2020,1,28,14:00,UTC,8,1000.6,100,0,0,2.1,2.1,6340,186,5.5,4
2020,1,28,15:00,UTC,8,1000.3,100,0,0,2.2,2.2,11090,145,3.1,2
2020,1,28,16:00,UTC,8,1000.3,100,0,0,2.2,2.2,17450,156,4.3,3.3
2020,1,28,17:00,UTC,8,1000.1,100,0,0,2.1,2.1,13810,116,2.8,2.2
2020,1,28,18:00,UTC,8,999.9,100,0,0,2.5,2.5,20960,144,5.7,4
2020,1,28,19:00,UTC,8,999.8,100,0,0,2.4,2.4,16620,151,5.2,3.8
2020,1,28,20:00,UTC,8,999.5,100,0.3,0,2.1,2.1,24570,141,5,3.8
2020,1,28,21:00,UTC,8,999.5,100,0,0,2.1,2.1,50000,149,5.9,4.4
2020,1,28,22:00,UTC,8,999.3,100,0,0,2,2,50000,141,5.7,4.6
2020,1,28,23:00,UTC,8,999,100,0,0,1.8,1.8,50000,130,7.6,6.1
2020,1,29,00:00,UTC,8,998.5,100,0,0,1.7,1.7,50000,125,7.8,5.9
2020,1,29,01:00,UTC,8,998.3,100,0,0,1.6,1.6,50000,121,8.1,6.2
2020,1,29,02:00,UTC,8,998.2,100,0,0,1.2,1.2,50000,125,10,7.7
2020,1,29,03:00,UTC,8,997.9,100,0,0,0.8,0.8,50000,117,10.3,7.2
2020,1,29,04:00,UTC,8,998,100,0,0,0.8,0.8,50000,118,8.9,6.2
2020,1,29,05:00,UTC,8,998,99,0,0,0.9,0.7,50000,121,9.5,6.7
2020,1,29,06:00,UTC,7,997.9,98,0,0,1,0.7,50000,113,7.7,5.8
2020,1,29,07:00,UTC,8,998.1,100,0,0,1,1,13500,119,9.5,6.8
2020,1,29,08:00,UTC,8,998.2,100,0.5,0,0.6,0.6,4720,124,7.9,6
2020,1,29,09:00,UTC,8,998.3,100,0.3,0,0.7,0.7,9820,119,7.4,5.4
2020,1,29,10:00,UTC,8,998.4,100,0.7,0,0.7,0.7,6320,113,6.8,4.9
2020,1,29,11:00,UTC,8,998.5,100,0.4,0,0.8,0.8,9300,115,6.6,4.8
2020,1,29,12:00,UTC,8,998.4,100,0,0,1,1,29180,106,8,5.1
2020,1,29,13:00,UTC,8,998.4,100,0,0,1,1,23500,103,6.5,4.8
2020,1,29,14:00,UTC,8,998.4,100,0,0,1.2,1.2,22730,109,7,4.8
2020,1,29,15:00,UTC,8,998.6,100,0,0,1.4,1.4,13310,107,7.7,5.5
2020,1,29,16:00,UTC,8,998.6,100,0,0,1.3,1.3,17200,97,6.8,4.8
2020,1,29,17:00,UTC,8,998.9,100,0,0,1.6,1.6,15700,106,6.7,4.9
2020,1,29,18:00,UTC,8,999,100,0,0,1.6,1.6,11340,108,7.9,5.7
2020,1,29,19:00,UTC,8,999,100,0,0,1.7,1.7,8800,109,8.2,5.7
2020,1,29,20:00,UTC,8,998.9,100,0,0,1.9,1.9,12030,117,8.7,6.2
2020,1,29,21:00,UTC,8,999.3,100,0,0,1.9,1.9,14450,110,8.4,5.7
2020,1,29,22:00,UTC,8,999.3,100,0,0,1.7,1.7,8020,108,8.9,6.3
2020,1,29,23:00,UTC,8,999.3,100,1,0,1.1,1.1,4750,102,7.7,5.6
2020,1,30,00:00,UTC,8,999.4,100,1.8,0,0.5,0.5,3440,102,5.7,4.4
2020,1,30,01:00,UTC,8,999.3,100,1,0,0.3,0.3,3390,105,5.2,4.4
2020,1,30,02:00,UTC,8,999.3,100,0.3,0,1.1,1.1,7810,122,8.7,6
2020,1,30,03:00,UTC,8,999.3,100,0.4,0,1.3,1.3,11090,130,8.4,6.5
2020,1,30,04:00,UTC,8,999.5,100,0.4,0,1.3,1.3,10250,130,7.6,6
2020,1,30,05:00,UTC,8,999.6,100,0.4,0,1.2,1.2,8480,134,7.8,6.2
2020,1,30,06:00,UTC,8,999.8,100,0.3,0,1.1,1.1,8210,134,7.9,5.8
2020,1,30,07:00,UTC,8,1000.1,100,0,0,1.1,1.1,10000,130,7.4,5.5
2020,1,30,08:00,UTC,8,1000.3,100,0,0,1.2,1.2,10440,134,7.6,5.8
2020,1,30,09:00,UTC,8,1000.1,100,0,0,1.4,1.4,11150,133,7.9,6.5
2020,1,30,10:00,UTC,8,1000.2,100,0.4,0,1.6,1.6,13090,134,7.5,6.1
2020,1,30,11:00,UTC,8,1000,100,0.7,0,1.6,1.6,13180,138,8.9,6.7
2020,1,30,12:00,UTC,8,1000,100,0.4,0,1.2,1.2,10830,130,7.1,5.4
2020,1,30,13:00,UTC,8,999.9,100,0.3,0,0.9,0.9,8180,133,6,4.8
2020,1,30,14:00,UTC,8,999.9,100,0.8,0,0.7,0.7,6980,131,6.2,4.8
2020,1,30,15:00,UTC,8,999.9,100,0.7,0,0.4,0.4,2270,140,4.1,3
2020,1,30,16:00,UTC,8,999.7,100,0.7,0,0.2,0.2,2880,130,4.4,3.3
2020,1,30,17:00,UTC,8,999.7,100,0.9,0,0.1,0.1,2140,132,3.7,2.6
2020,1,30,18:00,UTC,8,999.6,100,0.3,0,0.3,0.3,8280,132,4.3,3.4
2020,1,30,19:00,UTC,8,999.4,100,0,0,0.8,0.8,17690,125,4.4,3.3
2020,1,30,20:00,UTC,8,999.1,100,0,0,1.2,1.2,23080,122,4.7,3.6
2020,1,30,21:00,UTC,8,998.9,100,0,0,1.3,1.3,32570,120,5.7,4.2
2020,1,30,22:00,UTC,8,998.8,100,0,0,1.2,1.2,14860,118,4,3.1
2020,1,30,23:00,UTC,8,998.6,100,1.4,0,0.2,0.2,5410,106,2.6,2.1
2020,1,31,00:00,UTC,8,998.2,100,0,0,0.3,0.3,5930,90,3.7,3
2020,1,31,01:00,UTC,8,998,100,1,0,0.8,0.8,5430,130,2.9,2.3
2020,1,31,02:00,UTC,8,997.6,100,0,0,0.8,0.8,20650,105,5.1,3.9
2020,1,31,03:00,UTC,8,997.2,100,0,0,1,1,24470,106,5.3,4.3
2020,1,31,04:00,UTC,8,997.5,100,0,0,1,1,35500,103,5.2,3.8
2020,1,31,05:00,UTC,8,997.6,100,0,0,1.1,1.1,21700,94,5,3.6
2020,1,31,06:00,UTC,8,997.5,100,0,0,0.9,0.9,13530,89,6.7,4.2
2020,1,31,07:00,UTC,8,997.7,100,0,0,1,1,14540,95,6.3,4.4
2020,1,31,08:00,UTC,8,998,100,0,0,1.2,1.2,22200,92,6.3,4.4
2020,1,31,09:00,UTC,7,998.2,100,0,0,1.3,1.3,17760,99,6.8,4.6
2020,1,31,10:00,UTC,8,998.3,100,0,0,0.9,0.9,10690,93,8.2,4.5
2020,1,31,11:00,UTC,8,998.4,100,0,0,1.1,1.1,14710,104,6,4.3
2020,1,31,12:00,UTC,8,998.7,100,0,0,1.1,1.1,17290,103,6.7,4.8
2020,1,31,13:00,UTC,8,999.1,100,0,0,1,1,19150,93,6.6,4.1
2020,1,31,14:00,UTC,8,999.5,100,0,0,0.8,0.8,20480,79,5.1,3.2
2020,1,31,15:00,UTC,8,1000.1,100,0,0,0.6,0.6,17780,76,4.3,3
2020,1,31,16:00,UTC,8,999.8,100,0,0,0.4,0.4,11870,60,4.8,3.2
2020,1,31,17:00,UTC,8,999.8,100,0,0,0.4,0.4,10290,98,3.5,2.7
2020,1,31,18:00,UTC,8,999.7,100,0,0,0.6,0.6,11330,108,5.1,3.9
2020,1,31,19:00,UTC,8,999.8,100,0,0,1,1,16350,114,5.6,4.2
2020,1,31,20:00,UTC,8,999.4,100,0,0,0.8,0.8,12430,108,6.6,5
2020,1,31,21:00,UTC,8,999.7,100,0,0,1.1,1,10310,115,6.3,4.1
2020,1,31,22:00,UTC,8,999.5,100,0,0,1.3,1.3,14260,134,6.6,4.7
2020,1,31,23:00,UTC,8,999.2,100,0,0,1.2,1.2,16810,125,5.6,4.3
2020,2,1,00:00,UTC,8,998.8,100,0,0,1.3,1.3,20820,140,5.1,4.3
2020,2,1,01:00,UTC,8,998.4,100,0,0,1.2,1.2,47270,133,6.1,4.6
2020,2,1,02:00,UTC,8,998.1,100,0,0,1.4,1.4,39980,151,6.5,4.8
2020,2,1,03:00,UTC,8,997.5,100,0,0,1.2,1.2,27950,147,7.6,5.8
2020,2,1,04:00,UTC,8,997.1,100,0,0,1.3,1.3,23300,142,7.1,5.7
2020,2,1,05:00,UTC,8,996.2,100,0,0,1.5,1.5,9620,154,7.1,5
2020,2,1,06:00,UTC,8,995.6,100,0,0,1.4,1.4,7900,151,7.2,5.3
2020,2,1,07:00,UTC,8,994.6,100,0.3,0,1.5,1.5,14520,153,9.5,6.8
2020,2,1,08:00,UTC,8,993.9,100,0.5,0,1.9,1.9,9190,159,8.9,5.8
2020,2,1,09:00,UTC,8,992.8,100,0,0,2.1,2.1,30120,164,8.7,5.8
2020,2,1,10:00,UTC,8,991.9,100,0.3,0,2.3,2.3,26190,165,9.3,6.5
2020,2,1,11:00,UTC,8,990.7,100,1.7,0,2.4,2.4,7370,172,10.9,6.5
2020,2,1,12:00,UTC,8,989.4,100,0.6,0,2.5,2.5,13060,158,10.6,7.4
2020,2,1,13:00,UTC,8,988.4,100,1.7,0,2,2,7320,157,11.9,7.9
2020,2,1,14:00,UTC,8,987.2,100,1,0,1.5,1.5,6970,154,10.1,7
2020,2,1,15:00,UTC,8,986.1,100,0.7,0,1.6,1.6,7880,158,10.3,7.2
2020,2,1,16:00,UTC,8,985.1,100,0.3,0,1.8,1.8,2980,164,11,7
2020,2,1,17:00,UTC,8,984.2,100,1.5,0,1.3,1.3,7910,165,8.7,6
2020,2,1,18:00,UTC,8,983.2,100,0.8,0,2,2,3760,177,9.4,6.2
2020,2,1,19:00,UTC,8,982.2,100,0.7,0,2.6,2.6,3870,182,6.5,4.9
2020,2,1,20:00,UTC,9,981.8,100,0,0,3.5,3.5,310,192,6,4.6
2020,2,1,21:00,UTC,8,981.6,100,0,0,4.5,4.5,7040,215,6.3,4.7
2020,2,1,22:00,UTC,8,980.9,100,0,0,4.7,4.7,18110,205,7.3,5.6
2020,2,1,23:00,UTC,8,980.6,100,0,0,4.7,4.7,14910,208,6.5,4.8
2020,2,2,00:00,UTC,8,980.1,100,0,0,4.8,4.8,17600,209,7.6,5.6
2020,2,2,01:00,UTC,8,979.8,100,0,0,4.6,4.6,18410,215,5.8,4.3
2020,2,2,02:00,UTC,8,979.2,100,0,0,4.7,4.7,16810,215,6.8,4.8
2020,2,2,03:00,UTC,8,978.8,100,0,0,4.8,4.8,13710,221,7.4,5
2020,2,2,04:00,UTC,8,978.4,100,0,0,4.6,4.6,7200,211,6.7,4.8
2020,2,2,05:00,UTC,8,977.8,100,0.5,0,4.7,4.7,10850,212,7.2,5.2
2020,2,2,06:00,UTC,8,977.4,100,2.1,0,4.6,4.6,9160,215,7.4,5.3
2020,2,2,07:00,UTC,8,977.1,100,0,0,4.5,4.5,32640,218,6.6,4.3
2020,2,2,08:00,UTC,8,977.1,100,0,0,4.6,4.6,8790,226,6.1,4.6
2020,2,2,09:00,UTC,8,977,100,0,0,4.8,4.8,17240,237,6.1,4.8
2020,2,2,10:00,UTC,8,976.9,100,0.7,0,4.8,4.8,35020,237,6.2,4.4
2020,2,2,11:00,UTC,8,976.9,100,0,0,5.1,5.1,50000,249,6.2,4.5
2020,2,2,12:00,UTC,8,977.3,100,1.1,0,4.9,4.9,6030,272,9.3,6.7
2020,2,2,13:00,UTC,8,978.1,100,0,0,3.9,3.9,50000,311,7,5.1
2020,2,2,14:00,UTC,7,979,95,0,0,3,2.4,50000,301,8.2,6.3
2020,2,2,15:00,UTC,7,979.6,93,0,0,2.5,1.4,50000,281,8.6,6.2
2020,2,2,16:00,UTC,7,980.1,100,0,0,1.9,1.9,50000,268,6.8,4.7
2020,2,2,17:00,UTC,8,980.5,99,0,0,1.7,1.6,50000,268,7.5,5
2020,2,2,18:00,UTC,8,980.6,100,0,0,1.5,1.5,50000,258,6.3,4.3
2020,2,2,19:00,UTC,8,980.8,100,0,0,1.5,1.5,50000,264,5.5,4
2020,2,2,20:00,UTC,8,981.1,100,0,0,1.7,1.7,50000,261,6,4.5
2020,2,2,21:00,UTC,8,981.4,100,0,0,1.6,1.6,43630,281,5.7,4.3
2020,2,2,22:00,UTC,8,981.7,100,0,0,1.7,1.7,26590,296,6.9,4.9
2020,2,2,23:00,UTC,8,982.5,100,0,0,1.5,1.5,6850,307,6.7,4.8
2020,2,3,00:00,UTC,5,983.2,100,0,0,0.8,0.8,50000,323,7.4,5.5
2020,2,3,01:00,UTC,8,984,92,0,0,0.8,-0.3,50000,327,10.4,7.2
2020,2,3,02:00,UTC,8,984.8,94,0,0,0.5,-0.3,50000,308,8,4.8
2020,2,3,03:00,UTC,7,985.8,97,0,0,-0.3,-0.8,10270,337,8.5,6.4
2020,2,3,04:00,UTC,8,986.7,86,0,0,-0.3,-2.3,50000,331,8.7,6.6
2020,2,3,05:00,UTC,8,987.4,84,0,0,-0.2,-2.6,50000,326,9.8,7.5
2020,2,3,06:00,UTC,8,988.2,89,0,0,-0.2,-1.9,50000,315,8.9,6.1
2020,2,3,07:00,UTC,7,989.1,85,0,0,-0.5,-2.8,50000,327,10.7,6.4
2020,2,3,08:00,UTC,7,989.6,87,0,0,-0.7,-2.6,50000,311,9.9,6.7
2020,2,3,09:00,UTC,7,990.5,88,0,0,-0.7,-2.5,50000,310,11,7.3
2020,2,3,10:00,UTC,7,991,83,0,0,-0.5,-3,50000,310,12.8,8.1
2020,2,3,11:00,UTC,0,991.4,79,0,0,0.1,-3.2,50000,298,12.4,8.7
2020,2,3,12:00,UTC,1,992.1,73,0,0,0.3,-4,50000,315,14,9.7
2020,2,3,13:00,UTC,1,992.6,75,0,0,0.1,-3.8,50000,306,13.6,8.6
2020,2,3,14:00,UTC,0,993.2,76,0,0,-0.4,-4.2,50000,304,10.9,8.2
2020,2,3,15:00,UTC,0,993.6,81,0,0,-1,-4,50000,302,11.2,7.8
2020,2,3,16:00,UTC,0,994.2,82,0,0,-1.4,-4.1,50000,304,8.7,6.4
2020,2,3,17:00,UTC,0,994.4,79,0,0,-1.3,-4.5,50000,305,9.9,6.6
2020,2,3,18:00,UTC,0,994.8,80,0,0,-2,-4.9,50000,312,9.3,6.6
2020,2,3,19:00,UTC,0,995.2,81,0,0,-2.4,-5.2,50000,314,9.3,6.5
2020,2,3,20:00,UTC,0,995.7,85,0,0,-2.9,-5,50000,315,8.9,6.4
2020,2,3,21:00,UTC,0,995.9,85,0,0,-3,-5.2,39350,317,10,6.7
2020,2,3,22:00,UTC,0,996.4,89,0,0,-3.8,-5.3,50000,313,7.4,5.2
2020,2,3,23:00,UTC,0,996.5,90,0,0,-4.2,-5.6,50000,315,8.7,5.3
2020,2,4,00:00,UTC,0,996.9,92,0,0,-4.6,-5.7,50000,309,7.2,5.3
2020,2,4,01:00,UTC,0,997.1,94,0,0,-5,-5.8,50000,310,7.3,5.2
2020,2,4,02:00,UTC,0,997.2,94,0,0,-5.1,-6,50000,319,6.9,4.7
2020,2,4,03:00,UTC,0,997.4,95,0,0,-5.5,-6.2,50000,331,5.9,4.5
2020,2,4,04:00,UTC,0,997.5,95,0,0,-5.7,-6.4,50000,322,6.1,4.8
2020,2,4,05:00,UTC,0,998.2,97,0,0,-6.1,-6.5,50000,313,4.7,3.7
2020,2,4,06:00,UTC,0,998.9,96,0,0,-6.3,-6.8,50000,324,6,4.5
2020,2,4,07:00,UTC,0,999.9,96,0,0,-6.4,-6.9,50000,325,5.7,4.8
2020,2,4,08:00,UTC,0,1000.8,91,0,0,-5.7,-6.9,50000,338,7.3,5.1
2020,2,4,09:00,UTC,0,1001.6,79,0,0,-4.6,-7.6,28330,332,6.9,5.3
2020,2,4,10:00,UTC,0,1002.4,73,0,0,-3.6,-7.7,48330,342,7.2,5.3
2020,2,4,11:00,UTC,0,1003,64,0,0,-2.7,-8.6,50000,349,6.8,5
2020,2,4,12:00,UTC,0,1003.7,59,0,0,-2.1,-9,46130,351,6.6,4.7
2020,2,4,13:00,UTC,0,1004.5,59,0,0,-2.2,-9.1,47620,333,7,5.2
2020,2,4,14:00,UTC,0,1005.3,61,0,0,-2.8,-9.2,38800,339,5.1,3.8
2020,2,4,15:00,UTC,0,1006.2,66,0,0,-3.9,-9.3,27400,336,5.3,4.3
2020,2,4,16:00,UTC,0,1006.8,73,0,0,-4.6,-8.7,50000,328,4.4,3.2
2020,2,4,17:00,UTC,0,1007.7,80,0,0,-5.4,-8.3,50000,331,4,3.3
2020,2,4,18:00,UTC,0,1008.2,83,0,0,-5.4,-7.8,50000,320,4.4,3.2
2020,2,4,19:00,UTC,0,1009.1,90,0,0,-6.1,-7.5,50000,328,5.4,4.1
2020,2,4,20:00,UTC,0,1009.8,96,0,0,-6.7,-7.2,50000,307,4.1,3.2
2020,2,4,21:00,UTC,0,1010.5,99,0,0,-7.3,-7.3,50000,290,3.7,3
2020,2,4,22:00,UTC,0,1011,100,0,0,-7.5,-7.5,50000,292,5.2,4.4
2020,2,4,23:00,UTC,0,1011.4,100,0,0,-8,-8,50000,287,3.9,3.1
2020,2,5,00:00,UTC,0,1011.6,100,0,0,-8.4,-8.4,50000,275,3.2,2.6
2020,2,5,01:00,UTC,1,1011.8,100,0,0,-8.6,-8.6,50000,270,3.5,2.6
2020,2,5,02:00,UTC,8,1011.7,100,0,0,-7.5,-7.5,50000,243,3.6,2.9
2020,2,5,03:00,UTC,8,1011.4,100,0,0,-6.2,-6.2,50000,253,3.6,2.5
2020,2,5,04:00,UTC,8,1011.2,98,0,0,-5,-5.3,50000,229,4,2.9
2020,2,5,05:00,UTC,8,1011,95,0,0,-4.1,-4.8,50000,256,6,4
2020,2,5,06:00,UTC,8,1010.9,96,0,0,-3.3,-3.8,50000,259,6.7,4.7
2020,2,5,07:00,UTC,8,1010.6,96,0,0,-2.9,-3.4,50000,259,5.2,4
2020,2,5,08:00,UTC,7,1010.7,92,0,0,-1.8,-3,50000,264,7,5.3
2020,2,5,09:00,UTC,1,1010.4,82,0,0,-0.8,-3.5,50000,271,8.9,5.8
2020,2,5,10:00,UTC,5,1010.6,77,0,0,0,-3.5,50000,274,9.7,6.6
2020,2,5,11:00,UTC,7,1009.9,76,0,0,0.4,-3.4,50000,270,9.3,6.8
2020,2,5,12:00,UTC,8,1008.7,73,0,0,0.9,-3.4,50000,258,9.4,6.3
2020,2,5,13:00,UTC,7,1007.7,73,0,0,1.4,-3,50000,245,7,4.6
2020,2,5,14:00,UTC,8,1006.7,78,0,0,0.9,-2.5,50000,229,5.7,4.1
2020,2,5,15:00,UTC,7,1004.7,78,0,0,0.9,-2.6,50000,218,6.5,4.9
2020,2,5,16:00,UTC,8,1003,91,0,0,0.3,-1,11140,243,9,6.4
2020,2,5,17:00,UTC,7,1001.7,77,0,0,1.3,-2.2,50000,259,12.3,8
2020,2,5,18:00,UTC,8,1000.7,72,0,0,1.6,-2.9,50000,269,10.9,8.1
2020,2,5,19:00,UTC,8,1000.1,78,0,0,1.4,-2.1,21230,278,12.1,9.3
2020,2,5,20:00,UTC,7,999.3,99,0,0,0.6,0.5,32010,266,9.2,6.2
2020,2,5,21:00,UTC,7,998.9,100,0,0,0.7,0.7,23920,283,10.7,7.1
2020,2,5,22:00,UTC,7,999,100,0,0,0.8,0.8,50000,301,9.6,6.8
2020,2,5,23:00,UTC,7,1000.1,94,0,0,0.1,-0.8,50000,332,9.1,6.4
2020,2,6,00:00,UTC,7,1001.3,83,0,0,-0.4,-3,50000,345,12.1,9
2020,2,6,01:00,UTC,4,1002.6,75,0,0,-1.5,-5.3,43440,335,8.4,6.3
2020,2,6,02:00,UTC,2,1003.8,65,0,0,-2.6,-8.3,50000,343,12.1,8.9
2020,2,6,03:00,UTC,7,1005.8,79,0,0,-3.4,-6.5,15300,335,11.9,8.1
2020,2,6,04:00,UTC,1,1007,73,0,0,-4.4,-8.5,50000,331,11.2,8.1
2020,2,6,05:00,UTC,0,1008.5,68,0,0,-5.5,-10.4,50000,342,12.2,8.4
2020,2,6,06:00,UTC,0,1009.6,70,0,0,-6.1,-10.7,50000,331,8.6,6.5
2020,2,6,07:00,UTC,0,1010.9,73,0,0,-6.5,-10.5,50000,319,7,5.3
2020,2,6,08:00,UTC,0,1011.8,72,0,0,-6.2,-10.4,50000,314,9.4,6.3
2020,2,6,09:00,UTC,0,1012.8,71,0,0,-5.5,-9.8,50000,320,7.5,4.9
2020,2,6,10:00,UTC,0,1013.3,62,0,0,-4.6,-10.8,50000,301,10.2,7.7
2020,2,6,11:00,UTC,0,1013.4,50,0,0,-3.5,-12.4,50000,301,9.3,7
2020,2,6,12:00,UTC,0,1013.3,56,0,0,-3,-10.6,50000,304,10.5,8
2020,2,6,13:00,UTC,0,1013.8,59,0,0,-2.5,-9.4,50000,311,11.9,8.5
2020,2,6,14:00,UTC,0,1014.4,62,0,0,-2.5,-8.8,50000,309,9.9,7.3
2020,2,6,15:00,UTC,0,1015,66,0,0,-3,-8.5,50000,314,10,6.6
2020,2,6,16:00,UTC,0,1016.1,71,0,0,-3.7,-8.2,50000,315,8.9,5.8
2020,2,6,17:00,UTC,0,1016.6,74,0,0,-3.9,-7.8,50000,314,8.2,6.2
2020,2,6,18:00,UTC,0,1017.5,78,0,0,-4.5,-7.8,50000,318,8,5.8
2020,2,6,19:00,UTC,0,1018,79,0,0,-4.8,-7.8,50000,314,9.1,6.3
2020,2,6,20:00,UTC,0,1018.6,78,0,0,-4.8,-8,50000,322,8.7,6.6
2020,2,6,21:00,UTC,0,1019.6,79,0,0,-5.2,-8.2,50000,332,9,6.5
2020,2,6,22:00,UTC,0,1020.4,78,0,0,-5.3,-8.5,50000,333,9.3,6.9
2020,2,6,23:00,UTC,0,1021.7,77,0,0,-5.3,-8.7,50000,333,8.5,6.6
2020,2,7,00:00,UTC,0,1022.6,80,0,0,-5.9,-8.7,50000,322,7.5,5.8
2020,2,7,01:00,UTC,0,1023.6,83,0,0,-6.5,-8.9,50000,337,8.1,5.9
2020,2,7,02:00,UTC,0,1024,85,0,0,-7,-9.1,50000,338,6.1,4.7
2020,2,7,03:00,UTC,0,1024.4,86,0,0,-7.2,-9.1,50000,323,4.8,3.9
2020,2,7,04:00,UTC,0,1024.6,91,0,0,-7.9,-9.2,50000,321,5.6,4.2
2020,2,7,05:00,UTC,0,1025.2,92,0,0,-8.1,-9.1,50000,319,5.8,4.5
2020,2,7,06:00,UTC,0,1025.5,96,0,0,-8.7,-9.2,50000,312,5.4,4.3
2020,2,7,07:00,UTC,0,1025.7,97,0,0,-8.9,-9.4,50000,307,4.2,3.5
2020,2,7,08:00,UTC,0,1026.2,92,0,0,-8.1,-9.2,50000,299,4.7,3.6
2020,2,7,09:00,UTC,1,1026.3,84,0,0,-6.5,-8.8,50000,279,3.5,2.8
2020,2,7,10:00,UTC,7,1025.8,77,0,0,-4.6,-8,50000,251,2.3,1.1
2020,2,7,11:00,UTC,8,1025.2,74,0,0,-3.5,-7.4,50000,248,2.8,1.8
2020,2,7,12:00,UTC,6,1024.5,69,0,0,-2.3,-7.2,50000,229,5,4.1
2020,2,7,13:00,UTC,8,1023.6,70,0,0,-2.1,-6.9,50000,226,4.9,3.8
2020,2,7,14:00,UTC,8,1022.4,71,0,0,-2,-6.7,50000,209,5.5,4.5
2020,2,7,15:00,UTC,8,1021.1,76,0,0,-1.9,-5.5,26670,212,5.4,3.9
2020,2,7,16:00,UTC,8,1020.1,100,0.3,0,-1.5,-1.5,3060,235,7,4.5
2020,2,7,17:00,UTC,8,1018.8,100,0.8,2,-1.2,-1.2,2110,225,7.7,5.4
2020,2,7,18:00,UTC,8,1017.7,100,0,2,-0.9,-0.9,19470,237,6.4,4.9
2020,2,7,19:00,UTC,8,1016.9,100,0,2,-0.3,-0.3,50000,256,6.3,4.8
2020,2,7,20:00,UTC,8,1016.4,100,0,2,0.1,0.1,50000,271,5.8,4.5
2020,2,7,21:00,UTC,8,1016.5,100,0,2,0.4,0.4,45340,291,6.9,4.8
2020,2,7,22:00,UTC,8,1016.2,100,0,2,0.1,0.1,32040,289,6.4,4.8
2020,2,7,23:00,UTC,8,1016.2,100,0,2,0.3,0.3,11160,296,5.9,4.4
2020,2,8,00:00,UTC,8,1016.2,100,0,2,0.3,0.3,3500,302,5.6,4.2
2020,2,8,01:00,UTC,8,1017,100,0,2,0.6,0.6,4440,347,3.5,2.7
2020,2,8,02:00,UTC,8,1017,100,0,3,0.5,0.5,5230,351,3.2,2.4
2020,2,8,03:00,UTC,8,1017.1,100,0,3,0.4,0.4,2640,270,2.6,1.5
2020,2,8,04:00,UTC,8,1017.3,100,0,2,0.3,0.3,3260,239,1.9,0.9
2020,2,8,05:00,UTC,8,1017.7,100,0,2,0.2,0.2,3320,235,3.2,2.3
2020,2,8,06:00,UTC,8,1017.6,100,0,3,-0.1,-0.1,2870,241,3.3,1.6
2020,2,8,07:00,UTC,9,1017.8,100,0,3,-0.4,-0.4,370,226,3.3,2
2020,2,8,08:00,UTC,9,1017.9,100,0,2,-0.5,-0.5,380,238,3.4,2.4
2020,2,8,09:00,UTC,9,1018.4,100,0,2,-0.4,-0.4,320,178,3.1,2.3
2020,2,8,10:00,UTC,9,1018.5,100,0,2,-0.4,-0.4,380,214,3.4,2.4
2020,2,8,11:00,UTC,9,1017.8,100,0,2,-0.3,-0.3,550,226,3.7,2.7
2020,2,8,12:00,UTC,9,1017.6,100,0,2,-0.3,-0.3,390,202,4.8,3.5
2020,2,8,13:00,UTC,9,1017.5,100,0,2,-0.3,-0.3,1240,226,6.4,4.6
2020,2,8,14:00,UTC,9,1016.8,100,0,2,0.1,0.1,510,216,3.3,2.4
2020,2,8,15:00,UTC,8,1016.5,100,0,2,1.1,1.1,1730,208,5.7,4.1
2020,2,8,16:00,UTC,8,1016.3,100,0,0,1.4,1.4,11340,223,8.3,6
2020,2,8,17:00,UTC,8,1015.8,100,0,0,1.5,1.5,9060,224,9.9,6.8
2020,2,8,18:00,UTC,8,1015.6,100,0,0,1.5,1.5,1910,224,8.2,5.5
2020,2,8,19:00,UTC,8,1015,100,0,0,1.7,1.7,4870,232,11.2,6.9
2020,2,8,20:00,UTC,8,1014.5,100,0,0,1.9,1.9,7910,233,10.5,7.3
2020,2,8,21:00,UTC,8,1013.8,100,0,0,1.8,1.8,9750,223,9.5,6.6
2020,2,8,22:00,UTC,8,1013.6,100,0,0,1.9,1.9,5560,229,11.2,7.2
2020,2,8,23:00,UTC,8,1012.9,100,0,0,2.1,2.1,7440,224,10.8,7.8
2020,2,9,00:00,UTC,8,1012.2,100,0,0,2.1,2.1,6020,226,10.8,7
2020,2,9,01:00,UTC,8,1011.4,100,0,0,2.1,2.1,9340,230,11.4,7.4
2020,2,9,02:00,UTC,8,1010.5,100,0,0,2.4,2.4,10240,230,11.1,7.5
2020,2,9,03:00,UTC,8,1010,100,0,0,2.6,2.6,12520,229,10.9,7.4
2020,2,9,04:00,UTC,8,1009.3,100,0,0,2.8,2.8,15970,227,12,8.3
2020,2,9,05:00,UTC,8,1008.5,100,0,0,2.8,2.8,17380,228,10.3,7.6
2020,2,9,06:00,UTC,8,1007.9,96,0,0,3,2.4,20680,226,8.9,6.7
2020,2,9,07:00,UTC,8,1007.4,94,0,0,3,2.2,27560,224,10.8,7.9
2020,2,9,08:00,UTC,8,1006.6,98,0,0,3.1,2.7,21220,215,10.2,6.7
2020,2,9,09:00,UTC,8,1006.1,99,0,0,3.2,3.2,15970,218,10.9,8.3
2020,2,9,10:00,UTC,8,1004.9,100,0,0,3.1,3.1,3040,210,12.1,8.3
2020,2,9,11:00,UTC,8,1003.6,100,0.3,0,3.6,3.6,4910,210,13.6,9.8
2020,2,9,12:00,UTC,8,1002.4,100,0,0,3.5,3.5,2150,206,11.1,7.9
2020,2,9,13:00,UTC,8,1002.3,100,0.4,0,3.6,3.6,3870,221,9.9,7.2
2020,2,9,14:00,UTC,8,1001.2,100,0,0,3.7,3.7,4230,215,10.6,7.5
2020,2,9,15:00,UTC,8,1000.2,100,0,0,3.7,3.7,11330,209,12.1,7.4
2020,2,9,16:00,UTC,8,999.2,100,0,0,3.6,3.6,7290,199,13.9,9
2020,2,9,17:00,UTC,8,997,100,0,0,3.5,3.5,5820,192,13.4,9.4
2020,2,9,18:00,UTC,8,994.8,100,0,0,3.5,3.5,4170,178,14,9.5
2020,2,9,19:00,UTC,8,992.1,100,0,0,3.4,3.4,4570,177,14.6,9.5
2020,2,9,20:00,UTC,7,989.6,99,0,0,3.9,3.7,12570,188,16.2,11.2
2020,2,9,21:00,UTC,8,987.7,99,0.4,0,4,3.8,11420,189,14.6,9.4
2020,2,9,22:00,UTC,8,985.7,100,1.9,0,3.8,3.8,8250,194,16.2,11.4
2020,2,9,23:00,UTC,8,983.3,100,3.1,0,3.7,3.7,4270,191,16.7,9.9
2020,2,10,00:00,UTC,8,980.5,99,1,0,3.8,3.7,9600,181,15.6,10.4
2020,2,10,01:00,UTC,8,978,100,1.6,0,3.6,3.6,8280,188,19.1,11.9
2020,2,10,02:00,UTC,8,976.2,100,0.8,0,3.2,3.2,6810,197,20.3,13.3
2020,2,10,03:00,UTC,8,974,100,0.4,0,2.9,2.9,12020,190,16.9,12.3
2020,2,10,04:00,UTC,8,972.6,100,0.4,0,2.7,2.7,11580,194,17.5,12.5
2020,2,10,05:00,UTC,8,971.4,100,1.1,0,2.8,2.8,7620,195,15.7,11.7
2020,2,10,06:00,UTC,8,969.9,100,0.4,0,3,3,4010,191,15.1,11.9
2020,2,10,07:00,UTC,8,968.8,100,0.9,0,2.9,2.9,3610,189,17.7,12.5
2020,2,10,08:00,UTC,8,967.9,100,2.3,0,3.3,3.3,3850,190,17.4,11.8
2020,2,10,09:00,UTC,8,967.1,100,0,0,3.5,3.5,8910,190,15.1,11.5
2020,2,10,10:00,UTC,8,966.4,100,0.4,0,3.6,3.6,9440,191,17.5,12.4
2020,2,10,11:00,UTC,8,965.9,100,0,0,3.3,3.3,7560,189,16.1,11.5
2020,2,10,12:00,UTC,8,965.2,100,0.3,0,3.4,3.4,4900,188,15.4,9.6
2020,2,10,13:00,UTC,8,964.4,100,1.1,0,4,4,3610,193,13.9,9.9
2020,2,10,14:00,UTC,8,964,100,0,0,4.3,4.3,34440,200,14.4,11.1
2020,2,10,15:00,UTC,8,963.7,100,0.4,0,4.6,4.6,13270,205,14.5,10.9
2020,2,10,16:00,UTC,8,963.9,100,0,0,4.4,4.4,20240,202,14.1,10.1
2020,2,10,17:00,UTC,8,963.9,100,0,0,4.6,4.6,17150,210,14.5,9.4
2020,2,10,18:00,UTC,8,963.8,100,0.4,0,4.4,4.4,11300,211,11.9,8.3
2020,2,10,19:00,UTC,8,963.7,100,0.5,0,4.4,4.4,11660,217,15,10.4
2020,2,10,20:00,UTC,8,963.7,100,0,0,4.3,4.3,11990,216,14.8,10.2
2020,2,10,21:00,UTC,8,963.8,100,0.4,0,4,4,17140,216,11,8.4
2020,2,10,22:00,UTC,8,964.4,100,0.4,0,3.5,3.5,13840,228,10.6,7.3
2020,2,10,23:00,UTC,7,965.2,100,0,0,3.1,3.1,50000,226,7.6,5.6
2020,2,11,00:00,UTC,6,966.2,100,0,0,3.1,3.1,45060,228,7.4,5.4
2020,2,11,01:00,UTC,8,967.3,100,0,0,3,3,50000,232,9.3,6.4
2020,2,11,02:00,UTC,8,968.2,100,0,0,3,3,50000,232,9,6.6
2020,2,11,03:00,UTC,7,968.7,100,0,0,2.9,2.9,50000,231,9.6,6.8
2020,2,11,04:00,UTC,7,969.5,100,0,0,2.8,2.8,38610,229,8.4,6
2020,2,11,05:00,UTC,3,970.2,100,0,0,2.4,2.4,34250,230,7.3,5.1
2020,2,11,06:00,UTC,7,971,100,0,0,2.7,2.7,35630,227,7.8,5.5
2020,2,11,07:00,UTC,7,971.5,98,0,0,3,2.7,50000,224,8.1,5.3
2020,2,11,08:00,UTC,8,972.2,95,0,0,3.3,2.6,48420,234,10.6,6.6
2020,2,11,09:00,UTC,7,972.9,89,0,0,3.8,2.2,35650,237,10,6.7
2020,2,11,10:00,UTC,7,973.5,99,0,0,3.2,3.1,13210,241,8.9,6.5
2020,2,11,11:00,UTC,8,974,100,0,0,2.9,2.9,15560,240,10.4,7.4
2020,2,11,12:00,UTC,7,974.3,89,0,0,4.4,2.7,39660,234,11.1,5.6
2020,2,11,13:00,UTC,7,974.9,81,0,0,4.5,1.5,45700,224,12.5,9
2020,2,11,14:00,UTC,4,975.5,86,0,0,3.3,1.1,50000,212,12.4,8.2
2020,2,11,15:00,UTC,1,976.1,90,0,0,2.5,1.1,50000,210,9.1,6.9
2020,2,11,16:00,UTC,8,976.6,91,0,0,2.7,1.4,50000,216,8.6,6.2
2020,2,11,17:00,UTC,5,977,95,0,0,2.1,1.4,50000,218,9,5.9
2020,2,11,18:00,UTC,1,977.4,100,0,0,1.4,1.4,50000,205,7.2,5.2
2020,2,11,19:00,UTC,7,977.8,100,0,0,1.4,1.4,12020,198,7,5
2020,2,11,20:00,UTC,4,977.9,100,0,0,1.1,1.1,50000,195,6,4.7
2020,2,11,21:00,UTC,7,978.3,100,0,0,1.8,1.8,23010,198,8.2,5.8
2020,2,11,22:00,UTC,8,978.9,100,3.1,0,0.4,0.4,980,205,6.7,5.3
2020,2,11,23:00,UTC,8,979.2,100,2,0,0.2,0.2,1230,204,3.9,3
2020,2,12,00:00,UTC,8,979.3,100,3.6,0,0.4,0.4,2280,191,7.2,4.9
2020,2,12,01:00,UTC,8,979.4,100,2.1,2,0.1,0.1,980,188,8,5.6
2020,2,12,02:00,UTC,8,979.9,100,0,3,0.3,0.3,7650,209,6.7,5.1
2020,2,12,03:00,UTC,8,980.4,100,0,2,0.4,0.4,30230,214,6.4,4.9
2020,2,12,04:00,UTC,8,980.7,100,0,2,0.5,0.5,50000,195,8.2,6.4
2020,2,12,05:00,UTC,8,981.2,100,0,2,0.7,0.7,48370,192,6.5,5
2020,2,12,06:00,UTC,7,981.7,100,0,2,1,1,41590,191,6.4,4.6
2020,2,12,07:00,UTC,8,982,100,0.4,0,1.7,1.7,11260,206,7.9,5.6
2020,2,12,08:00,UTC,8,982.5,100,0,2,2,2,41990,198,9.4,6.8
2020,2,12,09:00,UTC,7,983.1,100,0,2,2,2,16630,209,8.3,5.4
2020,2,12,10:00,UTC,8,983.5,100,0,2,2.6,2.6,20650,193,8.4,5.7
2020,2,12,11:00,UTC,8,983.9,100,0,0,2.5,2.5,50000,200,9.3,6.9
2020,2,12,12:00,UTC,8,984.5,100,0.3,0,2.8,2.8,50000,191,8.3,5.9
2020,2,12,13:00,UTC,8,984.8,98,0,0,3.9,3.7,22810,212,9.3,6.3
2020,2,12,14:00,UTC,7,985.6,95,0,0,3.7,2.9,24190,216,7,5
2020,2,12,15:00,UTC,7,986,100,0,0,2.9,2.9,16650,201,7.3,5.1
2020,2,12,16:00,UTC,7,986.5,100,0.5,0,2.4,2.4,21220,209,6.7,4.6
2020,2,12,17:00,UTC,5,987,100,0,0,1.9,1.9,26150,198,5.6,4.5
2020,2,12,18:00,UTC,7,987.1,94,0,0,2.6,1.8,31980,186,7.8,5.1
2020,2,12,19:00,UTC,7,987.4,98,0,0,2.3,2,24080,184,8.3,6.1
2020,2,12,20:00,UTC,7,987.3,100,0,0,2.2,2.2,21840,185,10.2,6.5
2020,2,12,21:00,UTC,8,987.4,97,0,0,2.5,2.1,50000,178,8.9,6
2020,2,12,22:00,UTC,8,987.6,100,0,0,2.4,2.4,19940,182,8,5.7
2020,2,12,23:00,UTC,8,987.7,100,0,0,2.1,2.1,7040,171,6.4,4.6
2020,2,13,00:00,UTC,8,987.6,100,0,0,2.1,2.1,50000,158,5.6,4
2020,2,13,01:00,UTC,8,987.6,100,3.9,0,0.9,0.9,1390,178,8.9,5.7
2020,2,13,02:00,UTC,8,987.5,100,0,0,2.2,2.2,9250,185,7.9,5.9
2020,2,13,03:00,UTC,8,987.8,100,0,0,2.3,2.3,38350,195,7.5,5.5
2020,2,13,04:00,UTC,8,988.2,100,0,0,1.9,1.9,5590,209,3.9,2.5
2020,2,13,05:00,UTC,8,988.8,100,0,0,1.7,1.7,8510,236,5.5,3.5
2020,2,13,06:00,UTC,8,989.8,100,0,0,1.7,1.7,35060,254,7.4,4.8
2020,2,13,07:00,UTC,8,991,100,0,0,1.2,1.2,50000,273,6.7,5
2020,2,13,08:00,UTC,7,991.8,100,0,0,1.4,1.4,50000,257,5.7,4
2020,2,13,09:00,UTC,8,992.9,99,0,0,1.3,1.1,50000,268,8.5,6.5
2020,2,13,10:00,UTC,8,993.9,97,0,0,1.4,0.9,50000,268,6.9,4.8
2020,2,13,11:00,UTC,8,994.8,98,0,0,1.5,1.2,50000,269,8.4,5.8
2020,2,13,12:00,UTC,7,995.6,91,0,0,1.6,0.4,50000,279,7.3,5
2020,2,13,13:00,UTC,7,996.6,91,0,0,1.9,0.5,50000,267,7.8,5.5
2020,2,13,14:00,UTC,7,997.5,91,0,0,1.9,0.6,50000,276,5.6,4.1
2020,2,13,15:00,UTC,8,998.2,94,0,0,1.8,0.9,50000,247,3,2.1
2020,2,13,16:00,UTC,6,998.9,98,0,0,1.2,0.9,50000,275,3,2.2
2020,2,13,17:00,UTC,1,999.6,100,0,0,0.1,0.1,50000,240,4.1,3.3
2020,2,13,18:00,UTC,0,1000.6,100,0,0,-0.3,-0.3,50000,253,3.1,2.5
2020,2,13,19:00,UTC,3,1001.1,100,0,0,-0.8,-0.8,50000,257,3.9,3.1
2020,2,13,20:00,UTC,2,1001.7,100,0,0,-1.3,-1.3,50000,257,3.8,3.3
2020,2,13,21:00,UTC,0,1002.5,100,0,0,-1.7,-1.7,46510,250,3.2,2.6
2020,2,13,22:00,UTC,0,1003.1,100,0,0,-1.6,-1.6,41910,207,3.4,3
2020,2,13,23:00,UTC,7,1003.9,100,0,0,-1.4,-1.4,1310,243,4.1,3
2020,2,14,00:00,UTC,9,1004.5,100,0,0,-1.5,-1.5,440,285,3.2,2.1
2020,2,14,01:00,UTC,9,1005.1,100,0,0,-1.7,-1.7,680,257,3.3,2.5
2020,2,14,02:00,UTC,8,1005.7,100,0,0,-1.3,-1.3,50000,268,4.5,2.8
2020,2,14,03:00,UTC,8,1006.6,100,0,0,-1.1,-1.1,50000,283,3.3,2.5
2020,2,14,04:00,UTC,8,1007,100,0,0,-0.9,-0.9,50000,307,4.4,2.7
2020,2,14,05:00,UTC,2,1007.9,100,0,0,-2.3,-2.3,50000,261,2.1,1.6
2020,2,14,06:00,UTC,1,1008.7,100,0,0,-2.2,-2.2,44060,300,5.2,4.1
2020,2,14,07:00,UTC,8,1009.9,100,0,0,-1.8,-1.8,50000,321,3.3,2.2
2020,2,14,08:00,UTC,2,1010.4,100,0,0,-1.1,-1.1,50000,284,3,2.2
2020,2,14,09:00,UTC,3,1011.1,100,0,0,-0.3,-0.3,50000,276,3.5,2.1
2020,2,14,10:00,UTC,4,1011.9,97,0,0,-0.2,-0.6,50000,282,5.1,3.9
2020,2,14,11:00,UTC,8,1012.7,95,0,0,0.2,-0.5,50000,293,5.1,4.3
2020,2,14,12:00,UTC,8,1014,88,0,0,0.3,-1.5,50000,327,6.4,4.7
2020,2,14,13:00,UTC,8,1014.7,88,0,0,0.1,-1.7,50000,291,5.7,4.3
2020,2,14,14:00,UTC,8,1015.4,86,0,0,0.2,-2,50000,319,4.8,2.6
2020,2,14,15:00,UTC,7,1016.4,84,0,0,0.2,-2.1,50000,301,4.8,2.9
2020,2,14,16:00,UTC,7,1016.9,88,0,0,-0.2,-2,50000,305,4.3,2.7
2020,2,14,17:00,UTC,0,1017.5,97,0,0,-1.6,-2,50000,243,2.3,2.2
2020,2,14,18:00,UTC,7,1018.2,100,0,0,-1.9,-1.9,50000,225,2.3,1.7
2020,2,14,19:00,UTC,7,1018.5,100,0,0,-1.8,-1.8,50000,225,2.7,2.2
2020,2,14,20:00,UTC,2,1018.7,100,0,0,-2.6,-2.6,50000,238,2.3,1.8
2020,2,14,21:00,UTC,1,1018.6,100,0,0,-2.1,-2.1,50000,223,2.5,1.2
2020,2,14,22:00,UTC,0,1018.9,100,0,0,-3.6,-3.6,33710,183,2.1,1.4
2020,2,14,23:00,UTC,1,1019.1,100,0,0,-3.2,-3.2,37140,212,3.6,3.1
2020,2,15,00:00,UTC,6,1019.4,100,0,0,-2.8,-2.8,26150,204,3.3,2.9
2020,2,15,01:00,UTC,3,1019.2,100,0,0,-2.7,-2.7,29360,215,3.4,3.1
2020,2,15,02:00,UTC,6,1018.5,100,0,0,-1.9,-1.9,37910,189,3.2,2.5
2020,2,15,03:00,UTC,5,1017.9,100,0,0,-0.9,-0.9,50000,203,4.7,4
2020,2,15,04:00,UTC,7,1017.2,100,0,0,0.2,0.1,50000,202,6.3,4.4
2020,2,15,05:00,UTC,7,1016.9,100,0,0,0.7,0.7,50000,205,6.5,5.2
2020,2,15,06:00,UTC,7,1016.5,100,0,0,1.2,1.2,50000,200,6.5,5.1
2020,2,15,07:00,UTC,7,1016,100,0,0,1.7,1.7,50000,201,7.7,5.6
2020,2,15,08:00,UTC,5,1015,100,0,0,2.1,2.1,50000,197,10.4,8
2020,2,15,09:00,UTC,7,1014.7,100,0,0,2.1,2.1,50000,203,12.7,9.1
2020,2,15,10:00,UTC,8,1014.3,100,0,0,2.3,2.3,24450,201,13.2,9
2020,2,15,11:00,UTC,8,1013.2,100,0.5,0,2.2,2.2,10030,198,13.3,10.1
2020,2,15,12:00,UTC,8,1012.3,100,0,0,2.2,2.2,43550,197,15.5,10.9
2020,2,15,13:00,UTC,8,1011.2,100,0.9,0,1.7,1.7,7210,199,13.7,10.4
2020,2,15,14:00,UTC,8,1010.5,100,1.1,0,1.3,1.3,7600,194,14,9.3
2020,2,15,15:00,UTC,8,1009.9,100,0.7,0,1.6,1.6,4820,205,13.2,9.5
2020,2,15,16:00,UTC,8,1009.6,100,0.5,0,1.4,1.4,5530,206,11.7,7.7
2020,2,15,17:00,UTC,8,1009.3,100,0,0,2,2,12410,218,9.8,7.3
2020,2,15,18:00,UTC,8,1008.8,100,0,0,2.7,2.7,50000,219,9.9,6.4
2020,2,15,19:00,UTC,8,1008.9,100,0,0,2.7,2.7,4720,224,7.8,5.5
2020,2,15,20:00,UTC,8,1008.9,100,0,0,2.9,2.9,9440,230,8.4,5.5
2020,2,15,21:00,UTC,8,1008.8,100,0,0,3,3,16540,233,7.4,5
2020,2,15,22:00,UTC,8,1009.4,100,0,0,3.1,3.1,19330,231,6.6,4.8
2020,2,15,23:00,UTC,8,1009.3,100,0,0,3.1,3.1,29460,211,5.6,4.1
2020,2,16,00:00,UTC,8,1009.2,100,0,0,3.3,3.3,17860,214,5.6,4.3
2020,2,16,01:00,UTC,8,1008.8,100,0,0,3.5,3.5,7090,207,8.7,5.6
2020,2,16,02:00,UTC,8,1008.3,100,0,0,3.7,3.7,11120,211,7.5,5.8
2020,2,16,03:00,UTC,8,1007.4,100,0,0,3.4,3.4,2800,199,9.6,7.2
2020,2,16,04:00,UTC,8,1006.4,100,0.5,0,3.3,3.3,2380,188,8.8,6.2
2020,2,16,05:00,UTC,8,1005.4,100,1.1,0,3.3,3.3,5070,181,10.5,7.1
2020,2,16,06:00,UTC,8,1003.6,100,1.4,0,2.7,2.7,15370,177,11,7.3
2020,2,16,07:00,UTC,8,1003.3,100,0,0,2.5,2.5,10660,184,14.1,10
2020,2,16,08:00,UTC,8,1002.2,100,0.4,0,2.3,2.3,3950,189,13.6,10.1
2020,2,16,09:00,UTC,8,1000.7,100,0.4,0,2.4,2.4,2930,182,12.8,9.4
2020,2,16,10:00,UTC,8,999.3,100,0.5,0,2.6,2.5,3600,184,14.5,10.2
2020,2,16,11:00,UTC,8,998.8,100,0.8,0,2.8,2.8,2850,193,15.6,10.6
2020,2,16,12:00,UTC,8,997.7,100,0.4,0,2.8,2.8,2850,196,14.2,11.2
2020,2,16,13:00,UTC,8,996.5,100,1.1,0,3.2,3.2,3380,192,14.4,9.8
2020,2,16,14:00,UTC,8,994.8,100,1.5,0,3.2,3.2,3120,186,15.2,10.2
2020,2,16,15:00,UTC,8,993.2,100,2.8,0,3.3,3.3,4930,185,15.5,10.9
2020,2,16,16:00,UTC,8,991.7,100,1.9,0,3.4,3.4,4270,185,16,11.9
2020,2,16,17:00,UTC,8,990.4,100,2.8,0,3.9,3.9,4790,198,17.6,11.7
2020,2,16,18:00,UTC,8,989.1,100,1.1,0,4.3,4.3,7990,202,18,13.7
2020,2,16,19:00,UTC,8,988,100,2.1,0,4.5,4.5,8520,202,17.3,12.8
2020,2,16,20:00,UTC,8,986.8,100,1.1,0,4.9,4.9,10170,205,17.5,12.3
2020,2,16,21:00,UTC,8,986,100,1.2,0,5.4,5.4,13670,208,13.3,10.6
2020,2,16,22:00,UTC,8,985.6,100,0.8,0,6,6,21170,213,16.3,9.9
2020,2,16,23:00,UTC,8,985.2,100,1.4,0,6.2,6.2,11910,218,12.6,9.1
2020,2,17,00:00,UTC,8,984.3,100,0.7,0,6.2,6.2,29490,222,12.9,8.6
2020,2,17,01:00,UTC,8,983.4,100,1.3,0,5.9,5.9,11430,218,11.9,8.6
2020,2,17,02:00,UTC,8,982.4,100,3.1,0,5.1,5.1,10830,215,11.3,7.5
2020,2,17,03:00,UTC,8,981.1,100,1.1,0,4.6,4.6,8400,211,3.4,2.6
2020,2,17,04:00,UTC,8,980.2,100,1.2,0,4.9,4.9,13010,219,6.3,5
2020,2,17,05:00,UTC,8,980.8,100,2.9,0,3.7,3.7,20010,251,9.1,6
2020,2,17,06:00,UTC,8,981.8,100,0.8,0,3.6,3.6,23330,255,8.4,5.8
2020,2,17,07:00,UTC,8,983,100,0.5,0,4,4,12480,243,12.4,8.6
2020,2,17,08:00,UTC,8,984.4,98,0,0,4.2,3.9,50000,247,11.8,7.6
2020,2,17,09:00,UTC,8,985.3,93,0,0,4.5,3.5,50000,239,11.8,9.1
2020,2,17,10:00,UTC,8,986,91,0,0,4.8,3.4,45290,232,13,9.6
2020,2,17,11:00,UTC,8,986.5,91,0,0,5.2,3.9,19090,238,16.3,10.1
2020,2,17,12:00,UTC,8,987,89,0,0,5.4,3.7,24640,233,15.8,10
2020,2,17,13:00,UTC,8,987.4,92,0,0,5.3,4,26520,230,13.8,10
2020,2,17,14:00,UTC,8,987.9,88,0,0,5.4,3.5,24830,227,12.7,8.9
2020,2,17,15:00,UTC,8,988.3,87,0,0,5.3,3.3,27440,229,14.4,10.5
2020,2,17,16:00,UTC,7,988.8,86,0,0,5.2,3.1,29800,232,18.3,12.8
2020,2,17,17:00,UTC,7,989.3,85,0,0,5,2.7,28160,232,16.4,9.8
2020,2,17,18:00,UTC,7,989.3,84,0,0,5.1,2.6,27630,232,16.8,10.9
2020,2,17,19:00,UTC,7,989.1,84,0,0,5.3,2.8,26940,227,17.3,11.6
2020,2,17,20:00,UTC,8,989.2,,0,0,5.1,3.4,26860,228,18.1,12.5
2020,2,17,21:00,UTC,8,989.1,89,0,0,5.2,3.6,23950,225,17.9,12.8
2020,2,17,22:00,UTC,8,988.6,94,0,0,4.9,4,9630,224,17.5,12.7
2020,2,17,23:00,UTC,8,988.4,100,0,0,4.5,4.5,9450,222,15.6,11.1
2020,2,18,00:00,UTC,8,987.7,98,0,0,4.8,4.4,12060,225,17.5,12.2
2020,2,18,01:00,UTC,8,987.2,100,0,0,4.6,4.6,8120,228,18.4,12.7
2020,2,18,02:00,UTC,8,987.4,100,0,0,4.8,4.8,11670,232,14.6,10.2
2020,2,18,03:00,UTC,8,987.8,100,0.5,0,4.5,4.5,6580,231,14.3,9.7
2020,2,18,04:00,UTC,8,988.2,100,0.7,0,4.7,4.7,9030,229,10.9,7.8
2020,2,18,05:00,UTC,8,988.7,100,0,0,4.9,4.9,37580,233,12.7,8.1
2020,2,18,06:00,UTC,8,989.3,99,0,0,5.1,5,26230,227,11.3,8
2020,2,18,07:00,UTC,8,990.1,94,0,0,5.5,4.6,28930,235,13.1,9.3
2020,2,18,08:00,UTC,8,990.8,90,0,0,5.8,4.4,26250,240,13,8.4
2020,2,18,09:00,UTC,8,991.2,89,0,0,6,4.3,25090,241,11.2,8
2020,2,18,10:00,UTC,8,991.4,86,0,0,6.2,4.1,28680,241,13.9,9.2
2020,2,18,11:00,UTC,8,991.6,85,0,0,6.4,4,27660,239,12.7,9.2
2020,2,18,12:00,UTC,8,991.8,84,0,0,6.4,4,27320,235,11.6,8.4
2020,2,18,13:00,UTC,7,991.7,83,0,0,6.4,3.7,27280,244,13.1,8.1
2020,2,18,14:00,UTC,8,992.2,82,0,0,6.3,3.5,37600,239,12.2,7.9
2020,2,18,15:00,UTC,8,992.5,86,0,0,5.8,3.6,29950,229,10.9,7.6
2020,2,18,16:00,UTC,8,992.7,92,0,0,5,3.9,30480,217,9.9,7.3
2020,2,18,17:00,UTC,8,993.2,99,0,0,4.3,4.2,14560,223,9.8,6.7
2020,2,18,18:00,UTC,7,993.2,97,0,0,4.5,4.1,25090,226,9.1,6.9
2020,2,18,19:00,UTC,8,993.1,95,0,0,4.5,3.7,48260,230,10.4,7.4
2020,2,18,20:00,UTC,7,993.3,94,0,0,4.4,3.5,50000,229,10,7.5
2020,2,18,21:00,UTC,8,993.2,96,0,0,4.4,3.8,29910,226,10,7.3
2020,2,18,22:00,UTC,8,993.1,100,0,0,4.4,4.4,24870,228,10.6,7
2020,2,18,23:00,UTC,8,993.2,100,0,0,4.3,4.2,35230,232,9.7,6.9
2020,2,19,00:00,UTC,8,993.2,99,0,0,4.2,4,24690,230,9.2,6.5
2020,2,19,01:00,UTC,7,993.4,98,0,0,3.9,3.6,30670,223,6.3,4.7
2020,2,19,02:00,UTC,7,993.7,96,0,0,3.3,2.8,26760,225,8.9,6.3
2020,2,19,03:00,UTC,1,994.2,98,0,0,2.4,2.2,25780,236,7.4,5.4
2020,2,19,04:00,UTC,0,994.6,99,0,0,1.9,1.7,25640,230,7.1,5.2
2020,2,19,05:00,UTC,0,994.6,100,0,0,1.6,1.6,26270,231,6.3,4.9
2020,2,19,06:00,UTC,1,995.3,100,0,0,1.8,1.8,19340,225,6.5,4.7
2020,2,19,07:00,UTC,7,995.7,94,0,0,2.7,1.8,35080,228,8.7,6.5
2020,2,19,08:00,UTC,8,996.2,91,0,0,3.4,2.1,43430,238,7.4,5.1
2020,2,19,09:00,UTC,8,996.7,83,0,0,4.5,1.8,50000,249,8.5,5.3
2020,2,19,10:00,UTC,7,996.9,80,0,0,4.7,1.5,49080,247,10.6,6.8
2020,2,19,11:00,UTC,7,997.5,78,0,0,5,1.5,49290,254,10.4,7.5
2020,2,19,12:00,UTC,7,998,77,0,0,4.8,1.1,50000,253,8.3,6.2
2020,2,19,13:00,UTC,5,998.4,78,0,0,4.7,1.2,50000,262,6.8,4.9
2020,2,19,14:00,UTC,8,998.8,77,0,0,4.7,1,50000,240,8.5,6.1
2020,2,19,15:00,UTC,8,999.6,76,0,0,4.4,0.5,50000,249,7.9,5.5
2020,2,19,16:00,UTC,5,1000.4,90,0,0,2.9,1.4,50000,241,6.5,5.1
2020,2,19,17:00,UTC,8,1001.1,94,0,0,2.4,1.5,50000,238,5.8,4
2020,2,19,18:00,UTC,7,1001.7,95,0,0,2.5,1.8,40860,260,3.7,2.8
2020,2,19,19:00,UTC,7,1002.2,97,0,0,2.1,1.7,26280,236,3,2.2
2020,2,19,20:00,UTC,1,1002.9,100,0,0,1.1,1.1,49580,289,2.6,2.1
2020,2,19,21:00,UTC,7,1003.6,100,0,0,1,1,43470,276,2.7,2.2
2020,2,19,22:00,UTC,8,1004.3,100,0,0,1.2,1.2,50000,249,2.7,2.2
2020,2,19,23:00,UTC,7,1005.2,97,0,0,1.4,1,50000,340,4.2,3
2020,2,20,00:00,UTC,8,1006,100,0,0,0.7,0.7,49560,282,2.5,1.9
2020,2,20,01:00,UTC,8,1006.6,100,0,0,1,1,50000,323,2.4,2.1
2020,2,20,02:00,UTC,8,1007.3,100,0,0,0.8,0.8,50000,13,3.8,2.7
2020,2,20,03:00,UTC,8,1008.2,98,0,0,0.7,0.4,50000,3,5.1,3.7
2020,2,20,04:00,UTC,8,1009.1,94,0,0,0.4,-0.5,50000,19,5.3,3.8
2020,2,20,05:00,UTC,8,1009.8,93,0,0,0.1,-0.9,50000,20,4.1,3
2020,2,20,06:00,UTC,3,1010.6,97,0,0,-0.9,-1.3,50000,14,3.6,2.7
2020,2,20,07:00,UTC,5,1011.8,99,0,0,-1.5,-1.6,50000,6,3.8,3
2020,2,20,08:00,UTC,8,1012.8,93,0,0,-1.2,-2.1,29630,24,3.9,2.7
2020,2,20,09:00,UTC,6,1012.8,88,0,0,-0.6,-2.3,50000,60,5.4,4
2020,2,20,10:00,UTC,8,1013.1,85,0,0,0,-2.1,50000,92,3.7,2
2020,2,20,11:00,UTC,8,1013.2,85,0,0,0.7,-1.5,50000,102,2.4,1.3
2020,2,20,12:00,UTC,8,1013.2,89,0,0,1.5,-0.1,50000,137,3.9,2.1
2020,2,20,13:00,UTC,8,1013.1,89,0,0,1.4,-0.3,50000,139,3.8,2.3
2020,2,20,14:00,UTC,8,1013.1,100,0,0,0.2,0.2,1430,148,3.5,2.6
2020,2,20,15:00,UTC,8,1013,100,0,0,0.3,0.3,21780,135,2.7,1.8
2020,2,20,16:00,UTC,7,1012.9,100,0,0,0.3,0.3,35510,209,4.1,2
2020,2,20,17:00,UTC,2,1012.7,100,0,0,-0.6,-0.6,50000,206,4.1,3.4
2020,2,20,18:00,UTC,1,1012.5,99,0,0,-0.8,-1,50000,186,4.9,3.2
2020,2,20,19:00,UTC,4,1011.9,96,0,0,-0.2,-0.8,50000,165,4.4,3.2
2020,2,20,20:00,UTC,8,1011.2,99,0,0,1.1,0.9,50000,176,6.2,4.3
2020,2,20,21:00,UTC,8,1010.3,100,0,0,1.8,1.8,50000,187,10.7,7.3
2020,2,20,22:00,UTC,8,1009.5,98,0,0,2.2,2,39500,193,9.3,7
2020,2,20,23:00,UTC,8,1008.9,100,0.6,0,1.7,1.7,33970,196,11.2,8.1
2020,2,21,00:00,UTC,8,1008,95,0,0,2.4,1.6,50000,185,12.2,8.1
2020,2,21,01:00,UTC,8,1007,92,0,0,2.3,1.2,50000,180,11.1,7.3
2020,2,21,02:00,UTC,8,1006.1,89,0,0,2.6,0.9,50000,184,13.7,8.4
2020,2,21,03:00,UTC,7,1004.9,87,0,0,2.7,0.7,50000,179,13.4,8.8
2020,2,21,04:00,UTC,7,1004.1,89,0,0,2.8,1.1,50000,177,11.2,7.9
2020,2,21,05:00,UTC,8,1003.3,99,0,0,2.1,2,7970,172,11,7.4
2020,2,21,06:00,UTC,8,1003,100,1.4,0,1.4,1.4,4940,180,11.8,7.4
2020,2,21,07:00,UTC,8,1002.5,100,1.3,0,1.5,1.5,6080,179,13.1,8.4
2020,2,21,08:00,UTC,8,1002.4,100,0.4,0,2,2,11560,182,13,8.6
2020,2,21,09:00,UTC,8,1002.2,100,0,0,2.3,2.3,43760,186,13.7,9.9
2020,2,21,10:00,UTC,8,1002,100,0,0,2.4,2.4,4220,194,15.4,10.1
2020,2,21,11:00,UTC,8,1001.9,100,0,0,2.3,2.3,31420,195,14.9,9.9
2020,2,21,12:00,UTC,8,1001.7,100,0,0,2.4,2.4,33620,192,15,10.6
2020,2,21,13:00,UTC,8,1001.7,100,0.4,0,2.5,2.5,14820,195,17.3,11.7
2020,2,21,14:00,UTC,8,1001.7,100,0.7,0,2.8,2.8,7220,202,16.9,11.7
2020,2,21,15:00,UTC,8,1002.3,100,0,0,3.1,3.1,12380,206,16.2,11.1
2020,2,21,16:00,UTC,8,1002.8,100,0,0,3.5,3.5,38440,208,11.4,7.7
2020,2,21,17:00,UTC,7,1002.9,94,0,0,3.9,2.9,50000,213,12.9,9.4
2020,2,21,18:00,UTC,8,1003.2,95,0,0,3.7,3.1,36490,223,12.6,8.8
2020,2,21,19:00,UTC,7,1003.3,94,0,0,3.9,2.9,35920,223,14.9,10.4
2020,2,21,20:00,UTC,7,1003.3,95,0,0,4.1,3.4,30580,220,15.1,9.4
2020,2,21,21:00,UTC,7,1002.7,97,0,0,3.9,3.5,32770,214,13.4,9.6
2020,2,21,22:00,UTC,7,1002.6,96,0,0,3.9,3.4,30510,211,11.2,8.3
2020,2,21,23:00,UTC,7,1002.5,93,0,0,4.2,3.1,36480,214,13.1,9.2
2020,2,22,00:00,UTC,7,1001.7,90,0,0,4.4,2.9,33240,213,15.5,10.8
2020,2,22,01:00,UTC,8,1001,92,0,0,4.4,3.2,29000,216,17.4,10.6
2020,2,22,02:00,UTC,8,1000.2,91,0,0,4.7,3.4,26550,222,20.3,11.9
2020,2,22,03:00,UTC,8,999.9,93,0,0,4.7,3.7,25170,223,17.8,12.4
2020,2,22,04:00,UTC,8,998.8,93,0,0,4.8,3.9,20100,218,19,13.1
2020,2,22,05:00,UTC,8,998.3,97,0,0,4.7,4.3,9750,219,18.7,14.2
2020,2,22,06:00,UTC,8,997.5,100,0.4,0,4.3,4.3,3700,215,16.6,11.6
2020,2,22,07:00,UTC,8,996.5,100,0.5,0,4.1,4.1,3690,209,14.7,10.8
2020,2,22,08:00,UTC,8,995.5,100,2.9,0,4.2,4.1,8050,211,17.3,12.7
2020,2,22,09:00,UTC,8,994,100,0.8,0,4.3,4.3,10840,212,17.7,13.1
2020,2,22,10:00,UTC,8,992,100,1.7,0,4,4,8400,206,18.4,13.7
2020,2,22,11:00,UTC,8,989.8,100,2.1,0,3.9,3.9,5050,201,20.9,14.1
2020,2,22,12:00,UTC,8,987.9,100,1.6,0,3.2,3.2,5440,201,21.4,15.2
2020,2,22,13:00,UTC,8,985.7,100,2.6,0,2.3,2.3,2820,200,19.1,14.6
2020,2,22,14:00,UTC,8,983.4,100,3.3,0,1,1,2320,196,16.7,11.9
2020,2,22,15:00,UTC,8,980.7,100,0.9,0,2.4,2.4,3030,197,18.9,13.7
2020,2,22,16:00,UTC,8,979.2,100,2.5,0,1.9,1.9,4700,199,18.6,14
2020,2,22,17:00,UTC,8,977.6,100,2.4,0,1.6,1.6,4390,198,16.1,11.8
2020,2,22,18:00,UTC,8,975.7,100,3.2,0,3.8,3.8,3130,208,14.4,10.3
2020,2,22,19:00,UTC,8,974.3,100,1.9,0,4.6,4.6,11080,219,16.3,10.4
2020,2,22,20:00,UTC,8,973,100,1,0,4.4,4.4,14110,220,14.5,10.3
2020,2,22,21:00,UTC,8,972.8,96,0,0,3.8,3.2,39370,241,16.3,11.4
2020,2,22,22:00,UTC,8,973.5,91,0,0,3.9,2.6,50000,244,15.3,11.3
2020,2,22,23:00,UTC,7,974.7,80,0,0,4.1,1,50000,260,16.3,10.2
2020,2,23,00:00,UTC,5,975.8,79,0,0,4.2,0.9,50000,254,14.6,10.9
2020,2,23,01:00,UTC,1,976.7,82,0,0,3.4,0.5,50000,251,12.2,8.9
2020,2,23,02:00,UTC,0,977.4,82,0,0,2.6,-0.1,50000,247,10.8,7.5
2020,2,23,03:00,UTC,0,978,85,0,0,1.8,-0.4,50000,243,9.7,6.6
2020,2,23,04:00,UTC,0,978.4,84,0,0,1.7,-0.7,50000,245,11.5,7.3
2020,2,23,05:00,UTC,1,979.1,87,0,0,1.4,-0.6,50000,246,10.7,7.3
2020,2,23,06:00,UTC,0,979.2,89,0,0,1.2,-0.5,50000,234,8.4,6.1
2020,2,23,07:00,UTC,0,979.4,87,0,0,1.9,0,50000,231,9.8,6.5
2020,2,23,08:00,UTC,8,979.6,86,0,0,2.2,0.1,50000,245,10.4,6.6
2020,2,23,09:00,UTC,7,979.5,81,0,0,3.1,0.2,50000,244,10.9,7.2
2020,2,23,10:00,UTC,7,979.7,77,0,0,3.9,0.3,50000,260,9.6,7.3
2020,2,23,11:00,UTC,7,979.3,75,0,0,4.3,0.2,50000,247,10.1,7.5
2020,2,23,12:00,UTC,6,979.3,70,0,0,4.8,-0.2,50000,251,10.9,6.8
2020,2,23,13:00,UTC,7,979.4,66,0,0,5.1,-0.6,50000,243,11.1,7.7
2020,2,23,14:00,UTC,7,979.9,69,0,0,4.6,-0.6,50000,256,11.1,8.1
2020,2,23,15:00,UTC,7,980.7,74,0,0,3.8,-0.4,50000,266,10.3,7.2
2020,2,23,16:00,UTC,6,981.4,84,0,0,3,0.6,50000,261,8,5.6
2020,2,23,17:00,UTC,8,982,82,0,0,3.1,0.3,50000,270,6,4.3
2020,2,23,18:00,UTC,7,982.4,88,0,0,2.5,0.8,50000,246,5.3,4
2020,2,23,19:00,UTC,7,982.7,78,0,0,3.3,-0.2,50000,273,12.6,8
2020,2,23,20:00,UTC,7,983.5,88,0,0,2.5,0.8,41500,273,8.7,6.6
2020,2,23,21:00,UTC,8,984.4,97,0,0,2.2,1.7,50000,267,7.7,5.4
2020,2,23,22:00,UTC,7,984.9,91,0,0,2.2,0.9,50000,269,8,5.6
2020,2,23,23:00,UTC,8,985.5,86,0,0,2.1,-0.1,50000,268,8.9,6.2
2020,2,24,00:00,UTC,8,986.2,87,0,0,1.6,-0.3,32350,272,7.4,5.8
2020,2,24,01:00,UTC,4,986.5,86,0,0,1,-1,50000,262,6,4.4
2020,2,24,02:00,UTC,6,987,84,0,0,1.1,-1.3,50000,284,9.3,6.2
2020,2,24,03:00,UTC,3,987.8,89,0,0,0.8,-0.8,50000,289,9.6,7
2020,2,24,04:00,UTC,1,988.9,82,0,0,0.4,-2.3,50000,304,8.9,6.1
2020,2,24,05:00,UTC,0,989.9,74,0,0,0.2,-3.8,50000,298,11.9,8.7
2020,2,24,06:00,UTC,0,991,73,0,0,-0.1,-4.3,50000,294,10.9,8.2
2020,2,24,07:00,UTC,0,991.7,69,0,0,0.4,-4.7,50000,289,12.9,9.5
2020,2,24,08:00,UTC,0,992.6,63,0,0,1.3,-4.9,50000,296,10.6,7.8
2020,2,24,09:00,UTC,1,992.8,58,0,0,1.8,-5.5,50000,291,15,11.7
2020,2,24,10:00,UTC,1,993.4,57,0,0,2.6,-5.1,50000,294,14.8,10.7
2020,2,24,11:00,UTC,2,993.9,52,0,0,3.3,-5.6,50000,294,14.4,11.1
2020,2,24,12:00,UTC,1,994.3,49,0,0,3.7,-6,50000,285,16.3,11.2
2020,2,24,13:00,UTC,0,995,52,0,0,3.7,-5.3,50000,278,14.9,11.2
2020,2,24,14:00,UTC,0,995.9,51,0,0,3.3,-5.9,50000,286,13.8,9.5
2020,2,24,15:00,UTC,0,996.7,53,0,0,2.3,-6.3,50000,280,15.5,10.7
2020,2,24,16:00,UTC,0,997.5,57,0,0,1.4,-6.2,50000,275,11.3,8
2020,2,24,17:00,UTC,0,998.2,61,0,0,0.6,-6,50000,275,9.9,7.2
2020,2,24,18:00,UTC,0,998.5,65,0,0,0.4,-5.5,50000,278,9.8,6.8
2020,2,24,19:00,UTC,0,998.9,70,0,0,-0.3,-5.2,50000,271,6.4,4.9
2020,2,24,20:00,UTC,0,999.2,76,0,0,-0.9,-4.7,50000,266,5.9,4.5
2020,2,24,21:00,UTC,0,999.7,78,0,0,-1.3,-4.5,50000,269,6.8,4.7
2020,2,24,22:00,UTC,0,999.9,80,0,0,-1.6,-4.6,50000,270,5.1,3.8
2020,2,24,23:00,UTC,0,999.9,82,0,0,-1.8,-4.5,50000,277,4.8,3.8
2020,2,25,00:00,UTC,0,1000,93,0,0,-3.1,-4.1,50000,245,4.1,3.1
2020,2,25,01:00,UTC,0,999.9,94,0,0,-3,-3.9,50000,265,4.2,3.6
2020,2,25,02:00,UTC,0,999.9,97,0,0,-3.5,-4,50000,279,4.5,3.9
2020,2,25,03:00,UTC,0,999.8,96,0,0,-3.9,-4.5,50000,282,4.6,3.9
2020,2,25,04:00,UTC,0,1000,91,0,0,-4.3,-5.6,50000,302,4.2,3.2
2020,2,25,05:00,UTC,0,1000.1,99,0,0,-5,-5.1,50000,257,3.4,2.3
2020,2,25,06:00,UTC,0,1000.2,94,0,0,-4.9,-5.7,50000,273,4.3,3
2020,2,25,07:00,UTC,0,1000.3,85,0,0,-3.5,-5.7,50000,310,2.4,1.8
2020,2,25,08:00,UTC,,,,,0,,,,,,
2020,2,25,09:00,UTC,,,,,0,-1,,,,,
2020,2,25,10:00,UTC,,,,,0,,,,,,
2020,2,25,11:00,UTC,0,999.4,45,,0,1.5,-9.2,48100,,,
2020,2,25,12:00,UTC,0,999,44,0,0,1.2,-9.7,50000,126,2.6,1.2
2020,2,25,13:00,UTC,0,998.5,39,0,0,1.9,-10.6,50000,143,2.4,1.3
2020,2,25,14:00,UTC,0,998,43,0,0,1.4,-9.9,50000,105,3.9,2.5
2020,2,25,15:00,UTC,0,997.7,51,0,0,-0.1,-9.1,50000,154,5.2,4.3
2020,2,25,16:00,UTC,0,997.4,59,0,0,-1.3,-8.2,50000,112,4.2,2.8
2020,2,25,17:00,UTC,0,997.1,71,0,0,-3.2,-7.7,50000,90,3.6,3.1
2020,2,25,18:00,UTC,0,996.8,74,0,0,-3.9,-7.9,50000,82,3.8,3.2
2020,2,25,19:00,UTC,0,996.2,72,0,0,-3.1,-7.4,50000,54,5.5,4.8
2020,2,25,20:00,UTC,7,995.8,75,0,0,-3.5,-7.2,50000,59,5.4,4.5
2020,2,25,21:00,UTC,6,995.3,79,0,0,-3.9,-7,50000,70,4.9,4.1
2020,2,25,22:00,UTC,0,994.3,80,0,0,-3.9,-6.8,50000,61,6.3,5.1
2020,2,25,23:00,UTC,0,993.8,78,0,0,-3.5,-6.8,50000,59,6.9,5.5
2020,2,26,00:00,UTC,1,993.1,77,0,0,-3.4,-6.9,50000,55,8.1,6.1
2020,2,26,01:00,UTC,3,992.7,77,0,0,-3.2,-6.7,50000,55,8.3,6.2
2020,2,26,02:00,UTC,8,992.1,75,0,0,-2.9,-6.7,50000,57,8.4,6.5
2020,2,26,03:00,UTC,8,991.8,73,0,0,-2.8,-6.9,50000,58,8.4,6.2
2020,2,26,04:00,UTC,8,991.6,71,0,0,-2.7,-7.2,50000,57,9.2,6.8
2020,2,26,05:00,UTC,8,991.5,68,0,0,-2.4,-7.5,50000,53,9.6,7.1
2020,2,26,06:00,UTC,8,991.6,65,0,0,-2.1,-7.7,43110,59,9.3,6.9
2020,2,26,07:00,UTC,8,991.5,62,0,0,-1.8,-8.1,50000,55,9.5,7.3
2020,2,26,08:00,UTC,6,991.6,60,0,0,-1.3,-8.1,50000,57,11.9,8.2
2020,2,26,09:00,UTC,7,992.1,54,0,0,-0.5,-8.7,50000,52,12,8.3
2020,2,26,10:00,UTC,0,992,50,0,0,0.3,-9,50000,59,12.3,8.7
2020,2,26,11:00,UTC,0,992.3,54,0,0,0,-8.4,50000,57,12.1,9.1
2020,2,26,12:00,UTC,3,992.7,58,0,0,-0.3,-7.5,50000,51,13.3,9.3
2020,2,26,13:00,UTC,0,993.2,48,0,0,0.3,-9.5,50000,56,12.4,8.8
2020,2,26,14:00,UTC,0,993.4,42,0,0,0.3,-11.2,50000,53,13.8,8.4
2020,2,26,15:00,UTC,1,994.1,40,0,0,-0.2,-12.1,50000,48,12,8.9
2020,2,26,16:00,UTC,3,994.8,49,0,0,-0.9,-10.3,50000,53,11.6,7.9
2020,2,26,17:00,UTC,2,995.6,54,0,0,-1.4,-9.4,50000,57,12.3,7.6
2020,2,26,18:00,UTC,7,996.1,55,0,0,-1.7,-9.5,50000,55,10.2,7.6
2020,2,26,19:00,UTC,7,996.5,57,0,0,-2.2,-9.4,50000,56,10.4,7.3
2020,2,26,20:00,UTC,7,996.9,59,0,0,-2.6,-9.6,50000,56,10.4,7.8
2020,2,26,21:00,UTC,0,997.3,61,0,0,-3.3,-9.8,50000,63,8.8,6.9
2020,2,26,22:00,UTC,0,997.6,61,0,0,-4,-10.4,50000,62,9,6
2020,2,26,23:00,UTC,0,997.7,62,0,0,-4.6,-10.7,50000,56,9.5,6.4
2020,2,27,00:00,UTC,0,997.9,65,0,0,-5.3,-10.8,50000,54,8.3,6
2020,2,27,01:00,UTC,0,998.1,70,0,0,-5.9,-10.5,50000,55,8.2,6.2
2020,2,27,02:00,UTC,0,998.4,74,0,0,-6.5,-10.3,50000,58,8.3,5.8
2020,2,27,03:00,UTC,0,998.6,76,0,0,-6.9,-10.4,50000,51,7.1,5.5
2020,2,27,04:00,UTC,0,998.9,79,0,0,-7.1,-10.2,50000,48,8.4,6.1
2020,2,27,05:00,UTC,0,999,82,0,0,-7.4,-10,50000,39,8.5,6.3
2020,2,27,06:00,UTC,0,999.2,78,0,0,-7,-10.1,50000,50,7.8,5.7
2020,2,27,07:00,UTC,0,999.3,68,0,0,-5.5,-10.6,50000,60,9.6,7.1
2020,2,27,08:00,UTC,0,999.4,63,0,0,-4.3,-10.2,50000,66,9.4,7.5
2020,2,27,09:00,UTC,0,999.4,54,0,0,-2.7,-10.7,50000,74,11.6,8
2020,2,27,10:00,UTC,0,999.3,52,0,0,-1.8,-10.4,50000,70,10.4,8.3
2020,2,27,11:00,UTC,0,998.8,46,0,0,-1,-11.2,50000,83,10.9,7.8
2020,2,27,12:00,UTC,0,998.6,38,0,0,0,-12.5,48750,72,11.4,8.4
2020,2,27,13:00,UTC,0,998.7,42,0,0,-0.2,-11.5,38300,55,9,6.9
2020,2,27,14:00,UTC,0,998.6,39,0,0,-0.1,-12.3,50000,65,9.6,6.7
2020,2,27,15:00,UTC,0,998.7,44,0,0,-1,-11.7,50000,61,7.1,5.2
2020,2,27,16:00,UTC,0,998.8,49,0,0,-1.9,-11.2,50000,52,5.8,4
2020,2,27,17:00,UTC,0,998.8,53,0,0,-2.4,-10.7,50000,53,7.9,5.7
2020,2,27,18:00,UTC,0,998.7,57,0,0,-3,-10.3,44770,52,9.4,5.9
2020,2,27,19:00,UTC,0,998.3,62,0,0,-3.7,-9.8,50000,52,8.7,6.6
2020,2,27,20:00,UTC,1,998.5,66,0,0,-4.2,-9.6,50000,55,8.8,6.3
2020,2,27,21:00,UTC,0,998.6,71,0,0,-4.8,-9.1,50000,54,9.2,6.7
2020,2,27,22:00,UTC,0,999,77,0,0,-5.4,-8.8,50000,55,6.9,5.2
2020,2,27,23:00,UTC,1,999.1,80,0,0,-6.1,-8.9,50000,40,5,3.5
2020,2,28,00:00,UTC,8,999.3,80,0,0,-5.9,-8.7,50000,37,4.9,3.4
2020,2,28,01:00,UTC,8,999.4,80,0,0,-6,-8.8,50000,36,5.5,3.5
2020,2,28,02:00,UTC,8,999.6,82,0,0,-6.3,-8.9,50000,22,3.5,2.7
2020,2,28,03:00,UTC,8,999.7,83,0,0,-6.5,-8.9,50000,28,4.6,2.8
2020,2,28,04:00,UTC,8,1000,85,0,0,-7,-9,50000,6,3.6,2.7
2020,2,28,05:00,UTC,2,999.9,88,0,0,-8.1,-9.8,50000,350,3.9,3.1
2020,2,28,06:00,UTC,0,999.9,89,0,0,-8.7,-10.2,50000,343,3.6,2.7
2020,2,28,07:00,UTC,0,999.8,82,0,0,-7.7,-10.2,50000,345,4.2,3.2
2020,2,28,08:00,UTC,0,999.7,71,0,0,-5.8,-10.3,38590,356,4.9,3.8
2020,2,28,09:00,UTC,0,999.9,61,0,0,-3.8,-10.4,50000,349,4.4,3
2020,2,28,10:00,UTC,0,999.6,52,0,0,-2.2,-10.7,50000,337,4.8,3.5
2020,2,28,11:00,UTC,0,999.8,45,0,0,-0.7,-11.2,50000,331,5.6,3.9
2020,2,28,12:00,UTC,0,999.8,40,0,0,0,-11.9,50000,328,6.3,3.9
2020,2,28,13:00,UTC,0,999.7,33,0,0,0.3,-14.3,50000,337,6.7,4.3
2020,2,28,14:00,UTC,0,1000.1,29,0,0,-0.1,-16.2,50000,328,7.2,5.7
2020,2,28,15:00,UTC,0,1000.3,31,0,0,-0.7,-15.6,50000,324,6.7,4.9
2020,2,28,16:00,UTC,0,1000.7,36,0,0,-2.2,-15.2,26610,334,3.5,2.5
2020,2,28,17:00,UTC,0,1001,42,0,0,-3.3,-14.5,39920,326,3.2,2.6
2020,2,28,18:00,UTC,0,1001.2,54,0,0,-5.3,-13.1,50000,298,3.9,2.9
2020,2,28,19:00,UTC,0,1001.3,54,0,0,-5.1,-12.9,50000,286,3.9,3.4
2020,2,28,20:00,UTC,0,1001.4,56,0,0,-6,-13.4,50000,288,3.5,3.2
2020,2,28,21:00,UTC,0,1001.5,56,0,0,-6.3,-13.5,50000,299,4.6,3.9
2020,2,28,22:00,UTC,0,1001.7,63,0,0,-7.1,-12.9,50000,298,4.6,3.3
2020,2,28,23:00,UTC,0,1001.9,66,0,0,-7.6,-12.9,50000,297,4.9,3.6
2020,2,29,00:00,UTC,0,1002.2,70,0,0,-8.3,-12.9,50000,287,4.4,4
2020,2,29,01:00,UTC,0,1002.2,72,0,0,-8.2,-12.4,50000,291,4.9,4.3
2020,2,29,02:00,UTC,0,1002.1,75,0,0,-8.8,-12.4,50000,295,2.2,1.4
2020,2,29,03:00,UTC,0,1002.2,78,0,0,-9.6,-12.7,50000,280,2.4,2.1
2020,2,29,04:00,UTC,0,1002.1,83,0,0,-10.6,-13,50000,277,3.5,2.5
2020,2,29,05:00,UTC,0,1001.8,84,0,0,-11.4,-13.5,50000,283,2.3,1.1
2020,2,29,06:00,UTC,0,1001.6,82,0,0,-11.1,-13.5,50000,327,1,0.6
2020,2,29,07:00,UTC,6,1001.2,75,0,0,-7.9,-11.6,50000,81,1.5,0.9
2020,2,29,08:00,UTC,7,1001,62,0,0,-4.7,-11,50000,176,1.8,1.2
2020,2,29,09:00,UTC,8,1000.5,58,0,0,-3,-10.1,46840,144,3.3,2.1
2020,2,29,10:00,UTC,8,1000,61,0,0,-1.6,-8.1,50000,114,3.5,2.5
2020,2,29,11:00,UTC,7,999.5,82,0,0,0,-2.6,39200,178,5.8,3.9
2020,2,29,12:00,UTC,8,999.2,92,0,0,0,-1.1,4090,159,4.6,3.3
2020,2,29,13:00,UTC,8,998.9,87,0,0,0.8,-1.1,50000,219,3.1,2.1
2020,2,29,14:00,UTC,4,998.5,81,0,0,0.9,-2.1,50000,205,2.8,1.6
2020,2,29,15:00,UTC,7,998.2,83,0,0,0.9,-1.6,50000,136,3.1,2.2
2020,2,29,16:00,UTC,8,998.1,86,0,0,0.8,-1.3,50000,147,4,3.1
2020,2,29,17:00,UTC,8,998,91,0,0,0.6,-0.7,28850,198,5,3.9
2020,2,29,18:00,UTC,8,997.5,97,0,0,0.3,-0.1,12740,179,5.3,3.4
2020,2,29,19:00,UTC,8,997.2,98,0,0,0.3,0.1,3480,185,4.9,3.6
2020,2,29,20:00,UTC,8,997,98,0,0,0.4,0,15140,233,5.1,3.6
2020,2,29,21:00,UTC,8,996.8,99,0.5,0,0.4,0.2,6580,203,3.2,2.4
2020,2,29,22:00,UTC,8,996.4,98,0,0,0.6,0.3,13390,192,4.2,3.3
2020,2,29,23:00,UTC,8,996.3,98,0,0,0.4,0.1,4170,186,4.4,3.5
2020,3,1,00:00,UTC,8,995.8,98,0.5,0,0.4,0.1,50000,189,4.2,3.3
2020,3,1,01:00,UTC,8,994.9,98,0,0,0.5,0.3,15410,172,3.5,2.4
2020,3,1,02:00,UTC,8,994,96,0,0,1.1,0.5,22660,165,3.1,2.3
2020,3,1,03:00,UTC,8,993.4,96,0,0,0.9,0.3,12500,159,5.5,3.9
2020,3,1,04:00,UTC,8,992.7,95,0,0,0.7,0,17870,154,5.6,4.1
2020,3,1,05:00,UTC,8,991.6,96,0,0,0.4,-0.1,12850,129,5,4
2020,3,1,06:00,UTC,8,990.7,97,0.6,0,0.3,-0.2,2270,138,6.4,5
2020,3,1,07:00,UTC,8,989.8,98,0.8,0,0,-0.2,2880,137,5.7,4.7
2020,3,1,08:00,UTC,8,988.6,98,0.5,2,0.3,0,4300,139,6.5,4.7
2020,3,1,09:00,UTC,8,987.7,97,0,2,0.4,0,3380,144,6.7,5.2
2020,3,1,10:00,UTC,8,986.8,98,0.8,2,0.4,0.1,1170,143,6.9,5.4
2020,3,1,11:00,UTC,8,985.9,98,0.8,3,0.3,0,2530,145,8.2,6.1
2020,3,1,12:00,UTC,8,985.3,98,1.7,3,0.2,0,1910,159,7.8,5.6
2020,3,1,13:00,UTC,8,985.4,96,0,3,2.2,1.6,18350,224,10,7.2
2020,3,1,14:00,UTC,8,986.3,92,0,3,2.7,1.5,34270,232,10.4,7.7
2020,3,1,15:00,UTC,7,987.2,87,0,2,3,1,50000,222,11.6,7.6
2020,3,1,16:00,UTC,7,987.7,88,0,2,2.9,1.1,17520,220,10.9,8.1
2020,3,1,17:00,UTC,8,988.2,90,0,2,2.8,1.4,26300,216,9.2,6.2
2020,3,1,18:00,UTC,8,988.5,96,1.7,0,1.8,1.2,4540,221,7.5,5.6
2020,3,1,19:00,UTC,8,988.1,95,1.1,2,2.9,2.1,3940,217,11.5,8.8
2020,3,1,20:00,UTC,8,988.5,94,0.8,0,3.2,2.3,7760,220,12.2,8.8
2020,3,1,21:00,UTC,8,988.8,94,0.5,0,3.5,2.7,5280,223,13,9.6
2020,3,1,22:00,UTC,8,989.4,95,0.4,0,3.6,2.8,12030,229,9.5,7
2020,3,1,23:00,UTC,8,989.9,94,0,0,3.5,2.6,16390,220,10.3,6.8
2020,3,2,00:00,UTC,8,990.5,93,0,0,3.6,2.5,20230,221,11.1,7.1
2020,3,2,01:00,UTC,8,990.8,93,0,0,3.5,2.5,24220,221,9.1,6.4
2020,3,2,02:00,UTC,8,991.2,96,1.3,0,3.2,2.5,12510,219,8.1,6.1
2020,3,2,03:00,UTC,8,991.7,96,0.4,0,3.1,2.5,12650,212,8.2,5.6
2020,3,2,04:00,UTC,8,992.1,96,0,0,3.1,2.5,10620,214,7.8,6
2020,3,2,05:00,UTC,8,992.4,96,0,0,3,2.4,15910,208,7.2,4.7
2020,3,2,06:00,UTC,8,993.2,94,0.4,0,2.8,2,20900,226,8.1,5.1
2020,3,2,07:00,UTC,8,994.2,96,0,0,3,2.5,8870,215,8.4,4.8
2020,3,2,08:00,UTC,8,994.9,96,0,0,3.5,2.9,20900,223,6.7,4.6
2020,3,2,09:00,UTC,7,995.7,92,0,0,4.1,3,30280,217,8.2,5.5
2020,3,2,10:00,UTC,8,996.7,90,0,0,4.7,3.1,36300,221,7.6,5.3
2020,3,2,11:00,UTC,8,997.5,86,0,0,5,2.9,33000,225,7.3,5.3
2020,3,2,12:00,UTC,8,998,83,0,0,5.8,3,39040,214,8.1,5.5
2020,3,2,13:00,UTC,5,998.7,79,0,0,5.7,2.4,43670,205,7.7,5.8
2020,3,2,14:00,UTC,6,999.5,80,0,0,5,1.9,34450,220,9.6,5.9
2020,3,2,15:00,UTC,0,1000.1,83,0,0,4.1,1.5,38360,212,6.7,4.9
2020,3,2,16:00,UTC,1,1000.9,91,0,0,2.2,0.9,27640,208,4.5,3.6
2020,3,2,17:00,UTC,0,1001.7,92,0,0,2.1,1,27020,207,2.6,2.1
2020,3,2,18:00,UTC,0,1002.1,93,0,0,1.7,0.7,20790,193,3.1,2.3
2020,3,2,19:00,UTC,0,1002.5,95,0,0,1.7,0.9,15230,168,3,2.4
2020,3,2,20:00,UTC,4,1003,97,0,0,1.2,0.8,9590,182,2.4,1.9
2020,3,2,21:00,UTC,7,1003.5,99,0,0,0.7,0.5,5700,79,0.9,0.5
2020,3,2,22:00,UTC,9,1003.8,99,0,0,-0.4,-0.5,1140,78,2.6,2.2
2020,3,2,23:00,UTC,9,1004.1,100,0,0,0.1,0.1,410,71,2.1,1.9
2020,3,3,00:00,UTC,3,1004.6,100,0,0,-0.1,-0.1,2710,67,2.8,2.6
2020,3,3,01:00,UTC,7,1004.9,100,0,0,0.2,0.1,4940,65,2.7,2.2
2020,3,3,02:00,UTC,8,1004.9,99,0,0,0.7,0.6,10790,61,3.2,2.1
2020,3,3,03:00,UTC,8,1005.1,99,0,0,0.8,0.6,11660,25,3.4,2.6
2020,3,3,04:00,UTC,8,1005.1,98,0,0,0.7,0.5,12480,39,4.4,3.5
2020,3,3,05:00,UTC,8,1005.6,98,0,0,0.8,0.5,12270,34,3.8,2.8
2020,3,3,06:00,UTC,7,1005.9,98,0,0,0.7,0.4,9360,35,4.6,3.5
2020,3,3,07:00,UTC,8,1006.4,98,0,0,0.8,0.5,7610,53,4.8,3.6
2020,3,3,08:00,UTC,7,1006.5,97,0,0,1.4,1.1,9660,47,7.6,5.2
2020,3,3,09:00,UTC,8,1007.4,97,0,0,1.7,1.3,8690,84,4.1,3.1
2020,3,3,10:00,UTC,7,1007.7,95,0,0,2.1,1.3,13730,48,6.2,4.4
2020,3,3,11:00,UTC,7,1008,93,0,0,2.5,1.4,17850,50,7.6,5.8
2020,3,3,12:00,UTC,7,1008.2,90,0,0,2.9,1.5,30060,52,7.6,5.4
2020,3,3,13:00,UTC,7,1008.7,92,0.3,0,3.1,2,13550,57,7.8,5.6
2020,3,3,14:00,UTC,8,1009.4,94,0.4,0,2.9,2,11050,58,6.8,5.1
2020,3,3,15:00,UTC,8,1010,95,0.3,0,2.6,1.9,10040,69,8.2,5.6
2020,3,3,16:00,UTC,8,1010.7,95,0,0,2.5,1.8,10600,63,7.8,5.4
2020,3,3,17:00,UTC,8,1011.2,95,0,0,2.4,1.7,14970,73,8,6.1
2020,3,3,18:00,UTC,8,1011.5,94,0,0,2.4,1.6,18150,77,9.2,6.2
2020,3,3,19:00,UTC,8,1012,95,0,0,2.3,1.5,18090,84,9.6,5.9
2020,3,3,20:00,UTC,8,1012.5,95,0,0,2.3,1.5,12920,87,8.2,5.4
2020,3,3,21:00,UTC,8,1012.5,93,0,0,2.3,1.4,19960,87,8.7,6.1
2020,3,3,22:00,UTC,8,1012.9,93,0,0,2.3,1.3,22770,87,8.7,6
2020,3,3,23:00,UTC,8,1012.7,94,0,0,2.3,1.5,17310,80,10,6.9
2020,3,4,00:00,UTC,8,1013.6,94,0,0,2.3,1.5,21600,93,8.8,5.9
2020,3,4,01:00,UTC,8,1013.6,93,0,0,2.4,1.4,19260,96,9.1,7
2020,3,4,02:00,UTC,8,1013.4,93,0,0,2.1,1.1,23050,92,11.6,8.1
2020,3,4,03:00,UTC,8,1013.1,95,0,0,1.6,0.8,8710,89,10.9,7.7
2020,3,4,04:00,UTC,8,1012.8,95,0,0,1.2,0.5,8420,91,13.5,9.1
2020,3,4,05:00,UTC,8,1012.3,96,0,0,0.7,0.1,4000,88,12.5,9.2
2020,3,4,06:00,UTC,8,1012,96,0,0,0.9,0.3,22450,90,11.9,8.4
2020,3,4,07:00,UTC,8,1010.9,94,0,0,1,0.2,42940,90,16.2,11
2020,3,4,08:00,UTC,8,1010.4,92,0,0,1.3,0.2,50000,97,15.5,10.9
2020,3,4,09:00,UTC,8,1009.7,93,0,0,1.5,0.4,50000,99,14.6,10.7
2020,3,4,10:00,UTC,8,1008.9,94,0.5,0,1.4,0.5,5740,99,14.5,10.4
2020,3,4,11:00,UTC,8,1008.4,97,3.7,0,0.5,0.1,160,101,12.3,8.7
2020,3,4,12:00,UTC,8,1007.6,98,4.1,2,0.2,-0.1,170,97,12.9,9.3
2020,3,4,13:00,UTC,8,1006.8,97,2,2,0.5,0,560,94,13.1,9.2
2020,3,4,14:00,UTC,8,1006.3,95,0.6,3,0.8,0.2,1360,103,13.7,9.3
2020,3,4,15:00,UTC,8,1005.7,96,0.5,3,1.1,0.5,2360,106,14.9,10.3
2020,3,4,16:00,UTC,8,1005.1,98,0.5,3,1.4,1,1810,107,11.5,8.6
2020,3,4,17:00,UTC,8,1004.9,98,0,2,2,1.7,2170,118,10.7,7.9
2020,3,4,18:00,UTC,8,1004.9,99,0,2,2.5,2.4,4410,139,9,6.6
2020,3,4,19:00,UTC,8,1004.5,98,0,2,3,2.7,18050,151,9.7,6.8
2020,3,4,20:00,UTC,8,1004.6,96,0,0,3.1,2.6,41390,156,8.5,6.4
2020,3,4,21:00,UTC,8,1004.5,95,0,0,3.3,2.5,35590,172,8,5.8
2020,3,4,22:00,UTC,8,1004.2,95,0,0,3.2,2.5,12490,176,8.8,5.7
2020,3,4,23:00,UTC,8,1004.1,96,0,0,3.2,2.6,17310,185,7,5.3
2020,3,5,00:00,UTC,8,1004,95,0,0,3.2,2.5,50000,180,8,5.6
2020,3,5,01:00,UTC,8,1003.5,97,0,0,3,2.5,23600,177,6.7,4.6
2020,3,5,02:00,UTC,8,1003.3,95,0,0,2.8,2.1,14680,184,7,5.3
2020,3,5,03:00,UTC,8,1002.9,95,0,0,2.9,2.2,50000,188,7.3,5.2
2020,3,5,04:00,UTC,8,1002.4,95,0,0,2.9,2.2,50000,180,5.8,4.2
2020,3,5,05:00,UTC,8,1002.3,95,0,0,2.9,2.2,50000,195,7.2,4.7
2020,3,5,06:00,UTC,8,1002.1,96,0,0,2.8,2.2,50000,201,5.5,4.4
2020,3,5,07:00,UTC,8,1001.9,96,0,0,2.8,2.3,50000,196,6.6,5.1
2020,3,5,08:00,UTC,8,1001.6,96,0,0,3.1,2.4,50000,205,7.2,4.9
2020,3,5,09:00,UTC,8,1001.4,96,0,0,3.1,2.6,17990,197,6.2,4.7
2020,3,5,10:00,UTC,8,1001.2,96,0.4,0,3.2,2.6,18270,198,6,4.8
2020,3,5,11:00,UTC,8,1000.7,97,0.5,0,3.2,2.8,14080,196,6.6,5.1
2020,3,5,12:00,UTC,8,1000.6,96,0,0,3.3,2.7,18320,194,6.5,4.8
2020,3,5,13:00,UTC,8,1000.5,96,0,0,3.4,2.8,37840,204,6.1,4.6
2020,3,5,14:00,UTC,8,1000.5,95,0,0,3.3,2.6,17750,230,5.7,3.8
2020,3,5,15:00,UTC,7,1000.4,93,0,0,3.2,2.1,40740,225,6.8,4.8
2020,3,5,16:00,UTC,7,1000.7,89,0,0,2.5,0.8,50000,218,8.2,5.6
2020,3,5,17:00,UTC,5,1001,93,0,0,1.7,0.6,50000,213,6.1,5
2020,3,5,18:00,UTC,3,1000.7,96,0,0,1.4,0.9,50000,202,5.7,4.7
2020,3,5,19:00,UTC,7,1000.7,94,0,0,1.8,1,50000,188,4.6,3.5
2020,3,5,20:00,UTC,8,1000.6,97,0.4,0,0.9,0.5,9850,205,7.5,5.7
2020,3,5,21:00,UTC,7,1000.9,98,0,0,1,0.7,26580,213,4.4,3.3
2020,3,5,22:00,UTC,6,1000.9,97,0,0,0.7,0.3,45850,209,4.9,3.9
2020,3,5,23:00,UTC,7,1001.1,97,0,0,0.6,0.2,50000,208,5.7,4.3
2020,3,6,00:00,UTC,7,1001.2,95,0,0,0.6,-0.1,50000,203,5.4,4.2
2020,3,6,01:00,UTC,7,1001.1,94,0,0,1.2,0.3,50000,206,8.6,6.4
2020,3,6,02:00,UTC,8,1001,95,0,0,1.3,0.6,50000,217,6.3,4.9
2020,3,6,03:00,UTC,8,1001.3,95,0,0,1.4,0.7,50000,221,5.4,4.3
2020,3,6,04:00,UTC,7,1001.5,95,0,0,1.3,0.5,50000,223,7.2,4.8
2020,3,6,05:00,UTC,8,1002.1,92,0,0,1.1,-0.1,45090,249,7.2,5
2020,3,6,06:00,UTC,5,1003,88,0,0,0.5,-1.2,50000,255,8.3,5.8
2020,3,6,07:00,UTC,5,1003.8,83,0,0,0.7,-1.9,50000,255,6.5,4.8
2020,3,6,08:00,UTC,1,1004.4,78,0,0,1.4,-2.1,50000,255,7.9,5.4
2020,3,6,09:00,UTC,5,1004.9,74,0,0,2.3,-1.8,50000,267,9,5.7
2020,3,6,10:00,UTC,7,1005.5,78,0,0,2.6,-0.9,50000,253,6.4,4.8
2020,3,6,11:00,UTC,6,1005.8,72,0,0,3.8,-0.8,50000,272,8,5.5
2020,3,6,12:00,UTC,7,1006.2,74,0,0,3.6,-0.7,50000,266,8,5.2
2020,3,6,13:00,UTC,0,1006.5,69,0,0,4.4,-0.8,50000,272,6.1,4.2
2020,3,6,14:00,UTC,0,1006.7,66,0,0,5.1,-0.7,50000,273,6.2,4.4
2020,3,6,15:00,UTC,2,1007.3,68,0,0,4.5,-0.8,50000,294,4.9,3.6
2020,3,6,16:00,UTC,4,1007.8,74,0,0,3.5,-0.7,50000,217,1.6,1
2020,3,6,17:00,UTC,0,1008.4,81,0,0,2,-0.9,50000,185,3.4,2.5
2020,3,6,18:00,UTC,0,1009,89,0,0,1.1,-0.5,50000,207,3.5,3.1
2020,3,6,19:00,UTC,0,1009.8,94,0,0,0.2,-0.6,50000,226,3,2.5
2020,3,6,20:00,UTC,0,1010.4,95,0,0,-0.1,-0.8,50000,208,1.6,1.2
2020,3,6,21:00,UTC,0,1010.9,97,0,0,-0.4,-0.9,43050,215,1.6,1.5
2020,3,6,22:00,UTC,0,1011.3,97,0,0,-1.4,-1.9,46010,202,1.2,0.8
2020,3,6,23:00,UTC,0,1011.7,99,0,0,-1.9,-2,13770,0,0.6,0
2020,3,7,00:00,UTC,0,1012,97,0,0,-2.6,-3,19310,171,2,1.4
2020,3,7,01:00,UTC,0,1012.3,98,0,0,-2.9,-3.2,11360,180,1.5,1
2020,3,7,02:00,UTC,4,1012.1,97,0,0,-3,-3.5,22890,102,1.4,1.1
2020,3,7,03:00,UTC,9,1012.1,99,0,0,-2.7,-2.8,240,90,2,1.4
2020,3,7,04:00,UTC,9,1012.2,99,0,0,-3.2,-3.2,610,86,2.5,1.8
2020,3,7,05:00,UTC,7,1012.7,97,0,0,-2.6,-3,10430,96,2.7,1.8
2020,3,7,06:00,UTC,7,1012.9,98,0,0,-1.6,-1.9,8810,76,3.1,1.9
2020,3,7,07:00,UTC,5,1013.1,97,0,0,-0.5,-0.9,20170,87,3,2.1
2020,3,7,08:00,UTC,0,1013.2,96,0,0,0.3,-0.2,47020,64,3.3,2.7
2020,3,7,09:00,UTC,2,1013.3,94,0,0,1.4,0.5,49500,80,3.1,2.3
2020,3,7,10:00,UTC,6,1013.4,89,0,0,2.6,0.9,50000,99,3.8,2.3
2020,3,7,11:00,UTC,7,1013.3,83,0,0,3.4,0.8,50000,109,4.8,2.9
2020,3,7,12:00,UTC,7,1013,79,0,0,4.1,0.8,33220,121,5.9,3.9
2020,3,7,13:00,UTC,3,1012.7,83,0,0,3.6,1,24430,119,4.4,3.5
2020,3,7,14:00,UTC,6,1012.5,81,0,0,3.5,0.7,50000,119,3.5,2.2
2020,3,7,15:00,UTC,4,1012.3,82,0,0,3.6,0.7,50000,41,1.5,0.9
2020,3,7,16:00,UTC,7,1012.7,83,0,0,3,0.4,50000,47,2.5,2.1
2020,3,7,17:00,UTC,8,1012.8,85,0,0,2.4,0.1,50000,44,1.9,1.4
2020,3,7,18:00,UTC,6,1013,91,0,0,1.1,-0.1,50000,64,2.4,2.2
2020,3,7,19:00,UTC,4,1013.3,91,0,0,0.9,-0.4,32180,72,3,2.5
2020,3,7,20:00,UTC,8,1013.4,94,0,0,0.4,-0.4,28090,107,1.8,1.1
2020,3,7,21:00,UTC,8,1013.3,93,0,0,0.6,-0.3,25590,96,1.2,0.7
2020,3,7,22:00,UTC,7,1013.3,96,0,0,-1.1,-1.7,18910,343,2.1,1.3
2020,3,7,23:00,UTC,0,1013.4,97,0,0,-1.8,-2.1,13600,336,2.4,1.3
2020,3,8,00:00,UTC,0,1013.4,98,0,0,-2.1,-2.4,11600,358,2.5,2.1
2020,3,8,01:00,UTC,0,1013.4,98,0,0,-2.5,-2.8,10270,320,2.7,2
2020,3,8,02:00,UTC,0,1013.6,98,0,0,-2.8,-3,10840,337,2.4,2
2020,3,8,03:00,UTC,0,1013.7,97,0,0,-3.5,-3.9,14160,356,2,1.5
2020,3,8,04:00,UTC,0,1013.8,96,0,0,-4,-4.6,20270,343,1.2,0.9
2020,3,8,05:00,UTC,0,1013.8,97,0,0,-4,-4.4,26110,328,2.8,1.5
2020,3,8,06:00,UTC,0,1014.2,96,0,0,-2.7,-3.3,16840,268,2.6,1.4
2020,3,8,07:00,UTC,0,1014.5,90,0,0,-0.1,-1.6,22410,188,0.9,0.5
2020,3,8,08:00,UTC,0,1014.5,86,0,0,1.5,-0.6,48700,136,2.7,2.2
2020,3,8,09:00,UTC,0,1014.4,75,0,0,3.3,-0.8,43640,186,4,2.7
2020,3,8,10:00,UTC,1,1014.7,71,0,0,3.9,-0.9,50000,198,5.3,3.8
2020,3,8,11:00,UTC,0,1014.6,70,0,0,4.1,-0.8,50000,184,6.4,4.6
2020,3,8,12:00,UTC,1,1014.2,77,0,0,3.5,-0.3,50000,185,7.6,5.5
2020,3,8,13:00,UTC,5,1013.9,77,0,0,3.2,-0.5,50000,183,7.3,5.3
2020,3,8,14:00,UTC,6,1013.8,83,0,0,2.4,-0.2,48060,185,6.2,4.5
2020,3,8,15:00,UTC,7,1013.6,82,0,0,2.6,-0.1,49660,180,5.3,3.9
2020,3,8,16:00,UTC,3,1013.5,92,0,0,1.7,0.5,16870,168,4.4,3.3
2020,3,8,17:00,UTC,1,1013.4,92,0,0,1.2,0.1,14950,148,5,3.7
2020,3,8,18:00,UTC,5,1013.2,91,0,0,1.5,0.2,23900,159,4.8,3.5
2020,3,8,19:00,UTC,0,1012.9,86,0,0,2.2,0.1,49380,183,6.6,4.5
2020,3,8,20:00,UTC,5,1012.5,81,0,0,2.7,-0.2,50000,192,9.6,7.2
2020,3,8,21:00,UTC,7,1012.3,82,0,0,2.6,-0.1,50000,197,9.7,7.1
2020,3,8,22:00,UTC,7,1012,83,0,0,2.6,0,50000,195,10.8,7.2
2020,3,8,23:00,UTC,5,1011.5,84,0,0,2.4,0,50000,190,9.8,7.5
2020,3,9,00:00,UTC,4,1011.2,83,0,0,2.3,-0.3,50000,192,9.6,6.9
2020,3,9,01:00,UTC,8,1010.6,85,0,0,2.6,0.3,50000,187,9.6,6.7
2020,3,9,02:00,UTC,8,1010.2,81,0,0,2.9,-0.1,50000,196,10.4,7.8
2020,3,9,03:00,UTC,8,1010.1,81,0,0,2.9,-0.1,50000,193,10.1,7.3
2020,3,9,04:00,UTC,8,1010,80,0,0,3,-0.2,50000,193,9.8,7
2020,3,9,05:00,UTC,8,1009.7,80,0,0,3.1,-0.1,50000,196,10.3,7.5
2020,3,9,06:00,UTC,8,1009.8,81,0,0,3.4,0.3,50000,198,9.8,7.3
2020,3,9,07:00,UTC,7,1010,78,0,0,4.5,1,50000,195,8.8,6.8
2020,3,9,08:00,UTC,7,1010.3,80,0,0,4.5,1.3,49520,197,9.8,7.4
2020,3,9,09:00,UTC,8,1010.5,81,0,0,4.5,1.4,45480,197,8.8,6.6
2020,3,9,10:00,UTC,8,1010.4,80,0,0,4.7,1.5,48100,193,8.2,6.3
2020,3,9,11:00,UTC,8,1010.4,80,0,0,4.8,1.7,40840,201,7.3,5.6
2020,3,9,12:00,UTC,8,1010.3,81,0,0,4.8,1.9,36020,204,7.4,5.3
2020,3,9,13:00,UTC,8,1010.3,80,0,0,5,1.9,28800,205,6.8,4.9
2020,3,9,14:00,UTC,8,1010.2,80,0,0,5.1,2,31490,200,6.6,5.1
2020,3,9,15:00,UTC,8,1010.1,80,0,0,4.9,1.8,25080,215,9.3,6.9
2020,3,9,16:00,UTC,8,1010.2,80,0,0,4.6,1.5,36440,212,6.8,5.3
2020,3,9,17:00,UTC,8,1010.1,81,0,0,4.4,1.4,22020,212,8.8,5.7
2020,3,9,18:00,UTC,8,1009.9,85,0,0,4.1,1.8,20730,203,8.3,6
2020,3,9,19:00,UTC,8,1009.8,88,0.1,0,3.8,2,16160,206,6.9,5.2
2020,3,9,20:00,UTC,8,1009.3,88,0.2,0,3.7,1.9,16970,202,7.2,5.3
2020,3,9,21:00,UTC,8,1009,90,0.4,0,3.4,2,17290,205,4.9,3.8
2020,3,9,22:00,UTC,8,1008.6,90,0.4,0,3.4,2,18300,190,8.4,5.6
2020,3,9,23:00,UTC,8,1008.1,94,0,0,3.2,2.3,11680,198,7.3,5.2
2020,3,10,00:00,UTC,8,1007.6,96,0.3,0,3.2,2.5,8060,196,6.6,4.9
2020,3,10,01:00,UTC,8,1006.9,96,0.5,0,3.1,2.6,7220,201,6.9,4.9
2020,3,10,02:00,UTC,8,1006.4,97,0.4,0,3.2,2.7,7040,199,6.8,5.2
2020,3,10,03:00,UTC,8,1005.9,96,0,0,3.2,2.5,8870,201,8,5.9
2020,3,10,04:00,UTC,8,1005.5,96,0,0,3.1,2.5,7170,194,7.7,5.7
2020,3,10,05:00,UTC,8,1005,96,0.3,0,3.1,2.6,6170,193,7.9,5.8
2020,3,10,06:00,UTC,8,1004.7,96,0.3,0,3.3,2.7,5670,194,8.2,6.1
2020,3,10,07:00,UTC,8,1004.2,95,0.1,0,3.3,2.6,6710,177,7.5,5.2
2020,3,10,08:00,UTC,8,1003.5,94,0.4,0,2.9,2.1,7870,158,6.3,4.8
2020,3,10,09:00,UTC,8,1002.8,94,0.3,0,3.1,2.2,8350,174,7.9,5
2020,3,10,10:00,UTC,8,1002.2,95,0.8,0,3.3,2.6,6960,188,9.2,6.8
2020,3,10,11:00,UTC,8,1001.8,97,0.7,0,3.6,3.1,4500,199,9.8,7.1
2020,3,10,12:00,UTC,8,1001.3,96,0.9,0,3.8,3.3,8190,198,10.7,7.9
2020,3,10,13:00,UTC,8,1000.8,99,0,0,3.9,3.7,2750,198,9.9,7.3
2020,3,10,14:00,UTC,8,1000.3,97,0,0,4.1,3.7,9780,199,10.4,7
2020,3,10,15:00,UTC,8,1000,95,0,0,4.3,3.7,31950,219,9.6,6.9
2020,3,10,16:00,UTC,8,1000.2,95,0,0,4.2,3.4,38900,221,9.7,6.5
2020,3,10,17:00,UTC,8,1000.4,96,0,0,3.9,3.4,13420,222,9.6,7
2020,3,10,18:00,UTC,8,1000.5,93,0,0,3.7,2.7,50000,234,8.2,6
2020,3,10,19:00,UTC,8,1000,94,0,0,3.8,2.9,19480,226,8.4,5.7
2020,3,10,20:00,UTC,8,999.5,94,0,0,3.8,2.9,24770,213,6.8,5
2020,3,10,21:00,UTC,8,999.1,95,0,0,3.1,2.4,37540,205,8.1,5.3
2020,3,10,22:00,UTC,7,998.4,95,0,0,2.5,1.7,20320,188,4.6,3.2
2020,3,10,23:00,UTC,8,997.6,92,0,0,2.9,1.7,25190,152,5.3,4.2
2020,3,11,00:00,UTC,7,996.5,95,0,0,2.7,2,16650,135,4.6,3.9
2020,3,11,01:00,UTC,8,995.4,95,0,0,3.2,2.5,11350,134,6.3,5
2020,3,11,02:00,UTC,8,994,96,0,0,3.3,2.7,10010,138,8.4,6.4
2020,3,11,03:00,UTC,8,992.7,94,0,0,3.3,2.4,11450,134,8.2,6.4
2020,3,11,04:00,UTC,8,991.6,94,0,0,3.3,2.4,9420,131,8.8,6.4
2020,3,11,05:00,UTC,8,990.3,95,0.1,0,3.1,2.4,7250,134,8.8,7.2
2020,3,11,06:00,UTC,8,988.9,96,0.7,0,3.1,2.5,5550,119,8.9,6.3
2020,3,11,07:00,UTC,8,987.8,96,0.6,0,2.9,2.4,4730,120,9.5,7
2020,3,11,08:00,UTC,8,986.5,96,1.1,0,2.9,2.3,5560,121,11.7,7.7
2020,3,11,09:00,UTC,8,985.3,95,1.6,0,3.1,2.3,6260,124,12.2,8.2
2020,3,11,10:00,UTC,8,984.3,93,1.3,0,3.1,2.1,8030,134,13.1,8.9
2020,3,11,11:00,UTC,8,983.4,93,1.9,0,2.9,1.9,7250,137,10.6,7.5
2020,3,11,12:00,UTC,8,982.6,94,1.2,0,2.8,2,10620,137,8.9,6.4
2020,3,11,13:00,UTC,8,981.9,93,0.8,0,3,2,16110,152,7,5
2020,3,11,14:00,UTC,8,981.5,93,1.3,0,2.8,1.7,20890,154,5.2,3.6
2020,3,11,15:00,UTC,8,981.2,97,0.2,0,2.9,2.5,6110,121,2.9,2.2
2020,3,11,16:00,UTC,8,981.3,95,0.3,0,2.9,2.3,23390,214,4.4,3.4
2020,3,11,17:00,UTC,8,981.4,97,0,0,2.7,2.3,50000,256,2.3,1.9
2020,3,11,18:00,UTC,8,981.8,98,0,0,2.7,2.4,18140,265,3,2.2
2020,3,11,19:00,UTC,8,982,99,0,0,2.4,2.2,3250,283,2.6,2.2
2020,3,11,20:00,UTC,8,982.4,99,0,0,2.2,2,7220,275,5.2,3.8
2020,3,11,21:00,UTC,7,983.1,94,0,0,1.9,1.1,34410,280,9,7.2
2020,3,11,22:00,UTC,8,983.7,93,0,0,1.9,0.9,50000,272,10.3,6.8
2020,3,11,23:00,UTC,8,984.1,93,0,0,2,0.9,50000,276,9.9,7.2
2020,3,12,00:00,UTC,8,984.6,93,0,0,2.4,1.4,42450,270,11.1,7.7
2020,3,12,01:00,UTC,8,984.9,94,0,0,2.5,1.5,24070,267,8.2,6.2
2020,3,12,02:00,UTC,8,985.1,92,0,0,2.6,1.4,50000,265,9.6,6.6
2020,3,12,03:00,UTC,8,985.3,88,0,0,2.4,0.7,50000,267,9.9,7.3
2020,3,12,04:00,UTC,8,985.4,92,0,0,2.3,1,50000,251,6.8,5.1
2020,3,12,05:00,UTC,8,985,92,0,0,2.6,1.3,50000,253,8.2,5.1
2020,3,12,06:00,UTC,7,984.8,90,0,0,2.8,1.3,50000,243,8.3,5.5
2020,3,12,07:00,UTC,8,984.4,92,0,0,2.9,1.8,17770,231,7.3,5.3
2020,3,12,08:00,UTC,8,983.7,92,0,0,3.7,2.5,10710,224,8.9,6.1
2020,3,12,09:00,UTC,8,983.1,91,0,0,4.5,3.1,21970,233,8.9,6.5
2020,3,12,10:00,UTC,7,982.7,83,0,0,4.8,2.1,13080,246,13.8,8.5
2020,3,12,11:00,UTC,1,982,68,0,0,6.9,1.4,50000,244,12.7,9.1
2020,3,12,12:00,UTC,5,981.4,58,0,0,7.6,-0.1,47770,224,11.8,8.4
2020,3,12,13:00,UTC,4,980.8,74,0,0,6.4,2,44070,206,10.5,8
2020,3,12,14:00,UTC,7,980.1,72,0,0,5.7,1.1,50000,214,11.7,8.4
2020,3,12,15:00,UTC,7,978.9,75,0,0,5.4,1.4,50000,225,6.6,5.1
2020,3,12,16:00,UTC,7,977.3,84,0,0,4.8,2.4,50000,150,5.2,4.1
2020,3,12,17:00,UTC,8,975.9,89,0,0,4.2,2.6,31300,124,6.8,5.1
2020,3,12,18:00,UTC,8,974.8,95,2.9,0,3.8,3.1,6100,125,5.3,3.3
2020,3,12,19:00,UTC,8,974,92,1.3,0,2.9,1.8,24200,153,7.2,5.1
2020,3,12,20:00,UTC,8,973.5,96,0,0,2.5,1.9,41140,71,2.7,2
2020,3,12,21:00,UTC,8,974,97,0.5,0,1.5,1.1,9770,23,3.7,2.9
2020,3,12,22:00,UTC,8,975.1,98,1.3,0,0.7,0.4,3200,336,5.2,4.3
2020,3,12,23:00,UTC,8,976.6,96,0.8,0,0.4,-0.1,1480,333,10.7,8.4
2020,3,13,00:00,UTC,8,978,95,0,0,0.7,0,50000,322,7,5.3
2020,3,13,01:00,UTC,7,979.3,95,0,0,0.8,0.1,50000,285,6.7,5.1
2020,3,13,02:00,UTC,7,980.3,92,0,0,0.9,-0.2,50000,292,10.2,7.7
2020,3,13,03:00,UTC,6,981.4,93,0,0,0.8,-0.3,50000,283,7.7,5.6
2020,3,13,04:00,UTC,7,982.1,94,0,0,0.6,-0.2,50000,256,8.9,5.8
2020,3,13,05:00,UTC,8,983.2,94,0,0,0.8,0,50000,264,8.8,5.6
2020,3,13,06:00,UTC,7,984.3,90,0,0,1.3,-0.2,50000,274,10.9,7.6
2020,3,13,07:00,UTC,8,985.5,89,0,0,1.5,-0.1,50000,284,10.5,7.9
2020,3,13,08:00,UTC,8,986.4,84,0,0,1.9,-0.4,50000,291,11.5,8.1
2020,3,13,09:00,UTC,7,987.1,83,0,0,2.8,0.2,50000,277,10.9,8.5
2020,3,13,10:00,UTC,7,988.4,82,0,0,2.9,0.2,50000,282,12.4,8
2020,3,13,11:00,UTC,7,989.8,65,0,0,2.6,-3.4,43170,295,12.8,10.4
2020,3,13,12:00,UTC,3,991.2,57,0,0,2.7,-4.9,50000,296,14.4,10.1
2020,3,13,13:00,UTC,7,992.5,57,0,0,2.3,-5.4,50000,306,12.3,8.6
2020,3,13,14:00,UTC,6,993.3,49,0,0,1.9,-7.7,50000,305,11.1,8.3
2020,3,13,15:00,UTC,1,994.2,46,0,0,1.7,-8.7,50000,294,13,10.4
2020,3,13,16:00,UTC,1,995,51,0,0,0.7,-8.3,50000,287,10.4,8
2020,3,13,17:00,UTC,1,996.1,56,0,0,-0.2,-7.9,50000,287,8.1,6.3
2020,3,13,18:00,UTC,0,996.9,56,0,0,-0.6,-8.3,50000,306,8.5,6.3
2020,3,13,19:00,UTC,5,998,56,0,0,-1.1,-8.9,50000,315,11.1,7.1
2020,3,13,20:00,UTC,6,999.3,65,0,0,-1.8,-7.5,50000,346,10.9,7.9
2020,3,13,21:00,UTC,4,1000.7,63,0,0,-2.5,-8.6,50000,349,9.5,6.8
2020,3,13,22:00,UTC,0,1001.4,61,0,0,-3,-9.4,50000,359,7.7,5
2020,3,13,23:00,UTC,0,1002.3,63,0,0,-3.5,-9.4,50000,324,6,4.3
2020,3,14,00:00,UTC,0,1002.9,66,0,0,-4,-9.4,50000,324,5.5,4.2
2020,3,14,01:00,UTC,0,1003.5,69,0,0,-4.6,-9.5,50000,315,4.6,3.2
2020,3,14,02:00,UTC,0,1004.4,72,0,0,-5.1,-9.4,50000,324,4.8,3.8
2020,3,14,03:00,UTC,0,1005.2,73,0,0,-5.5,-9.5,50000,322,3.5,2.9
2020,3,14,04:00,UTC,1,1006,78,0,0,-5.8,-9,50000,316,4.6,3.3
2020,3,14,05:00,UTC,6,1006.9,80,0,0,-5.4,-8.3,50000,312,5.7,4.2
2020,3,14,06:00,UTC,0,1007.9,74,0,0,-4.4,-8.3,50000,326,8.6,5.5
2020,3,14,07:00,UTC,0,1008.9,61,0,0,-3.5,-10,46230,329,9.2,6.6
2020,3,14,08:00,UTC,0,1009.6,47,0,0,-2.6,-12.3,37800,325,11,7.1
2020,3,14,09:00,UTC,0,1010.1,43,0,0,-2.1,-13,50000,317,11.4,7.6
2020,3,14,10:00,UTC,0,1010.7,38,0,0,-1,-13.5,50000,320,11.1,8
2020,3,14,11:00,UTC,1,1011.2,36,0,0,0,-13.4,50000,309,12.7,8.1
2020,3,14,12:00,UTC,6,1011.7,36,0,0,-0.4,-13.8,50000,319,13.8,8.2
2020,3,14,13:00,UTC,6,1012.4,34,0,0,-0.1,-14.2,50000,327,12.6,9.6
2020,3,14,14:00,UTC,6,1013.2,33,0,0,0.2,-14.1,50000,344,12,8.4
2020,3,14,15:00,UTC,0,1013.9,36,0,0,-0.3,-13.7,50000,336,11.2,8.4
2020,3,14,16:00,UTC,0,1014.6,36,0,0,-0.7,-14.1,50000,327,10,7.1
2020,3,14,17:00,UTC,0,1015.8,37,0,0,-1.3,-14.3,50000,321,7,5.3
2020,3,14,18:00,UTC,0,1016.7,40,0,0,-1.8,-13.7,50000,317,6.1,4.4
2020,3,14,19:00,UTC,0,1017.7,52,0,0,-3.2,-11.6,50000,290,4.8,4
2020,3,14,20:00,UTC,0,1018.3,59,0,0,-3.4,-10.4,50000,294,5.9,4.6
2020,3,14,21:00,UTC,0,1019.2,68,0,0,-4,-9.1,50000,278,5.8,4.3
2020,3,14,22:00,UTC,0,1019.6,72,0,0,-4.5,-8.7,50000,280,4.8,3.7
2020,3,14,23:00,UTC,0,1020,76,0,0,-5.1,-8.7,50000,265,3.6,2.8
2020,3,15,00:00,UTC,0,1019.9,85,0,0,-6.5,-8.6,50000,250,3.3,2.9
2020,3,15,01:00,UTC,0,1019.8,87,0,0,-6.8,-8.6,50000,245,2.2,2
2020,3,15,02:00,UTC,0,1019.7,86,0,0,-6.5,-8.4,50000,205,3.2,2.6
2020,3,15,03:00,UTC,0,1019.2,84,0,0,-5.4,-7.7,50000,202,5,4.3
2020,3,15,04:00,UTC,0,1018.7,83,0,0,-4.7,-7.1,50000,192,5.1,4.1
2020,3,15,05:00,UTC,0,1017.9,78,0,0,-2.7,-6.1,50000,199,6.6,5.3
2020,3,15,06:00,UTC,0,1017.5,70,0,0,-0.6,-5.3,50000,215,7.3,5.1
2020,3,15,07:00,UTC,0,1017,62,0,0,1.4,-5,50000,210,8.1,6.2
2020,3,15,08:00,UTC,0,1016.6,59,0,0,3,-4.1,50000,223,14.6,10.6
2020,3,15,09:00,UTC,0,1016.1,59,0,0,3.4,-3.9,50000,225,11.3,8.1
2020,3,15,10:00,UTC,0,1015.6,56,0,0,4.5,-3.6,50000,222,16.3,10.8
2020,3,15,11:00,UTC,0,1015.5,59,0,0,4,-3.3,50000,228,15.3,10.8
2020,3,15,12:00,UTC,4,1014.9,64,0,0,3.8,-2.5,50000,224,16.5,11.6
2020,3,15,13:00,UTC,6,1014.4,64,0,0,3.4,-2.7,50000,227,18.6,13.3
2020,3,15,14:00,UTC,5,1013.7,61,0,0,3.5,-3.2,50000,221,18.2,13.1
2020,3,15,15:00,UTC,1,1013.2,58,0,0,3.9,-3.6,50000,215,14.5,10.1
2020,3,15,16:00,UTC,1,1012,55,0,0,3.4,-4.8,50000,213,15.4,11
2020,3,15,17:00,UTC,1,1011.2,64,0,0,2.8,-3.4,50000,206,16.4,11.1
2020,3,15,18:00,UTC,8,1010.4,62,0,0,2.9,-3.7,50000,205,16.6,12.1
2020,3,15,19:00,UTC,8,1009.7,65,0,0,2.8,-3.2,48280,208,16.7,11.9
2020,3,15,20:00,UTC,8,1008.6,80,0,0,2.1,-1,17950,212,16.4,11.7
2020,3,15,21:00,UTC,8,1007.7,89,0,0,1.5,-0.1,11500,209,17.1,12.4
2020,3,15,22:00,UTC,8,1006.8,86,0,0,1.9,-0.1,11180,209,15.6,11.5
2020,3,15,23:00,UTC,8,1006.1,92,0.2,0,1.9,0.8,10370,210,14.7,10.2
2020,3,16,00:00,UTC,8,1005.3,88,0,0,3.5,1.7,24510,216,15.2,10.2
2020,3,16,01:00,UTC,8,1004.6,87,0,0,3.9,2,23770,220,17.2,10.4
2020,3,16,02:00,UTC,8,1004.1,91,1.1,0,3.5,2.2,8840,223,15.3,10.8
2020,3,16,03:00,UTC,8,1003.4,92,0,0,3.8,2.5,10710,223,14.1,10
2020,3,16,04:00,UTC,8,1003.4,93,0.2,0,3.6,2.5,11400,225,13.2,9.6
2020,3,16,05:00,UTC,8,1003.6,94,0.6,0,3.9,3,10970,227,11.9,8.1
2020,3,16,06:00,UTC,8,1003.8,95,0.3,0,4,3.2,12900,224,10.4,7.3
2020,3,16,07:00,UTC,8,1004.3,95,0,0,4.2,3.5,13600,226,9.9,6.6
2020,3,16,08:00,UTC,8,1005.1,96,0,0,4.3,3.7,16130,229,7.2,5.4
2020,3,16,09:00,UTC,8,1005.7,97,0,0,4.4,4,10940,232,7.7,5.6
2020,3,16,10:00,UTC,8,1006.4,97,0,0,4.5,4.1,15870,240,5.4,3.8
2020,3,16,11:00,UTC,8,1006.9,78,0,0,4.9,1.4,50000,312,8.7,5.2
2020,3,16,12:00,UTC,7,1007.7,74,0,0,4.8,0.6,50000,298,5.6,4.4
2020,3,16,13:00,UTC,7,1008.5,67,0,0,4.9,-0.8,50000,341,8.6,6.3
2020,3,16,14:00,UTC,1,1009.6,59,0,0,5.2,-2.2,50000,348,7.6,5.7
2020,3,16,15:00,UTC,1,1010.7,56,0,0,4.7,-3.3,43910,347,7.9,5.3
2020,3,16,16:00,UTC,3,1011.9,49,0,0,3.7,-6,50000,355,8.6,6.3
2020,3,16,17:00,UTC,0,1013.4,59,0,0,1.6,-5.5,50000,346,5,4
2020,3,16,18:00,UTC,0,1015,67,0,0,0.2,-5.3,50000,345,3.9,3.2
2020,3,16,19:00,UTC,0,1015.9,66,0,0,-0.1,-5.7,50000,352,3.7,3.2
2020,3,16,20:00,UTC,0,1017.2,70,0,0,-0.8,-5.7,50000,341,4.9,3.9
2020,3,16,21:00,UTC,0,1018.2,68,0,0,-1.1,-6.3,50000,355,4.8,3.9
2020,3,16,22:00,UTC,0,1018.8,75,0,0,-2.5,-6.3,50000,349,3.6,3.1
2020,3,16,23:00,UTC,0,1019.5,77,0,0,-2.7,-6.1,50000,3,2.8,2.2
2020,3,17,00:00,UTC,0,1020.2,82,0,0,-3.4,-6.1,50000,329,3,2.2
2020,3,17,01:00,UTC,0,1020.1,90,0,0,-4.7,-6.1,50000,274,1.9,1.4
2020,3,17,02:00,UTC,0,1020.1,89,0,0,-5,-6.4,42580,0,0.7,0
2020,3,17,03:00,UTC,2,1020.3,91,0,0,-5.2,-6.5,50000,164,1.2,0.9
2020,3,17,04:00,UTC,1,1020.2,90,0,0,-5.4,-6.8,50000,159,2.5,1.6
2020,3,17,05:00,UTC,0,1020.3,90,0,0,-5.5,-6.9,50000,136,4.1,2.6
2020,3,17,06:00,UTC,0,1020,80,0,0,-1,-4,50000,159,5.9,4.4
2020,3,17,07:00,UTC,0,1019.7,74,0,0,0.9,-3.2,50000,167,5.5,4.1
2020,3,17,08:00,UTC,5,1019.3,67,0,0,2.4,-3,50000,198,10.1,7.5
2020,3,17,09:00,UTC,0,1018.1,62,0,0,3.2,-3.4,50000,200,11.3,8.5
2020,3,17,10:00,UTC,7,1017.2,69,0,0,3,-2.3,50000,195,12.7,8.4
2020,3,17,11:00,UTC,8,1016.5,70,0,0,2.8,-2.2,21770,198,12.8,9
2020,3,17,12:00,UTC,8,1015.6,73,0,0,3.1,-1.3,50000,199,12,8.2
2020,3,17,13:00,UTC,8,1014.7,84,0,0,3.1,0.5,49890,216,15.4,10.1
2020,3,17,14:00,UTC,8,1013.7,93,0.4,0,3,2,8200,217,13.4,8.8
2020,3,17,15:00,UTC,8,1012.5,89,0,0,3.8,2.3,41520,216,12.3,9.4
2020,3,17,16:00,UTC,8,1012.2,84,0,0,4,1.5,50000,234,10.9,7.8
2020,3,17,17:00,UTC,8,1012.2,86,0,0,4,1.9,21470,232,10.9,7.3
2020,3,17,18:00,UTC,8,1012,89,0,0,4,2.3,16850,222,9.9,7.1
2020,3,17,19:00,UTC,8,1012.1,90,0,0,3.9,2.4,24360,225,10.3,7
2020,3,17,20:00,UTC,8,1011.9,87,0,0,4.1,2.2,50000,219,7.8,6.1
2020,3,17,21:00,UTC,8,1012,88,0,0,4.1,2.3,50000,222,9.3,6.1
2020,3,17,22:00,UTC,8,1011.9,87,0,0,4.4,2.4,44600,222,8.8,6.5
2020,3,17,23:00,UTC,8,1011.6,87,0,0,4.6,2.6,50000,225,7.3,5.1
2020,3,18,00:00,UTC,8,1010.9,89,0,0,4.1,2.5,45580,219,7.2,5.1
2020,3,18,01:00,UTC,8,1010.5,91,0,0,4,2.7,39970,220,7.9,5
2020,3,18,02:00,UTC,8,1010.4,91,0,0,4.3,2.9,36620,236,6.9,4.8
2020,3,18,03:00,UTC,8,1009.8,91,0,0,4.5,3.1,30400,227,7.7,5.7
2020,3,18,04:00,UTC,8,1009.4,90,0,0,4.5,3.1,38380,238,6.3,4.7
2020,3,18,05:00,UTC,8,1009,90,0,0,4.8,3.2,32250,238,6,4.7
2020,3,18,06:00,UTC,8,1008.5,87,0,0,5,3,32100,240,8.3,4.8
2020,3,18,07:00,UTC,8,1008.4,86,0,0,5.3,3,30490,234,7.8,5.5
2020,3,18,08:00,UTC,7,1008.1,81,0,0,6.2,3.1,30980,235,7.9,5.6
2020,3,18,09:00,UTC,7,1007.5,79,0,0,6.4,2.9,33290,230,8.7,6.3
2020,3,18,10:00,UTC,5,1007,79,0,0,6.3,3,34450,222,8.9,6.7
2020,3,18,11:00,UTC,8,1006.4,91,0,0,5.6,4.1,15610,213,7.9,5.4
2020,3,18,12:00,UTC,7,1005.2,83,0,0,6.2,3.5,39320,223,8.6,6.2
2020,3,18,13:00,UTC,8,1004.4,85,0,0,5.7,3.4,30350,229,7.7,5.2
2020,3,18,14:00,UTC,8,1003.8,92,0.9,0,4.7,3.5,16520,214,7.3,5.6
2020,3,18,15:00,UTC,8,1002.8,93,0,0,4.3,3.3,50000,221,6.4,4.3
2020,3,18,16:00,UTC,8,1002.2,94,0,0,4,3.1,50000,234,4.8,3.3
2020,3,18,17:00,UTC,8,1002,97,0.4,0,3.5,3.1,27200,244,2.9,2.5
2020,3,18,18:00,UTC,8,1002.3,96,0,0,3.7,3.1,50000,266,4.4,3.4
2020,3,18,19:00,UTC,8,1002.4,95,0,0,3.4,2.6,50000,263,4.9,3.5
2020,3,18,20:00,UTC,8,1002.8,96,0,0,3.2,2.7,45630,259,5,3.3
2020,3,18,21:00,UTC,8,1002.7,95,0,0,3.2,2.5,44230,259,5.8,4
2020,3,18,22:00,UTC,8,1003.1,98,0,0,3.1,2.7,3980,264,5,3.7
2020,3,18,23:00,UTC,8,1004.2,92,0,0,2.9,1.7,32570,292,11.2,8.5
2020,3,19,00:00,UTC,7,1005.6,90,0,0,2.3,0.8,50000,299,11.5,8.8
2020,3,19,01:00,UTC,7,1006.5,91,0,0,1.8,0.4,50000,285,7.2,5.3
2020,3,19,02:00,UTC,4,1006.8,92,0,0,1.1,0,50000,271,6.7,4.8
2020,3,19,03:00,UTC,7,1006.9,95,0,0,1,0.3,50000,262,6.7,4.7
2020,3,19,04:00,UTC,8,1007,95,0,0,1.2,0.4,50000,255,5.6,3.8
2020,3,19,05:00,UTC,6,1007.3,97,0,0,0.2,-0.3,50000,241,3.8,2.7
2020,3,19,06:00,UTC,0,1007.3,90,0,0,1.7,0.3,50000,248,4.7,3.3
2020,3,19,07:00,UTC,0,1007.5,79,0,0,3.2,0,50000,268,6.4,4.8
2020,3,19,08:00,UTC,0,1007.9,72,0,0,4.4,-0.2,50000,279,6.5,4.5
2020,3,19,09:00,UTC,0,1008.2,65,0,0,5.6,-0.4,50000,264,7,5.2
2020,3,19,10:00,UTC,0,1008.5,56,0,0,6.7,-1.6,50000,255,7.6,5.3
2020,3,19,11:00,UTC,0,1008.8,52,0,0,7.4,-1.7,50000,278,8.5,6.2
2020,3,19,12:00,UTC,3,1009.1,51,0,0,7.3,-2.2,50000,265,9.9,7.1
2020,3,19,13:00,UTC,7,1009.3,47,0,0,7.2,-3.3,50000,260,11,7.7
2020,3,19,14:00,UTC,8,1009.6,52,0,0,6.9,-2.2,50000,276,11,7.7
2020,3,19,15:00,UTC,8,1010.1,57,0,0,6.1,-1.7,50000,293,11.4,7.7
2020,3,19,16:00,UTC,8,1010.9,60,0,0,5.6,-1.6,50000,295,11.1,7.8
2020,3,19,17:00,UTC,7,1011.8,67,0,0,4.8,-0.9,50000,295,9.2,7.2
2020,3,19,18:00,UTC,5,1012.5,66,0,0,4.6,-1.2,38830,300,9.3,7.2
2020,3,19,19:00,UTC,7,1013.1,71,0,0,3.8,-1,50000,290,6.7,5.4
2020,3,19,20:00,UTC,2,1013.8,76,0,0,2.6,-1.2,50000,275,5.2,4.1
2020,3,19,21:00,UTC,0,1014.3,78,0,0,1.9,-1.5,50000,269,5.7,4.1
2020,3,19,22:00,UTC,0,1015.1,81,0,0,1.2,-1.8,50000,266,6.1,4.8
2020,3,19,23:00,UTC,0,1015.5,83,0,0,0.3,-2.3,50000,271,4.9,4.1
2020,3,20,00:00,UTC,0,1015.9,85,0,0,-0.2,-2.5,50000,268,4.8,4.1
2020,3,20,01:00,UTC,0,1016.1,86,0,0,-0.8,-2.8,50000,287,3.8,3.2
2020,3,20,02:00,UTC,0,1016.4,85,0,0,-0.5,-2.8,50000,314,4.4,3.4
2020,3,20,03:00,UTC,8,1017.1,95,0,0,-0.7,-1.4,7840,335,3.4,2.8
2020,3,20,04:00,UTC,7,1017.8,95,0,0,-0.7,-1.4,50000,350,4.4,3.3
2020,3,20,05:00,UTC,7,1018.5,86,0,0,-0.3,-2.4,50000,353,5.1,3.4
2020,3,20,06:00,UTC,1,1019.2,77,0,0,-0.2,-3.8,50000,5,6,4.2
2020,3,20,07:00,UTC,2,1020.1,65,0,0,0.7,-5.2,50000,18,7.9,5.5
2020,3,20,08:00,UTC,0,1020.5,58,0,0,1.1,-6.4,50000,17,7.3,5.4
2020,3,20,09:00,UTC,2,1020.9,53,0,0,1.7,-6.9,50000,15,7.1,4.6
2020,3,20,10:00,UTC,0,1021.3,49,0,0,2.2,-7.5,50000,357,8,5.4
2020,3,20,11:00,UTC,0,1021.8,45,0,0,2.4,-8.4,50000,7,8.5,5.3
2020,3,20,12:00,UTC,0,1022.1,41,0,0,2.4,-9.7,50000,17,8,4.2
2020,3,20,13:00,UTC,0,1022.4,41,0,0,2.5,-9.5,50000,347,7.7,4.6
2020,3,20,14:00,UTC,0,1022.6,35,0,0,2.5,-11.4,50000,345,8.7,6.3
2020,3,20,15:00,UTC,0,1022.9,37,0,0,1.6,-11.5,50000,4,8.5,6.1
2020,3,20,16:00,UTC,0,1023.3,41,0,0,0.8,-11.1,50000,355,8.1,5.8
2020,3,20,17:00,UTC,0,1024,44,0,0,-0.8,-11.6,50000,358,5.9,4.6
2020,3,20,18:00,UTC,0,1024.8,50,0,0,-2,-11.1,50000,14,3.3,2.2
2020,3,20,19:00,UTC,0,1025.4,45,0,0,-2.4,-12.7,50000,11,5.2,3.7
2020,3,20,20:00,UTC,0,1025.8,45,0,0,-3,-13.4,50000,358,4.7,3.2
2020,3,20,21:00,UTC,0,1026.2,49,0,0,-3.6,-12.6,50000,332,3.6,2.8
2020,3,20,22:00,UTC,0,1026.8,53,0,0,-4.2,-12.3,50000,344,3.7,3.1
2020,3,20,23:00,UTC,0,1026.9,55,0,0,-4.6,-12.4,50000,316,2.7,2.3
2020,3,21,00:00,UTC,0,1027,57,0,0,-5.1,-12.2,50000,308,3.2,2.9
2020,3,21,01:00,UTC,0,1027,67,0,0,-5.9,-11.1,50000,292,4.4,3.7
2020,3,21,02:00,UTC,0,1027.1,72,0,0,-6.8,-11,50000,265,2.8,1.5
2020,3,21,03:00,UTC,0,1027.1,75,0,0,-7.2,-10.9,50000,269,2.2,0.9
2020,3,21,04:00,UTC,3,1027,77,0,0,-6.9,-10.2,50000,273,2.7,1.8
2020,3,21,05:00,UTC,1,1027.1,74,0,0,-6.3,-10.2,50000,260,1.9,0.9
2020,3,21,06:00,UTC,7,1027.2,73,0,0,-3.9,-8,7530,268,2,1.2
2020,3,21,07:00,UTC,7,1027.3,82,0,0,-2.8,-5.5,11880,276,3.7,2.7
2020,3,21,08:00,UTC,7,1027.8,84,0,0,-2.4,-4.7,44490,284,3.4,2.2
2020,3,21,09:00,UTC,2,1028.2,74,0,0,-0.3,-4.3,50000,342,4.2,2.9
2020,3,21,10:00,UTC,5,1028.5,64,0,0,0.8,-5.3,50000,343,7,5.1
2020,3,21,11:00,UTC,7,1029.5,73,0,0,-0.1,-4.3,50000,356,6.6,4.9
2020,3,21,12:00,UTC,4,1029.8,57,0,0,1.4,-6.3,44140,80,4.7,1.7
2020,3,21,13:00,UTC,6,1030.6,59,0,0,0.9,-6.2,40040,61,12.5,9.4
2020,3,21,14:00,UTC,2,1031,48,0,0,1.8,-8.1,50000,12,7.8,4
2020,3,21,15:00,UTC,3,1031.7,44,0,0,2,-9,50000,26,7.9,5.5
2020,3,21,16:00,UTC,0,1032.6,36,0,0,1.3,-12.4,50000,32,5.6,4
2020,3,21,17:00,UTC,0,1033.6,42,0,0,-0.2,-11.7,50000,33,4.7,3.5
2020,3,21,18:00,UTC,0,1034.6,51,0,0,-1.5,-10.4,50000,349,4.9,3.9
2020,3,21,19:00,UTC,0,1035.4,47,0,0,-1.8,-11.5,50000,1,3.7,3.3
2020,3,21,20:00,UTC,0,1036,50,0,0,-2.2,-11.3,50000,3,4.4,3.9
2020,3,21,21:00,UTC,0,1036.8,54,0,0,-3.2,-11.1,50000,356,4.2,3.9
2020,3,21,22:00,UTC,0,1037.4,60,0,0,-4.2,-10.7,50000,350,4,3.7
2020,3,21,23:00,UTC,0,1037.9,52,0,0,-3.8,-12.2,50000,5,3.8,3.2
2020,3,22,00:00,UTC,0,1038.4,55,0,0,-4.6,-12.3,50000,13,3.7,3.4
2020,3,22,01:00,UTC,0,1038.8,57,0,0,-5.3,-12.4,50000,15,3.1,2.3
2020,3,22,02:00,UTC,0,1039.4,57,0,0,-5.8,-12.9,50000,31,3.1,2.5
2020,3,22,03:00,UTC,0,1039.8,61,0,0,-6.2,-12.6,50000,17,2.7,2.2
2020,3,22,04:00,UTC,0,1040.4,67,0,0,-6.8,-11.9,50000,357,2.8,2.1
2020,3,22,05:00,UTC,0,1040.8,64,0,0,-6.7,-12.3,50000,15,2.1,1.5
2020,3,22,06:00,UTC,0,1041.2,58,0,0,-4.7,-11.8,50000,355,1.8,1
2020,3,22,07:00,UTC,0,1041.6,47,0,0,-1.5,-11.3,50000,97,1.4,0.8
2020,3,22,08:00,UTC,0,1041.8,36,0,0,0.2,-13,50000,194,1.8,0.9
2020,3,22,09:00,UTC,0,1041.7,29,0,0,0.9,-15,50000,184,1.9,0.8
2020,3,22,10:00,UTC,0,1041.4,26,0,0,1.4,-15.9,50000,4,1.5,0.9
2020,3,22,11:00,UTC,0,1041.3,28,0,0,2.2,-14.4,50000,94,2.5,1.4
2020,3,22,12:00,UTC,0,1041,35,0,0,2.3,-11.6,50000,157,6.3,2.9
2020,3,22,13:00,UTC,0,1040.7,34,0,0,2,-12.1,50000,184,6.2,4.8
2020,3,22,14:00,UTC,0,1040.6,40,0,0,1.2,-11,50000,198,6.9,5
2020,3,22,15:00,UTC,0,1040.3,42,0,0,0.6,-10.7,50000,197,6.2,4.9
2020,3,22,16:00,UTC,0,1040.1,49,0,0,-0.2,-9.7,50000,184,6.4,4.9
2020,3,22,17:00,UTC,0,1040.2,55,0,0,-1.2,-9.1,50000,194,5.2,4
2020,3,22,18:00,UTC,0,1040.1,58,0,0,-1.3,-8.5,50000,191,4.7,3.5
2020,3,22,19:00,UTC,0,1040.3,61,0,0,-1.7,-8.3,50000,195,4.2,3.3
2020,3,22,20:00,UTC,0,1040.3,64,0,0,-1.8,-7.8,50000,203,4.7,4
2020,3,22,21:00,UTC,0,1040.4,67,0,0,-2.2,-7.6,50000,204,3.5,3.1
2020,3,22,22:00,UTC,0,1040.2,70,0,0,-2.7,-7.4,50000,210,4,3.7
2020,3,22,23:00,UTC,0,1040.3,69,0,0,-2.9,-7.8,50000,205,3.9,3.7
2020,3,23,00:00,UTC,0,1040.2,69,0,0,-3,-7.9,50000,200,4.5,4.1
2020,3,23,01:00,UTC,0,1040.3,74,0,0,-4,-7.9,50000,211,3.5,3.2
2020,3,23,02:00,UTC,0,1040,76,0,0,-3.3,-7,50000,204,4.5,3.9
2020,3,23,03:00,UTC,1,1039.9,74,0,0,-2.9,-6.9,50000,204,4.9,4.3
2020,3,23,04:00,UTC,1,1039.8,73,0,0,-2.4,-6.7,50000,200,5.9,5
2020,3,23,05:00,UTC,0,1039.8,75,0,0,-1.2,-5.2,50000,197,6.6,5.3
2020,3,23,06:00,UTC,0,1039.7,70,0,0,0.6,-4.3,50000,208,7.4,5.5
2020,3,23,07:00,UTC,0,1039.6,66,0,0,1.7,-4.1,50000,209,9.7,6.8
2020,3,23,08:00,UTC,7,1039.4,65,0,0,2.1,-3.8,50000,209,8.8,5.9
2020,3,23,09:00,UTC,3,1039.1,65,0,0,2.5,-3.3,50000,219,8.9,6.5
2020,3,23,10:00,UTC,7,1038.9,60,0,0,3,-4.1,50000,217,10.5,8.1
2020,3,23,11:00,UTC,7,1038.4,61,0,0,3.4,-3.3,50000,217,11.1,8.5
2020,3,23,12:00,UTC,6,1037.9,60,0,0,3.7,-3.4,50000,224,11.1,8.2
2020,3,23,13:00,UTC,7,1037.3,61,0,0,4.1,-2.7,50000,223,12.7,8.4
2020,3,23,14:00,UTC,7,1036.8,66,0,0,3.2,-2.6,50000,223,12.8,8.6
2020,3,23,15:00,UTC,2,1036.3,66,0,0,3,-2.7,50000,217,11.3,8.2
2020,3,23,16:00,UTC,7,1035.9,73,0,0,2.4,-2,50000,225,11.1,6.9
2020,3,23,17:00,UTC,7,1035.9,77,0,0,2.1,-1.5,50000,221,10.2,7.5
2020,3,23,18:00,UTC,7,1035.5,78,0,0,1.9,-1.4,50000,218,7.1,5.2
2020,3,23,19:00,UTC,6,1035.2,80,0,0,1.6,-1.4,50000,218,8.9,6.4
2020,3,23,20:00,UTC,7,1034.8,80,0,0,1.8,-1.3,50000,210,8.7,5.8
2020,3,23,21:00,UTC,7,1034.1,80,0,0,1.6,-1.6,50000,213,9.4,6.9
2020,3,23,22:00,UTC,7,1033.8,80,0,0,1.7,-1.4,50000,214,10.1,7.3
2020,3,23,23:00,UTC,7,1033.5,80,0,0,1.9,-1.3,50000,211,9.8,6.3
2020,3,24,00:00,UTC,7,1033.1,82,0,0,1.9,-1,50000,212,10.1,6.7
2020,3,24,01:00,UTC,7,1032.7,79,0,0,1.9,-1.4,50000,218,9.1,6.5
2020,3,24,02:00,UTC,7,1032.1,79,0,0,2.1,-1.3,50000,217,11.6,8
2020,3,24,03:00,UTC,7,1031.7,81,0,0,1.8,-1.1,50000,220,11.3,6.7
2020,3,24,04:00,UTC,7,1031.2,82,0,0,2.1,-0.7,50000,221,10.5,7.3
2020,3,24,05:00,UTC,7,1030.7,82,0,0,2.3,-0.4,50000,226,11.8,8.1
2020,3,24,06:00,UTC,7,1029.8,75,0,0,2.8,-1.2,50000,227,12.2,9.2
2020,3,24,07:00,UTC,4,1029.8,75,0,0,2.6,-1.4,50000,236,9.9,7.1
2020,3,24,08:00,UTC,0,1029.4,63,0,0,4.5,-1.9,50000,233,12.8,9.8
2020,3,24,09:00,UTC,0,1029.2,55,0,0,6.1,-2.3,48720,241,11.5,8.5
2020,3,24,10:00,UTC,0,1028.9,50,0,0,7.2,-2.5,47160,232,10.3,7.5
2020,3,24,11:00,UTC,0,1028.5,43,0,0,7.8,-4,50000,237,14.1,9.8
2020,3,24,12:00,UTC,0,1028.3,52,0,0,7.6,-1.7,41960,228,11.5,8.4
2020,3,24,13:00,UTC,0,1028.5,61,0,0,5.7,-1.4,49630,218,11.6,8.6
2020,3,24,14:00,UTC,0,1028.5,63,0,0,5,-1.5,50000,231,13.3,9.3
2020,3,24,15:00,UTC,0,1027.9,70,0,0,4,-1,50000,227,12.6,9.3
2020,3,24,16:00,UTC,0,1027.6,74,0,0,3.6,-0.7,48070,224,12.5,9.4
2020,3,24,17:00,UTC,0,1027.7,78,0,0,2.7,-0.8,50000,234,12.8,9
2020,3,24,18:00,UTC,4,1027.3,76,0,0,2.6,-1.2,47500,230,13.3,8.5
2020,3,24,19:00,UTC,7,1027.2,72,0,0,2.8,-1.7,50000,234,11.3,8.2
2020,3,24,20:00,UTC,4,1026.7,73,0,0,2.6,-1.7,50000,233,11,7.5
2020,3,24,21:00,UTC,5,1026.4,71,0,0,3,-1.7,50000,230,10.9,7.3
2020,3,24,22:00,UTC,1,1026,74,0,0,3,-1.1,50000,225,8.1,6.1
2020,3,24,23:00,UTC,0,1025.4,79,0,0,2.9,-0.4,50000,222,9.6,7.1
2020,3,25,00:00,UTC,6,1024.9,79,0,0,3.2,0,50000,221,10,7.1
2020,3,25,01:00,UTC,7,1024.5,78,0,0,3.3,-0.2,50000,215,10,7.3
2020,3,25,02:00,UTC,4,1024,78,0,0,3.4,-0.2,46810,221,11.3,7.6
2020,3,25,03:00,UTC,6,1024,76,0,0,3.1,-0.8,50000,225,9.6,6.8
2020,3,25,04:00,UTC,5,1023.7,71,0,0,3.3,-1.4,50000,222,9.6,7.4
2020,3,25,05:00,UTC,0,1023.8,70,0,0,3.9,-1,50000,225,12.1,9.1
2020,3,25,06:00,UTC,0,1023.9,61,0,0,5.4,-1.7,49730,237,14.4,9.9
2020,3,25,07:00,UTC,0,1023.8,51,0,0,6.8,-2.6,50000,237,14.1,9.8
2020,3,25,08:00,UTC,0,1023.7,46,0,0,8.2,-2.8,47130,233,15.8,10.7
2020,3,25,09:00,UTC,0,1023.4,43,0,0,9.2,-2.9,44910,233,16.9,11.4
2020,3,25,10:00,UTC,0,1023.4,50,0,0,8.7,-1.1,38820,231,16.5,10.9
2020,3,25,11:00,UTC,0,1023.5,52,0,0,8.6,-0.7,41480,226,15.7,11
2020,3,25,12:00,UTC,0,1023.5,51,0,0,8.4,-1,46060,225,13.3,9.5
2020,3,25,13:00,UTC,0,1023.5,53,0,0,8.4,-0.8,39280,223,12.6,9.4
2020,3,25,14:00,UTC,0,1023.6,52,0,0,8,-1.3,39990,225,14.1,10.1
2020,3,25,15:00,UTC,0,1023.4,53,0,0,7.1,-1.9,39260,228,14.7,9.9
2020,3,25,16:00,UTC,0,1023.6,56,0,0,6,-2,41180,232,12.3,9.3
2020,3,25,17:00,UTC,0,1024.2,57,0,0,4.9,-2.8,50000,235,9.6,6.8
2020,3,25,18:00,UTC,0,1024.9,58,0,0,4.4,-3.2,50000,239,9.4,6
2020,3,25,19:00,UTC,0,1024.9,61,0,0,4.3,-2.6,49360,237,8.8,6
2020,3,25,20:00,UTC,0,1024.9,62,0,0,4.2,-2.5,50000,236,10,6.2
2020,3,25,21:00,UTC,0,1025.4,63,0,0,4.2,-2.2,50000,237,6.6,5.1
2020,3,25,22:00,UTC,0,1026,64,0,0,3.9,-2.4,50000,242,7,4.7
2020,3,25,23:00,UTC,0,1026.2,67,0,0,3.3,-2.3,48010,231,4.8,3.6
2020,3,26,00:00,UTC,0,1026.3,71,0,0,2.9,-1.8,50000,228,5.9,4.5
2020,3,26,01:00,UTC,1,1026.5,74,0,0,2.6,-1.6,48690,241,6.5,4.8
2020,3,26,02:00,UTC,1,1026.8,75,0,0,2.5,-1.5,47800,243,5.9,4.6
2020,3,26,03:00,UTC,1,1027.2,78,0,0,2,-1.5,42710,236,5.2,4.3
2020,3,26,04:00,UTC,7,1027.5,78,0,0,2.6,-0.9,41790,239,6,4.2
2020,3,26,05:00,UTC,7,1028.1,79,0,0,2.8,-0.6,36580,239,5.6,4.2
2020,3,26,06:00,UTC,3,1028.4,77,0,0,3.1,-0.5,39270,250,5.3,3.5
2020,3,26,07:00,UTC,0,1028.9,64,0,0,5.4,-1,44460,230,7,4.9
2020,3,26,08:00,UTC,3,1029.1,56,0,0,6.8,-1.4,43730,229,5.8,4.2
2020,3,26,09:00,UTC,0,1029.1,50,0,0,8.4,-1.5,44400,223,6.7,4.8
2020,3,26,10:00,UTC,0,1029,48,0,0,9.7,-0.7,40360,237,8.3,5.5
2020,3,26,11:00,UTC,0,1029.1,49,0,0,10.3,0,31480,232,10.1,7.3
2020,3,26,12:00,UTC,0,1029.2,56,0,0,9.8,1.3,32810,221,10.7,7.2
2020,3,26,13:00,UTC,0,1029.5,58,0,0,9.6,1.8,38600,223,11,7.9
2020,3,26,14:00,UTC,0,1029.5,45,0,0,9.2,-2.2,39220,234,12.3,8.8
2020,3,26,15:00,UTC,0,1029.7,46,0,0,8.3,-2.5,50000,232,11,8.2
2020,3,26,16:00,UTC,0,1029.9,59,0,0,6.4,-1,41910,228,8.7,6.1
2020,3,26,17:00,UTC,1,1030.2,67,0,0,4.8,-0.8,39700,221,6.9,5.3
2020,3,26,18:00,UTC,0,1030.8,79,0,0,3.3,-0.1,24690,231,7.5,5.7
2020,3,26,19:00,UTC,0,1030.9,79,0,0,2.7,-0.5,23850,230,6.1,5
2020,3,26,20:00,UTC,0,1031.6,77,0,0,2.2,-1.4,30780,235,7,5.1
2020,3,26,21:00,UTC,0,1031.9,83,0,0,1.1,-1.5,24460,242,4.3,3.2
2020,3,26,22:00,UTC,0,1032,90,0,0,0.2,-1.3,12070,236,4.8,3.5
2020,3,26,23:00,UTC,0,1031.9,92,0,0,0,-1.1,8570,227,4.6,4.1
2020,3,27,00:00,UTC,0,1031.9,94,0,0,-0.4,-1.2,7000,213,4.8,4.3
2020,3,27,01:00,UTC,0,1032,94,0,0,-0.7,-1.5,6630,237,4.2,3.2
2020,3,27,02:00,UTC,0,1031.8,94,0,0,-0.8,-1.6,7530,222,3.3,2.5
2020,3,27,03:00,UTC,0,1031.8,92,0,0,-1.1,-2.3,10060,224,3.3,2.7
2020,3,27,04:00,UTC,0,1031.5,94,0,0,-0.9,-1.8,9230,206,4.2,3.7
2020,3,27,05:00,UTC,0,1031.6,96,0,0,-0.1,-0.6,4680,213,3.7,2.3
2020,3,27,06:00,UTC,0,1031.6,89,0,0,2.3,0.7,10340,224,4.5,3.2
2020,3,27,07:00,UTC,0,1031.6,72,0,0,4.4,-0.3,32520,225,7.5,5.7
2020,3,27,08:00,UTC,0,1031.3,62,0,0,5.9,-0.8,39820,218,7.1,5
2020,3,27,09:00,UTC,0,1031.1,53,0,0,7.4,-1.5,36110,201,7.3,5.7
2020,3,27,10:00,UTC,0,1030.8,50,0,0,7.1,-2.7,48380,217,8.4,6.3
2020,3,27,11:00,UTC,0,1030.6,44,0,0,8,-3.5,50000,217,9.1,7
2020,3,27,12:00,UTC,0,1030,43,0,0,8.3,-3.5,46890,216,8.4,6
2020,3,27,13:00,UTC,0,1029.2,45,0,0,8.1,-3.1,50000,228,7.8,5.7
2020,3,27,14:00,UTC,0,1028.6,45,0,0,7.7,-3.4,50000,224,6.9,5.4
2020,3,27,15:00,UTC,0,1027.8,46,0,0,7.1,-3.6,50000,203,6.2,4.6
2020,3,27,16:00,UTC,0,1027,43,0,0,6.6,-5.1,50000,218,5.9,4.1
2020,3,27,17:00,UTC,7,1026.6,42,0,0,5.6,-6.2,50000,216,5.4,4.3
2020,3,27,18:00,UTC,7,1026.2,50,0,0,4.4,-5.2,50000,215,4,3.5
2020,3,27,19:00,UTC,5,1025.6,53,0,0,3.3,-5.3,50000,195,3.4,3
2020,3,27,20:00,UTC,7,1025,59,0,0,3.4,-3.8,50000,204,3.9,3.4
2020,3,27,21:00,UTC,7,1024.3,64,0,0,3,-3.1,50000,204,4,3.6
2020,3,27,22:00,UTC,7,1023.5,66,0,0,2.9,-2.8,50000,217,4.4,3.8
2020,3,27,23:00,UTC,6,1022.8,64,0,0,2.7,-3.4,50000,223,3.7,3
2020,3,28,00:00,UTC,7,1021.9,71,0,0,2.1,-2.7,50000,229,4,3.2
2020,3,28,01:00,UTC,8,1021.1,72,0,0,2.3,-2.2,46350,228,3.7,3.2
2020,3,28,02:00,UTC,8,1019.9,65,0,0,2.8,-3.1,50000,225,3.8,3
2020,3,28,03:00,UTC,7,1019.4,63,0,0,2.7,-3.5,50000,232,5,3.5
2020,3,28,04:00,UTC,6,1018.9,69,0,0,1.6,-3.5,49620,234,3.4,2.5
2020,3,28,05:00,UTC,0,1018.3,69,0,0,2.2,-2.9,43470,232,4.7,3.5
2020,3,28,06:00,UTC,5,1018,66,0,0,3.6,-2.2,45350,244,4.9,3.5
2020,3,28,07:00,UTC,3,1017.4,63,0,0,4.4,-2,39240,231,4.7,3.5
2020,3,28,08:00,UTC,6,1016.9,57,0,0,6.6,-1.4,41780,222,4.8,3.6
2020,3,28,09:00,UTC,1,1016.9,55,0,0,8.2,-0.3,45920,237,5.4,3.4
2020,3,28,10:00,UTC,5,1016.6,51,0,0,9,-0.7,50000,280,6.4,4.6
2020,3,28,11:00,UTC,2,1016.6,45,0,0,10,-1.3,49870,286,7.3,4.7
2020,3,28,12:00,UTC,6,1016.3,44,0,0,10.4,-1.3,50000,271,6.3,4.9
2020,3,28,13:00,UTC,7,1016.2,53,0,0,8.8,-0.1,50000,331,7,4.9
2020,3,28,14:00,UTC,8,1015.8,57,0,0,7.8,-0.2,50000,202,1.9,1.3
2020,3,28,15:00,UTC,7,1015.6,39,0,0,9,-4.1,50000,327,11.1,7.2
2020,3,28,16:00,UTC,4,1016.3,39,0,0,7,-5.9,50000,341,10.2,7.7
2020,3,28,17:00,UTC,0,1017.1,37,0,0,5.3,-8.4,50000,354,11.3,7.5
2020,3,28,18:00,UTC,1,1017.9,41,0,0,4,-8.3,50000,350,8,5.6
2020,3,28,19:00,UTC,3,1018.5,46,0,0,3,-7.4,50000,339,7.6,5.3
2020,3,28,20:00,UTC,2,1019,42,0,0,2.5,-9.1,50000,354,7.2,5
2020,3,28,21:00,UTC,4,1019.5,38,0,0,2,-10.8,50000,354,7.2,5.2
2020,3,28,22:00,UTC,7,1020.3,39,0,0,1.4,-10.9,50000,345,6.6,5
2020,3,28,23:00,UTC,6,1020.7,40,0,0,0.6,-11.5,50000,354,4.7,3.3
2020,3,29,00:00,UTC,3,1021.2,39,0,0,0.2,-12,50000,353,6.8,4.9
2020,3,29,01:00,UTC,2,1021.7,38,0,0,-0.6,-13.2,50000,360,9.1,6.8
2020,3,29,02:00,UTC,0,1022.1,46,0,0,-1.8,-11.8,50000,344,5.4,4.1
2020,3,29,03:00,UTC,0,1022.3,50,0,0,-2.4,-11.3,50000,339,5.8,4.2
2020,3,29,04:00,UTC,0,1022.7,51,0,0,-2.8,-11.6,50000,332,5.2,4
2020,3,29,05:00,UTC,0,1022.9,49,0,0,-2.7,-11.8,50000,315,4.7,2.8
2020,3,29,06:00,UTC,0,1022.8,49,0,0,-1.5,-10.8,50000,339,7.7,5.4
2020,3,29,07:00,UTC,0,1022.7,45,0,0,-0.8,-11.3,50000,343,7.8,6
2020,3,29,08:00,UTC,0,1022.4,35,0,0,0.2,-13.4,50000,330,9.6,5.9
2020,3,29,09:00,UTC,0,1022.2,32,0,0,1.3,-13.8,50000,332,8.6,5.8
2020,3,29,10:00,UTC,0,1021.9,25,0,0,1.4,-16.7,50000,336,10.5,5.7
2020,3,29,11:00,UTC,1,1021.4,24,0,0,2.2,-16.2,50000,322,10.2,4.4
2020,3,29,12:00,UTC,7,1020.9,21,0,0,2.4,-17.5,50000,319,11.5,6.8
2020,3,29,13:00,UTC,7,1020.4,22,0,0,2,-17.5,50000,309,7.4,5
2020,3,29,14:00,UTC,0,1019.9,27,0,0,2.1,-15.2,50000,298,7.8,5.7
2020,3,29,15:00,UTC,6,1019.8,36,0,0,1,-12.5,50000,313,10.3,5.8
2020,3,29,16:00,UTC,0,1019.8,41,0,0,1,-10.9,50000,299,6.7,5
2020,3,29,17:00,UTC,1,1020.1,50,0,0,-1,-10.2,50000,345,4.6,3.1
2020,3,29,18:00,UTC,0,1020.2,61,0,0,-2.6,-9.1,50000,283,3.1,2.5
2020,3,29,19:00,UTC,0,1020.2,65,0,0,-3,-8.6,50000,283,3.4,2.8
2020,3,29,20:00,UTC,0,1020.2,64,0,0,-3.7,-9.5,50000,286,4,3.2
2020,3,29,21:00,UTC,0,1020,64,0,0,-4,-9.8,50000,299,3.7,2.7
2020,3,29,22:00,UTC,0,1019.9,68,0,0,-4.9,-9.9,50000,296,2.8,2.1
2020,3,29,23:00,UTC,7,1019.9,63,0,0,-4.1,-10.1,50000,306,3.2,2.4
2020,3,30,00:00,UTC,8,1019.6,68,0,0,-4.6,-9.6,50000,297,1.7,1.3
2020,3,30,01:00,UTC,8,1019.5,69,0,0,-4.3,-9.2,50000,290,2.6,1.7
2020,3,30,02:00,UTC,8,1019.6,65,0,0,-3.8,-9.3,50000,287,4.7,3.6
2020,3,30,03:00,UTC,8,1019.4,65,0,0,-3.8,-9.3,50000,303,2.2,1.7
2020,3,30,04:00,UTC,7,1019.5,65,0,0,-4,-9.6,50000,6,4.4,2.8
2020,3,30,05:00,UTC,5,1019.9,63,0,0,-3.4,-9.5,50000,356,4.5,3.6
2020,3,30,06:00,UTC,0,1020,54,0,0,-2.1,-10.2,50000,5,5.4,4.3
2020,3,30,07:00,UTC,0,1020.4,49,0,0,-1.2,-10.7,50000,21,3.5,2.7
2020,3,30,08:00,UTC,0,1020.8,44,0,0,-0.8,-11.5,50000,10,3.3,2.3
2020,3,30,09:00,UTC,6,1021.1,39,0,0,0.2,-12.1,50000,56,4.8,2.8
2020,3,30,10:00,UTC,7,1021.4,33,0,0,0.6,-13.9,50000,100,5.8,3.4
2020,3,30,11:00,UTC,7,1021.7,40,0,0,0.7,-11.3,50000,97,5.7,2.8
2020,3,30,12:00,UTC,8,1022.4,60,0,0,-0.5,-7.3,17400,53,3.3,2
2020,3,30,13:00,UTC,3,1022.4,46,0,0,0.8,-9.5,50000,202,3.7,2.2
2020,3,30,14:00,UTC,3,1022.5,39,0,0,0.9,-11.4,50000,83,3.9,1.9
2020,3,30,15:00,UTC,4,1022.8,44,0,0,1,-9.9,50000,336,4.8,3.2
2020,3,30,16:00,UTC,2,1023.3,46,0,0,0.4,-9.9,50000,292,1.6,0.9
2020,3,30,17:00,UTC,0,1023.9,49,0,0,-0.3,-9.8,50000,324,2.4,1.7
2020,3,30,18:00,UTC,0,1024.7,60,0,0,-2.2,-8.9,50000,67,2.4,1.4
2020,3,30,19:00,UTC,6,1025,52,0,0,-1.9,-10.4,50000,360,4.1,3.1
2020,3,30,20:00,UTC,0,1025.7,53,0,0,-2.8,-11.1,50000,14,3.6,3.1
2020,3,30,21:00,UTC,0,1025.9,55,0,0,-3.6,-11.4,50000,9,3.1,2.5
2020,3,30,22:00,UTC,0,1026.2,69,0,0,-5.1,-9.9,50000,321,1.7,0.9
2020,3,30,23:00,UTC,0,1026.1,62,0,0,-4.8,-10.9,50000,317,2.5,2.1
2020,3,31,00:00,UTC,0,1026,78,0,0,-6.6,-9.8,50000,313,1.5,1.4
2020,3,31,01:00,UTC,0,1025.9,72,0,0,-6,-10.3,50000,318,2.4,2.1
2020,3,31,02:00,UTC,0,1025.8,80,0,0,-7,-10,50000,292,2.5,2
2020,3,31,03:00,UTC,0,1025.1,80,0,0,-7.3,-10.1,50000,305,1.8,1.4
2020,3,31,04:00,UTC,0,1024.6,87,0,0,-8.1,-9.9,50000,275,1.8,1.4
2020,3,31,05:00,UTC,0,1024.2,81,0,0,-6.4,-9.1,30610,229,1.9,1.6
2020,3,31,06:00,UTC,0,1023.9,70,0,0,-3.1,-7.8,14820,237,2.8,2
2020,3,31,07:00,UTC,0,1022.7,51,0,0,-0.5,-9.5,50000,241,7.6,5.2
2020,3,31,08:00,UTC,0,1021.9,39,0,0,0.6,-11.8,50000,260,11.3,7.1
2020,3,31,09:00,UTC,0,1020.4,37,0,0,0.9,-12,50000,249,13.1,8.7
2020,3,31,10:00,UTC,3,1018.6,45,0,0,1.6,-9.1,50000,230,14.1,9.3
2020,3,31,11:00,UTC,6,1017.3,47,0,0,1.8,-8.5,50000,249,11.6,8
2020,3,31,12:00,UTC,1,1015.7,41,0,0,1.6,-10.1,50000,237,14.9,10.4
2020,3,31,13:00,UTC,7,1014.4,43,0,0,1.1,-10.2,50000,239,16.6,12.2
2020,3,31,14:00,UTC,8,1013.2,69,0,0,-0.9,-5.9,8080,241,14.7,10.7
2020,3,31,15:00,UTC,8,1012,70,0,0,-0.8,-5.6,12410,238,13.3,10.5
2020,3,31,16:00,UTC,5,1009.9,71,0,0,-0.2,-4.9,36570,233,15,10.5
2020,3,31,17:00,UTC,7,1008.5,74,0,0,0,-4.1,50000,232,13.9,8.9
2020,3,31,18:00,UTC,7,1007.2,70,0,0,0.7,-4.1,49020,234,13.7,9.3
2020,3,31,19:00,UTC,8,1006,84,0.7,0,0.1,-2.3,4670,233,11.2,7.8
2020,3,31,20:00,UTC,8,1004.2,94,0,0,0.1,-0.8,2880,229,9.1,6.6
2020,3,31,21:00,UTC,7,1002.6,90,0,0,0.7,-0.8,28800,241,8.3,5.8
2020,3,31,22:00,UTC,7,1001.3,89,0.2,0,1.2,-0.4,50000,232,8.4,6
2020,3,31,23:00,UTC,7,1000.5,88,0,0,1.6,-0.2,22490,243,8.2,5.3
2020,4,1,00:00,UTC,7,999.6,89,0,0,1.5,-0.2,30440,240,5,3.5
2020,4,1,01:00,UTC,1,999.1,89,0,0,0.3,-1.2,50000,263,4.6,3.7
2020,4,1,02:00,UTC,1,998.9,88,0,0,0,-1.7,50000,267,5.5,4.2
2020,4,1,03:00,UTC,0,998.6,85,0,0,-0.2,-2.4,50000,251,6.2,4.8
2020,4,1,04:00,UTC,0,998.3,84,0,0,-0.6,-2.9,50000,247,6.7,5.1
2020,4,1,05:00,UTC,1,997.9,77,0,0,0.5,-3.2,50000,263,7.3,5.2
2020,4,1,06:00,UTC,0,997.7,70,0,0,1.8,-3.2,44300,272,9,6.7
2020,4,1,07:00,UTC,1,997.2,66,0,0,2.8,-2.9,37300,279,9.7,6.2
2020,4,1,08:00,UTC,1,996.9,63,0,0,4.3,-2,47230,283,10,7.3
2020,4,1,09:00,UTC,7,996.9,59,0,0,4.7,-2.7,50000,272,12,8.8
2020,4,1,10:00,UTC,7,996.9,53,0,0,5,-3.9,50000,278,15.1,10.5
2020,4,1,11:00,UTC,7,996.9,44,0,0,5.8,-5.5,50000,292,11.4,8.6
2020,4,1,12:00,UTC,7,996.9,40,0,0,6.2,-6.6,50000,280,12.3,9
2020,4,1,13:00,UTC,7,996.8,33,0,0,6.5,-8.8,50000,300,13.5,8
2020,4,1,14:00,UTC,1,996.8,32,0,0,6.2,-9.3,50000,297,10.4,7.8
2020,4,1,15:00,UTC,0,996.9,30,0,0,6.2,-10.2,50000,294,11.1,8.4
2020,4,1,16:00,UTC,0,996.9,33,0,0,5.5,-9.7,50000,299,9.4,6.8
2020,4,1,17:00,UTC,0,997.4,39,0,0,3.9,-8.9,50000,285,7.8,5.8
2020,4,1,18:00,UTC,0,997.8,46,0,0,2.1,-8.5,50000,285,5,4
2020,4,1,19:00,UTC,0,997.8,54,0,0,-0.1,-8.2,50000,247,4.6,3.9
2020,4,1,20:00,UTC,2,997.6,65,0,0,-0.3,-6.1,50000,244,4.9,3.7
2020,4,1,21:00,UTC,7,997,69,0,0,0.2,-4.8,50000,257,3.6,2.5
2020,4,1,22:00,UTC,7,996.4,71,0,0,-0.1,-4.6,50000,235,4.4,3.2
2020,4,1,23:00,UTC,7,995.6,74,0,0,-0.4,-4.4,50000,205,3.3,3
2020,4,2,00:00,UTC,7,994.7,72,0,0,0.2,-4.2,42740,126,3.2,2.7
2020,4,2,01:00,UTC,8,993.3,89,0,0,1.7,0.1,21360,170,5.2,3.8
2020,4,2,02:00,UTC,8,992,93,0,0,2.2,1.1,29190,181,6.6,4.8
2020,4,2,03:00,UTC,8,991.1,95,0,0,2.7,2,21850,210,6.1,4.6
2020,4,2,04:00,UTC,8,990.1,94,0,0,3.3,2.5,33280,216,8.6,5.5
2020,4,2,05:00,UTC,8,989.5,95,0.4,0,3.3,2.5,22980,218,8.2,6
2020,4,2,06:00,UTC,7,989,93,0,0,3.7,2.8,43320,215,6.7,5
2020,4,2,07:00,UTC,7,988.5,86,0,0,4.7,2.6,50000,219,7.7,5.8
2020,4,2,08:00,UTC,8,988,83,0,0,5.1,2.4,46050,221,9.2,6.7
2020,4,2,09:00,UTC,8,987.6,77,0,0,5.6,1.9,50000,231,9.3,6.6
2020,4,2,10:00,UTC,8,987,77,0,0,5.9,2.2,50000,225,9.6,7.1
2020,4,2,11:00,UTC,7,986.4,72,0,0,6.8,2,45270,214,11.2,8.5
2020,4,2,12:00,UTC,7,986,68,0,0,7.3,1.7,50000,218,11.7,8.6
2020,4,2,13:00,UTC,5,985.5,69,0,0,6.7,1.3,47600,215,12.5,9.6
2020,4,2,14:00,UTC,4,985.2,71,0,0,5.7,0.9,50000,218,13.8,10.8
2020,4,2,15:00,UTC,6,984.5,72,0,0,5.6,0.9,50000,219,12.9,9.6
2020,4,2,16:00,UTC,7,983.5,75,0,0,4.7,0.7,33230,226,16.9,11.9
2020,4,2,17:00,UTC,8,982.1,73,0,0,4.9,0.5,27700,221,15.4,11.1
2020,4,2,18:00,UTC,8,981.2,72,0,0,5.1,0.4,25720,220,15.2,11.7
2020,4,2,19:00,UTC,8,980.2,77,0,0,4.7,1,24810,208,19.8,13.4
2020,4,2,20:00,UTC,8,978.3,85,1.2,0,4,1.7,10340,199,18.1,12.7
2020,4,2,21:00,UTC,8,977,87,3,0,3.5,1.5,7780,214,19.7,13.6
2020,4,2,22:00,UTC,7,976.2,78,0,0,3.3,-0.2,50000,214,13.2,10.4
2020,4,2,23:00,UTC,4,976.6,75,0,0,2.5,-1.6,50000,234,12.6,8.8
2020,4,3,00:00,UTC,1,976.5,73,0,0,2,-2.3,50000,223,11.1,8.3
2020,4,3,01:00,UTC,4,976.2,75,0,0,2.2,-1.8,50000,228,12.2,8.1
2020,4,3,02:00,UTC,8,976.6,97,1.9,0,0,-0.4,210,229,12.5,8.8
2020,4,3,03:00,UTC,7,975.3,99,1.9,2,-0.2,-0.4,1630,193,3.6,2.8
2020,4,3,04:00,UTC,8,975.1,99,0,3,0,-0.2,11510,200,5.3,4.3
2020,4,3,05:00,UTC,7,976,97,0,4,0,-0.3,50000,233,10.6,7.2
2020,4,3,06:00,UTC,0,976.2,94,0,3,0.3,-0.5,50000,217,8.3,5.8
2020,4,3,07:00,UTC,3,976,80,0,4,2.4,-0.8,43590,219,8.1,5.7
2020,4,3,08:00,UTC,6,975.9,79,0,3,2,-1.3,50000,195,7.6,5
2020,4,3,09:00,UTC,8,976.2,89,0,2,1,-0.5,5370,211,6.9,4.9
2020,4,3,10:00,UTC,8,977.1,93,0,4,1.3,0.3,5960,280,4.9,3.3
2020,4,3,11:00,UTC,6,979.1,78,0,3,3.1,-0.5,50000,297,9.7,7.8
2020,4,3,12:00,UTC,3,981.8,72,0,0,3.9,-0.7,50000,306,10.1,7.2
2020,4,3,13:00,UTC,6,983.7,61,0,0,5.1,-1.7,50000,291,12.8,9.1
2020,4,3,14:00,UTC,7,986.5,73,0,0,3.6,-0.7,23120,296,16.8,10.7
2020,4,3,15:00,UTC,7,989.1,64,0,0,3.9,-2.2,50000,285,17.3,12.3
2020,4,3,16:00,UTC,8,991.5,63,0,0,2.3,-4,50000,296,12.6,9.1
2020,4,3,17:00,UTC,8,993.5,66,0,0,1.3,-4.4,50000,297,14.4,10
2020,4,3,18:00,UTC,8,995.1,65,0,0,1,-4.9,50000,293,10.6,7.7
2020,4,3,19:00,UTC,4,996.6,69,0,0,0.5,-4.5,50000,283,8.2,6
2020,4,3,20:00,UTC,5,997.7,71,0,0,0.6,-4,50000,276,9.1,6.5
2020,4,3,21:00,UTC,6,998.8,74,0,0,0,-4.2,50000,273,7.4,5.5
2020,4,3,22:00,UTC,0,1000,76,0,0,-0.8,-4.5,50000,251,6.3,4.7
2020,4,3,23:00,UTC,0,1000.9,81,0,0,-1.3,-4.1,50000,261,4.9,3.9
2020,4,4,00:00,UTC,1,1001.9,82,0,0,-1.2,-3.9,50000,256,5.7,4.2
2020,4,4,01:00,UTC,0,1002.9,80,0,0,-1,-4,50000,276,6.1,4
2020,4,4,02:00,UTC,0,1003.8,79,0,0,-1,-4.1,50000,269,6.4,4.7
2020,4,4,03:00,UTC,0,1005.1,80,0,0,-1.3,-4.3,50000,270,5.6,4.3
2020,4,4,04:00,UTC,0,1006.2,81,0,0,-1.6,-4.5,50000,265,5.1,3.8
2020,4,4,05:00,UTC,0,1007.2,74,0,0,-0.5,-4.6,50000,258,5.6,3.5
2020,4,4,06:00,UTC,0,1008.2,67,0,0,0.9,-4.5,50000,271,7.3,5.9
2020,4,4,07:00,UTC,0,1009,59,0,0,2,-5.2,50000,286,10.9,7.7
2020,4,4,08:00,UTC,0,1009.9,51,0,0,3.2,-6,50000,281,9.7,7.5
2020,4,4,09:00,UTC,0,1010.6,41,0,0,4.2,-7.8,50000,284,10.6,7.6
2020,4,4,10:00,UTC,1,1011.3,40,0,0,5.3,-7.3,50000,285,9.8,6.8
2020,4,4,11:00,UTC,1,1012,36,0,0,5,-8.9,50000,259,12.4,9.3
2020,4,4,12:00,UTC,1,1012.3,34,0,0,6.5,-8.1,50000,244,10.2,7.1
2020,4,4,13:00,UTC,3,1012.9,34,0,0,5.2,-9.5,50000,262,11.7,6.8
2020,4,4,14:00,UTC,3,1013.1,35,0,0,5.9,-8.4,50000,243,12.1,8.6
2020,4,4,15:00,UTC,7,1013.7,33,0,0,5.1,-9.9,50000,274,11.4,7.7
2020,4,4,16:00,UTC,2,1014.2,32,0,0,4.8,-10.5,50000,266,10.4,7.5
2020,4,4,17:00,UTC,0,1015.3,34,0,0,3.4,-10.9,50000,269,8.6,6.7
2020,4,4,18:00,UTC,0,1016.5,41,0,0,2.2,-9.7,50000,270,7,4.9
2020,4,4,19:00,UTC,0,1017.8,50,0,0,1.1,-8.3,50000,280,5.7,4.6
2020,4,4,20:00,UTC,0,1018.6,53,0,0,0.4,-8.1,50000,283,5.4,4.3
2020,4,4,21:00,UTC,0,1019.4,55,0,0,-0.1,-8.2,50000,279,5.9,4.1
2020,4,4,22:00,UTC,0,1020.4,57,0,0,-0.7,-8.1,50000,269,5.6,4.3
2020,4,4,23:00,UTC,0,1021.1,61,0,0,-1.4,-7.8,50000,272,4.3,3.7
2020,4,5,00:00,UTC,0,1021.9,63,0,0,-1.3,-7.5,50000,275,6.3,4.8
2020,4,5,01:00,UTC,0,1022.8,70,0,0,-2.1,-6.9,50000,275,5.4,4.2
2020,4,5,02:00,UTC,0,1023.5,74,0,0,-2.5,-6.5,50000,282,4.5,3.1
2020,4,5,03:00,UTC,1,1024.1,73,0,0,-2.1,-6.2,50000,279,5.7,4.3
2020,4,5,04:00,UTC,0,1025.3,72,0,0,-2.1,-6.5,50000,290,4.7,3.5
2020,4,5,05:00,UTC,0,1026.1,67,0,0,-1,-6.3,50000,278,4.8,3.7
2020,4,5,06:00,UTC,0,1026.8,60,0,0,0.5,-6.3,50000,299,7.5,5.4
2020,4,5,07:00,UTC,0,1027.5,54,0,0,1.9,-6.4,50000,308,10,6.2
2020,4,5,08:00,UTC,0,1028.2,42,0,0,3,-8.8,50000,307,11.8,7.3
2020,4,5,09:00,UTC,2,1028.6,38,0,0,3.6,-9.4,50000,294,8.7,6.4
2020,4,5,10:00,UTC,6,1028.9,33,0,0,5,-9.9,50000,285,11.2,8.1
2020,4,5,11:00,UTC,0,1029.2,30,0,0,5.8,-10.5,50000,300,9.1,6.2
2020,4,5,12:00,UTC,0,1029.4,28,0,0,6.4,-10.6,50000,296,9.7,5.2
2020,4,5,13:00,UTC,0,1029.3,27,0,0,6.4,-11.5,50000,305,9.9,7.5
2020,4,5,14:00,UTC,0,1029.1,27,0,0,6.9,-10.6,50000,294,8.3,5
2020,4,5,15:00,UTC,0,1029,26,0,0,7.3,-11.1,50000,294,11,7.1
2020,4,5,16:00,UTC,0,1029,30,0,0,5.8,-10.5,40750,301,7.2,5.2
2020,4,5,17:00,UTC,0,1029.2,37,0,0,4,-9.5,50000,288,3.3,2.4
2020,4,5,18:00,UTC,4,1029.6,44,0,0,2,-8.9,50000,271,2.6,2.1
2020,4,5,19:00,UTC,0,1029.8,47,0,0,1.2,-8.7,50000,308,1.1,0.8
2020,4,5,20:00,UTC,4,1029.9,53,0,0,0,-8.4,50000,242,1.1,0.8
2020,4,5,21:00,UTC,7,1029.9,62,0,0,-0.4,-6.7,50000,206,2.5,2.4
2020,4,5,22:00,UTC,8,1030,63,0,0,0.4,-5.8,50000,234,3.4,2.8
2020,4,5,23:00,UTC,8,1029.8,58,0,0,1.5,-5.8,50000,201,2.5,2.2
2020,4,6,00:00,UTC,8,1029.7,64,0,0,1.5,-4.5,40240,211,3.8,3.3
2020,4,6,01:00,UTC,8,1029.5,82,0,0,1.4,-1.3,38480,213,3.3,2.7
2020,4,6,02:00,UTC,8,1029.2,89,0,0,2.1,0.5,16950,173,3.9,2.9
2020,4,6,03:00,UTC,8,1029.2,93,0,0,2.4,1.4,50000,181,4,3.2
2020,4,6,04:00,UTC,8,1028.9,95,0,0,2.6,1.9,18940,188,4.3,3.2
2020,4,6,05:00,UTC,8,1028.8,97,0,0,3,2.6,6940,210,2.8,2
2020,4,6,06:00,UTC,8,1029,98,0,0,3.4,3.1,4210,218,4.3,3.4
2020,4,6,07:00,UTC,8,1029.1,95,0,0,4.4,3.7,6720,232,2.8,1.9
2020,4,6,08:00,UTC,7,1029.3,89,0,0,5.6,3.9,11250,210,2.5,1.8
2020,4,6,09:00,UTC,7,1029.2,82,0,0,7.1,4.2,18820,206,4,2.4
2020,4,6,10:00,UTC,3,1029,69,0,0,10,4.4,23870,184,4,2
2020,4,6,11:00,UTC,0,1028.9,62,0,0,11.6,4.5,23290,172,5.6,3.6
2020,4,6,12:00,UTC,3,1028.4,60,0,0,12.1,4.6,21770,170,6.7,5.1
2020,4,6,13:00,UTC,5,1028.1,53,0,0,13.2,3.8,38220,210,8.5,6
2020,4,6,14:00,UTC,4,1027.8,49,0,0,13.4,3,50000,239,9.4,7.3
2020,4,6,15:00,UTC,0,1027.6,50,0,0,13,2.8,44760,211,7.6,5.8
2020,4,6,16:00,UTC,0,1027.8,50,0,0,11,0.9,50000,226,8.8,6.4
2020,4,6,17:00,UTC,0,1027.8,49,0,0,9,-1.2,50000,219,8.4,6
2020,4,6,18:00,UTC,5,1028.1,51,0,0,7.7,-1.7,50000,221,5.8,4.4
2020,4,6,19:00,UTC,1,1028.1,56,0,0,6.3,-1.8,50000,224,5.8,3.9
2020,4,6,20:00,UTC,0,1027.9,68,0,0,4.8,-0.7,50000,206,5.3,4.4
2020,4,6,21:00,UTC,0,1027.8,72,0,0,4.7,0.1,50000,201,5.6,4.6
2020,4,6,22:00,UTC,0,1027.3,75,0,0,4.1,0.1,50000,202,5.5,4.7
2020,4,6,23:00,UTC,0,1026.7,72,0,0,4.5,-0.2,50000,196,5.5,4.3
2020,4,7,00:00,UTC,0,1025.9,69,0,0,4.8,-0.4,50000,183,5.5,4.2
2020,4,7,01:00,UTC,0,1024.8,66,0,0,5.1,-0.7,50000,175,5.4,3.7
2020,4,7,02:00,UTC,0,1023.9,70,0,0,4.7,-0.4,50000,191,7.6,5.7
2020,4,7,03:00,UTC,0,1023,71,0,0,4.6,-0.2,50000,190,8.1,5.7
2020,4,7,04:00,UTC,0,1022.3,68,0,0,5,-0.4,50000,196,8.8,6.6
2020,4,7,05:00,UTC,0,1021.6,65,0,0,5.9,-0.3,50000,189,6.6,5.1
2020,4,7,06:00,UTC,0,1020.8,57,0,0,7.6,-0.3,48820,197,6.6,5
2020,4,7,07:00,UTC,0,1019.9,53,0,0,8.7,-0.4,48920,179,6.5,4.8
2020,4,7,08:00,UTC,0,1019,50,0,0,9.8,-0.2,44670,191,10.3,6.5
2020,4,7,09:00,UTC,0,1018.1,48,0,0,11.2,0.7,39470,195,9.4,6.8
2020,4,7,10:00,UTC,0,1017.5,46,0,0,12.5,1.1,33840,215,9.2,6.8
2020,4,7,11:00,UTC,0,1016.8,46,0,0,12.7,1.4,34330,218,9,6.3
2020,4,7,12:00,UTC,0,1016.2,45,0,0,13.4,1.7,34680,221,10.6,7.9
2020,4,7,13:00,UTC,4,1015.6,44,0,0,13.3,1.2,28870,224,13,9.4
2020,4,7,14:00,UTC,7,1015.3,46,0,0,12.5,1.3,33870,231,9.7,7.4
2020,4,7,15:00,UTC,8,1015,66,0,0,9.4,3.3,17220,236,10,7.1
2020,4,7,16:00,UTC,7,1014.7,86,0,0,7.2,5,14340,191,10.3,6.3
2020,4,7,17:00,UTC,8,1014.8,88,0,0,6.3,4.5,11430,252,8,6
2020,4,7,18:00,UTC,8,1015.1,91,0,0,6.5,5.1,10420,277,7,4.9
2020,4,7,19:00,UTC,8,1015.6,91,0,0,6.9,5.5,15720,311,12.2,7.2
2020,4,7,20:00,UTC,8,1017,84,0,0,6.4,3.9,43850,324,13.2,8.9
2020,4,7,21:00,UTC,7,1018.6,84,0,0,6.3,3.7,50000,315,12.9,8.8
2020,4,7,22:00,UTC,3,1020.1,85,0,0,5.7,3.4,50000,315,9.1,6.6
2020,4,7,23:00,UTC,0,1021.2,85,0,0,4.8,2.5,50000,310,7.3,5.2
2020,4,8,00:00,UTC,0,1022.5,84,0,0,4,1.6,50000,304,7.2,5.2
2020,4,8,01:00,UTC,0,1023.5,78,0,0,4,0.5,50000,309,8.8,6.2
2020,4,8,02:00,UTC,0,1024.3,81,0,0,3.1,0.2,50000,305,6.9,4.9
2020,4,8,03:00,UTC,0,1024.7,84,0,0,2.3,-0.2,50000,306,5.4,4.2
2020,4,8,04:00,UTC,0,1025.1,87,0,0,1.4,-0.5,50000,296,4.6,3.6
2020,4,8,05:00,UTC,0,1025.1,80,0,0,2.6,-0.5,50000,288,4.4,3.4
2020,4,8,06:00,UTC,0,1025.3,72,0,0,4,-0.6,44660,294,4.6,3.3
2020,4,8,07:00,UTC,0,1025.1,59,0,0,6.8,-0.5,42950,277,4.4,3.6
2020,4,8,08:00,UTC,0,1024.8,46,0,0,9.1,-1.8,44810,218,7,4
2020,4,8,09:00,UTC,0,1024.2,41,0,0,10.9,-2,50000,233,8.8,6.3
2020,4,8,10:00,UTC,0,1023.4,41,0,0,11.1,-1.8,45440,217,11.2,7.8
2020,4,8,11:00,UTC,0,1022.4,36,0,0,11.4,-3.2,44550,217,13.2,10.1
2020,4,8,12:00,UTC,0,1021.3,39,0,0,11.7,-1.7,48650,222,12.2,8.6
2020,4,8,13:00,UTC,0,1020,43,0,0,11.4,-0.6,50000,232,13.9,9.9
2020,4,8,14:00,UTC,0,1018.6,45,0,0,10.6,-0.8,48290,220,13.8,10.6
2020,4,8,15:00,UTC,0,1017.6,52,0,0,9.4,0.1,49140,220,14.4,10.7
2020,4,8,16:00,UTC,0,1016.6,58,0,0,8,0.3,50000,224,10.1,7.8
2020,4,8,17:00,UTC,0,1015.8,71,0,0,6.1,1.2,50000,226,9.5,6.6
2020,4,8,18:00,UTC,1,1015.3,79,0,0,5.1,1.7,42920,230,7.4,5.2
2020,4,8,19:00,UTC,0,1014.4,81,0,0,4.5,1.5,35530,214,6.9,5.1
2020,4,8,20:00,UTC,0,1013.2,81,0,0,4.6,1.6,43720,216,8.6,6.7
2020,4,8,21:00,UTC,0,1012.1,78,0,0,4.9,1.3,50000,216,10.4,7.5
2020,4,8,22:00,UTC,2,1010.9,80,0,0,4.7,1.6,50000,210,9.1,6.9
2020,4,8,23:00,UTC,6,1009.5,81,0,0,4.6,1.7,47600,214,9.7,6.8
2020,4,9,00:00,UTC,7,1008.2,81,0,0,4.7,1.8,47870,221,7.4,5.2
2020,4,9,01:00,UTC,8,1006.6,81,0,0,4.9,1.8,43040,218,7.3,5.4
2020,4,9,02:00,UTC,8,1006.1,80,0,0,5.2,2,44340,229,6.9,4.8
2020,4,9,03:00,UTC,8,1005,80,0,0,5.2,1.9,41130,225,6.1,4.6
2020,4,9,04:00,UTC,8,1004.8,80,0,0,5.3,2.1,42870,251,5.5,3.9
2020,4,9,05:00,UTC,8,1004.7,81,0,0,5.4,2.4,50000,291,4.8,3.7
2020,4,9,06:00,UTC,7,1005.4,72,0,0,5.6,0.9,50000,303,7.4,5.2
2020,4,9,07:00,UTC,4,1005.6,61,0,0,6.2,-0.9,50000,311,11,6.4
2020,4,9,08:00,UTC,5,1005.8,56,0,0,6.6,-1.5,50000,303,9,5.8
2020,4,9,09:00,UTC,0,1006.1,40,0,0,8.4,-4.3,50000,303,10.2,7.5
2020,4,9,10:00,UTC,1,1006.3,39,0,0,9,-4.2,50000,284,12.2,8.5
2020,4,9,11:00,UTC,5,1006.4,35,0,0,9.4,-5.3,48810,271,12.5,8.4
2020,4,9,12:00,UTC,5,1007,35,0,0,9.2,-5.4,50000,306,14,9
2020,4,9,13:00,UTC,7,1007.7,36,0,0,8.6,-5.8,50000,324,12.4,7.6
2020,4,9,14:00,UTC,6,1008.6,67,0,0,5.3,-0.4,33450,359,12,7.4
2020,4,9,15:00,UTC,6,1009.4,72,0,0,4.9,0.2,50000,345,5.3,3.4
2020,4,9,16:00,UTC,1,1010,65,0,0,5.6,-0.5,50000,283,4.8,3.5
2020,4,9,17:00,UTC,1,1010.8,58,0,0,6.2,-1.5,50000,308,4.7,3.5
2020,4,9,18:00,UTC,0,1011.6,55,0,0,5.5,-2.8,50000,310,7.5,4.7
2020,4,9,19:00,UTC,2,1012.4,60,0,0,4.7,-2.4,50000,305,5.9,4.5
2020,4,9,20:00,UTC,0,1013.5,63,0,0,3.5,-2.9,50000,299,7.6,4.7
2020,4,9,21:00,UTC,0,1014.1,67,0,0,2.5,-3.1,50000,299,5.2,4.1
2020,4,9,22:00,UTC,0,1014.8,71,0,0,1.6,-3,50000,297,5.9,4.4
2020,4,9,23:00,UTC,0,1015.1,72,0,0,1.3,-3.2,50000,307,6.1,4.4
2020,4,10,00:00,UTC,0,1015.3,77,0,0,0,-3.5,50000,295,4.5,3.4
2020,4,10,01:00,UTC,0,1015.1,80,0,0,-0.5,-3.6,50000,270,4.5,3.9
2020,4,10,02:00,UTC,0,1015.5,81,0,0,-0.8,-3.7,50000,281,5.5,4.4
2020,4,10,03:00,UTC,2,1015.4,83,0,0,-0.9,-3.5,50000,274,4.7,4.1
2020,4,10,04:00,UTC,0,1015.6,84,0,0,-0.5,-2.7,50000,295,6,4.4
2020,4,10,05:00,UTC,0,1015.9,81,0,0,0.5,-2.3,50000,301,8.1,5.8
2020,4,10,06:00,UTC,0,1016.3,71,0,0,2.3,-2.4,50000,314,8.4,6
2020,4,10,07:00,UTC,0,1016.7,55,0,0,3.3,-4.9,50000,317,10.8,8.3
2020,4,10,08:00,UTC,0,1016.9,40,0,0,4.1,-8.3,50000,318,11.1,7.5
2020,4,10,09:00,UTC,0,1017.5,34,0,0,4.8,-9.7,50000,321,10.4,7.3
2020,4,10,10:00,UTC,0,1017.5,30,0,0,6.1,-10.1,50000,323,12,8.2
2020,4,10,11:00,UTC,0,1017.3,27,0,0,7.4,-10.4,50000,301,11.4,7.6
2020,4,10,12:00,UTC,4,1017.3,27,0,0,8.2,-9.9,50000,311,8.6,4.8
2020,4,10,13:00,UTC,7,1016.9,28,0,0,7.2,-10,50000,296,10.9,7.4
2020,4,10,14:00,UTC,7,1016.8,34,0,0,6.7,-8.1,50000,306,9.5,6.6
2020,4,10,15:00,UTC,8,1016.9,50,0,0,5.1,-4.5,50000,307,10.7,7
2020,4,10,16:00,UTC,1,1016.4,47,0,0,5.5,-5,50000,277,6,4.5
2020,4,10,17:00,UTC,5,1016.6,55,0,0,4.1,-4.2,50000,267,5.4,4.1
2020,4,10,18:00,UTC,7,1017.4,61,0,0,2.8,-4,50000,296,7.8,5.6
2020,4,10,19:00,UTC,0,1018.1,71,0,0,1.7,-3,50000,307,8.1,5.7
2020,4,10,20:00,UTC,1,1018.8,71,0,0,1,-3.7,50000,345,5,3.7
2020,4,10,21:00,UTC,0,1019.2,77,0,0,0.2,-3.5,50000,306,4.6,3.6
2020,4,10,22:00,UTC,0,1019.8,78,0,0,-0.7,-4.1,50000,298,4.7,3.8
2020,4,10,23:00,UTC,0,1020.1,78,0,0,-1.4,-4.8,50000,290,4.7,3.7
2020,4,11,00:00,UTC,0,1020.3,81,0,0,-2.2,-5,50000,279,3.9,3.4
2020,4,11,01:00,UTC,0,1020.5,84,0,0,-2.9,-5.3,50000,240,3.4,3
2020,4,11,02:00,UTC,0,1020.7,82,0,0,-2.8,-5.5,50000,262,4.7,3.9
2020,4,11,03:00,UTC,0,1020.7,77,0,0,-1.7,-5.2,50000,277,6.8,4.7
2020,4,11,04:00,UTC,0,1020.7,77,0,0,-0.9,-4.4,50000,284,7.7,5.3
2020,4,11,05:00,UTC,0,1020.9,74,0,0,0.5,-3.6,50000,280,7,5.2
2020,4,11,06:00,UTC,0,1021,67,0,0,2.2,-3.3,50000,290,6.3,5
2020,4,11,07:00,UTC,0,1021.2,60,0,0,4.1,-3,50000,276,6.6,4.8
2020,4,11,08:00,UTC,0,1021.3,51,0,0,5.3,-3.9,50000,293,11.3,8
2020,4,11,09:00,UTC,7,1021.5,45,0,0,6.2,-4.8,50000,285,11.1,8.2
2020,4,11,10:00,UTC,6,1021.6,43,0,0,5.8,-5.8,50000,300,9.9,7.1
2020,4,11,11:00,UTC,8,1021.7,40,0,0,5.7,-6.8,50000,316,8.4,6.6
2020,4,11,12:00,UTC,7,1021.6,36,0,0,6.4,-7.7,50000,308,7.6,5.6
2020,4,11,13:00,UTC,7,1021.4,32,0,0,7.3,-8.2,50000,326,7.1,4.7
2020,4,11,14:00,UTC,3,1021.2,30,0,0,7.9,-8.8,50000,342,8.9,5.6
2020,4,11,15:00,UTC,4,1020.8,31,0,0,7.5,-8.5,50000,275,9,5.4
2020,4,11,16:00,UTC,4,1020.7,33,0,0,7.1,-8.1,50000,321,5.8,4.2
2020,4,11,17:00,UTC,0,1020.7,40,0,0,5.4,-7.1,50000,295,3.1,2.2
2020,4,11,18:00,UTC,1,1020.7,46,0,0,3.4,-7,50000,269,1.4,0.8
2020,4,11,19:00,UTC,1,1020.7,54,0,0,2.3,-6,50000,227,1.8,1.3
2020,4,11,20:00,UTC,0,1020.7,68,0,0,0.1,-5.1,50000,250,4.5,3
2020,4,11,21:00,UTC,1,1020.4,67,0,0,0.3,-5.2,50000,280,3.3,2.9
2020,4,11,22:00,UTC,0,1020,70,0,0,0,-4.8,50000,268,2,1.5
2020,4,11,23:00,UTC,0,1019.4,75,0,0,-1.2,-5,50000,190,2,1.5
2020,4,12,00:00,UTC,1,1018.5,76,0,0,-0.1,-3.8,50000,197,3.7,3.2
2020,4,12,01:00,UTC,7,1017.5,73,0,0,1.1,-3.3,50000,190,4.8,3.7
2020,4,12,02:00,UTC,8,1016.5,82,0,0,2.2,-0.5,50000,187,6.6,4.7
2020,4,12,03:00,UTC,8,1014.9,88,0,0,2.4,0.6,50000,146,5.9,4.3
2020,4,12,04:00,UTC,8,1013.5,81,0,0,2.5,-0.4,50000,158,9,6.2
2020,4,12,05:00,UTC,8,1012.2,88,0.8,0,2.1,0.4,9980,164,9.3,6.4
2020,4,12,06:00,UTC,8,1010.6,86,0.3,0,3.5,1.3,35830,178,10,6.7
2020,4,12,07:00,UTC,8,1009.3,89,1.1,0,2.9,1.3,17090,179,12,8.1
2020,4,12,08:00,UTC,8,1008,92,1,0,2.7,1.6,19120,179,12.2,8.8
2020,4,12,09:00,UTC,8,1006.4,94,0.5,0,3.3,2.4,12010,184,13.8,9.7
2020,4,12,10:00,UTC,8,1004.9,94,1.2,0,3.7,2.8,10740,183,16.1,10.4
2020,4,12,11:00,UTC,8,1003.4,97,0,0,3.9,3.4,6300,192,10.9,8
2020,4,12,12:00,UTC,8,1001.8,97,0.2,0,4.6,4.2,4140,195,14.3,9.5
2020,4,12,13:00,UTC,8,1000.8,97,0,0,5.2,4.9,2970,215,13.6,9.3
2020,4,12,14:00,UTC,8,999.4,96,0,0,5.5,4.8,4490,214,13.4,9.8
2020,4,12,15:00,UTC,8,998.4,93,0,0,5.7,4.6,10260,218,14.8,9.9
2020,4,12,16:00,UTC,8,997.6,94,0,0,5.8,4.9,12100,219,12.8,9.2
2020,4,12,17:00,UTC,8,996.8,94,0,0,6,5,10120,222,11.2,8.1
2020,4,12,18:00,UTC,8,995.9,91,0,0,6.1,4.7,11590,223,14.6,10.3
2020,4,12,19:00,UTC,8,994.7,91,0,0,6.3,4.9,14470,215,11.9,9.1
2020,4,12,20:00,UTC,7,994.1,90,0,0,6.4,4.8,13470,220,11.4,8.4
2020,4,12,21:00,UTC,8,993.1,94,0,0,5.9,5,10020,212,11.9,8.7
2020,4,12,22:00,UTC,8,991.7,93,0,0,5.8,4.7,11340,208,11.3,7.3
2020,4,12,23:00,UTC,8,990.7,93,0,0,5.4,4.3,10990,214,8.9,7
2020,4,13,00:00,UTC,7,990,94,0,0,4.6,3.8,9580,222,6.6,4.8
2020,4,13,01:00,UTC,6,989.1,95,0,0,4.2,3.5,10060,215,6.6,4.7
2020,4,13,02:00,UTC,7,988.8,94,0,0,4.5,3.7,18380,245,6.2,4.5
2020,4,13,03:00,UTC,8,989,89,0,0,3.5,1.9,13500,299,13.2,9.2
2020,4,13,04:00,UTC,8,989.8,91,0,0,3.1,1.8,50000,293,7.6,5.5
2020,4,13,05:00,UTC,7,990.2,85,0,0,2.7,0.5,50000,300,10,7.7
2020,4,13,06:00,UTC,7,990.4,78,0,0,2.5,-1,50000,303,8.9,6.2
2020,4,13,07:00,UTC,2,990.9,65,0,0,2.9,-3,50000,320,8.6,5.7
2020,4,13,08:00,UTC,2,991.2,59,0,0,4.2,-3.1,50000,292,8.4,6.1
2020,4,13,09:00,UTC,1,991.6,49,0,0,5.8,-4.2,50000,283,11.3,8.2
2020,4,13,10:00,UTC,1,992,44,0,0,5.8,-5.5,50000,273,10.1,6.7
2020,4,13,11:00,UTC,1,992,40,0,0,6.6,-6.1,50000,278,10.1,7.5
2020,4,13,12:00,UTC,1,992,35,0,0,6.9,-7.5,50000,267,13.1,8.1
2020,4,13,13:00,UTC,6,992.3,36,0,0,6.1,-8,50000,273,11.5,8.3
2020,4,13,14:00,UTC,7,992.6,48,0,0,5.8,-4.3,50000,278,10.2,7.3
2020,4,13,15:00,UTC,7,993.7,82,0.9,0,2,-0.9,11710,292,11.2,7.3
2020,4,13,16:00,UTC,6,994,73,0,0,2.2,-2.1,50000,282,11.2,8
2020,4,13,17:00,UTC,7,994.1,71,0,0,2,-2.7,50000,259,8.9,5.7
2020,4,13,18:00,UTC,5,994.3,79,0,0,0.9,-2.3,50000,244,9,5.3
2020,4,13,19:00,UTC,7,994,87,0,0,0.4,-1.5,50000,237,6.2,4.6
2020,4,13,20:00,UTC,8,993.8,87,0,0,0.4,-1.6,27960,240,6.5,4.6
2020,4,13,21:00,UTC,8,993.6,92,0,0,0,-1.1,7780,243,6.1,4.3
2020,4,13,22:00,UTC,7,993.5,89,0,0,0.2,-1.4,50000,235,5.3,4.1
2020,4,13,23:00,UTC,8,993.2,87,0,0,0.1,-1.8,45270,242,5.2,3.9
2020,4,14,00:00,UTC,8,992.9,91,0,0,0.2,-1.1,21670,261,5.9,4.2
2020,4,14,01:00,UTC,7,993,89,0,0,0.3,-1.3,50000,290,7,5.1
2020,4,14,02:00,UTC,6,993,92,0,0,-0.5,-1.6,10850,270,5.2,4
2020,4,14,03:00,UTC,7,992.9,93,0,0,-0.2,-1.2,5710,271,5.3,3.8
2020,4,14,04:00,UTC,8,992.9,96,0.5,0,0,-0.5,2950,281,4.7,3.5
2020,4,14,05:00,UTC,8,993.1,96,0.2,0,0.2,-0.4,3610,297,6.5,5
2020,4,14,06:00,UTC,8,993.7,95,0,0,0.5,-0.1,3710,312,6.5,4.5
2020,4,14,07:00,UTC,5,994.4,79,0,0,1.3,-2,50000,332,9.8,6.8
2020,4,14,08:00,UTC,8,995.3,90,0,0,1,-0.3,1350,352,9.9,5.7
2020,4,14,09:00,UTC,7,995.9,81,0,0,2.5,-0.4,45750,335,9.8,6.5
2020,4,14,10:00,UTC,7,996.5,75,0,0,3.1,-1,50000,334,12.3,8.3
2020,4,14,11:00,UTC,7,996.9,71,0,0,3.3,-1.4,33320,337,10.5,7.1
2020,4,14,12:00,UTC,5,997.2,61,0,0,3.8,-3.1,50000,317,11.1,7.1
2020,4,14,13:00,UTC,7,998.3,84,0,0,1.3,-1.1,7970,7,12.5,8.7
2020,4,14,14:00,UTC,1,998.4,65,0,0,4.3,-1.7,50000,357,8.8,5.7
2020,4,14,15:00,UTC,3,999.1,75,0,0,2.8,-1.3,50000,327,5,4
2020,4,14,16:00,UTC,5,999.6,76,0,0,3.1,-0.8,50000,300,7.1,5.2
2020,4,14,17:00,UTC,7,1000.1,90,0,0,1.4,0,50000,306,5.2,3.9
2020,4,14,18:00,UTC,7,1000.6,89,0,0,1.2,-0.4,10590,322,6,4.4
2020,4,14,19:00,UTC,5,1000.8,91,0,0,0.6,-0.6,50000,279,5.6,4.1
2020,4,14,20:00,UTC,7,1000.9,89,0,0,0.3,-1.2,50000,282,5.9,4.3
2020,4,14,21:00,UTC,0,1000.7,91,0,0,-0.5,-1.7,50000,278,4.6,3.5
2020,4,14,22:00,UTC,4,1000.4,89,0,0,-0.3,-2,50000,283,5.8,4.1
2020,4,14,23:00,UTC,4,1000.3,89,0,0,-0.5,-2.1,50000,267,4.1,3
2020,4,15,00:00,UTC,8,999.9,91,0,0,-0.8,-2.1,50000,244,2.4,1.9
2020,4,15,01:00,UTC,8,999.2,91,0,0,-0.8,-2,50000,231,2.9,2.6
2020,4,15,02:00,UTC,8,998.7,92,0,0,-0.8,-2,50000,226,3.2,2.6
2020,4,15,03:00,UTC,8,997.3,89,0,0,-0.3,-2,50000,197,3.6,3.1
2020,4,15,04:00,UTC,8,997.2,93,0,0,-0.3,-1.2,4270,244,5,3.6
2020,4,15,05:00,UTC,8,996.7,97,1.3,0,-0.3,-0.7,640,190,2.2,1.5
2020,4,15,06:00,UTC,8,995.7,98,1.7,2,0,-0.2,1370,135,3.6,3.1
2020,4,15,07:00,UTC,8,995,97,0,3,0.3,-0.1,2080,147,4.7,3.3
2020,4,15,08:00,UTC,8,994.7,95,0,3,1,0.3,4910,148,4.8,3.5
2020,4,15,09:00,UTC,8,995.1,94,0,2,1.7,0.8,11660,250,2.1,1
2020,4,15,10:00,UTC,8,995.5,93,0,0,2.4,1.5,7680,304,4.1,2.6
2020,4,15,11:00,UTC,8,996,89,0,0,4.4,2.7,21800,319,5.9,4.2
2020,4,15,12:00,UTC,8,996.7,87,0,0,5.5,3.4,30100,330,9.2,6.6
2020,4,15,13:00,UTC,7,997.5,84,0,0,5,2.6,49150,346,10.9,8
2020,4,15,14:00,UTC,5,997.8,78,0.5,0,6.3,2.8,50000,324,8,5.7
2020,4,15,15:00,UTC,5,998.3,65,0,0,7.3,1,50000,324,6.4,4.5
2020,4,15,16:00,UTC,6,998.5,69,0,0,6.7,1.3,50000,275,2.2,1.5
2020,4,15,17:00,UTC,7,998.4,73,0,0,6.8,2.3,50000,195,2.5,1.5
2020,4,15,18:00,UTC,0,998.7,68,0,0,4.5,-1,50000,260,4.9,3.6
2020,4,15,19:00,UTC,0,998.2,69,0,0,3.2,-2,50000,267,4.5,3.5
2020,4,15,20:00,UTC,8,997.1,71,0,0,2.7,-2.1,50000,249,3.9,3.5
2020,4,15,21:00,UTC,8,996.7,70,0,0,3.2,-1.8,50000,226,4.6,3.9
2020,4,15,22:00,UTC,8,996.1,73,0,0,3.8,-0.7,30050,241,7,4.5
2020,4,15,23:00,UTC,8,994.5,92,1.3,0,1.9,0.7,10740,217,4.4,3
2020,4,16,00:00,UTC,8,992.3,96,1.7,0,0.8,0.3,4040,123,4.6,3.6
2020,4,16,01:00,UTC,8,990.5,99,3.7,0,0.2,0,1350,120,5.3,3.9
2020,4,16,02:00,UTC,8,988.1,99,2.2,3,0.1,-0.1,570,105,7.9,5.5
2020,4,16,03:00,UTC,8,987.3,99,2.3,4,0.1,-0.1,1190,87,5.7,4.2
2020,4,16,04:00,UTC,8,987.3,99,0.4,5,0.2,0.1,2520,54,5.4,4.1
2020,4,16,05:00,UTC,8,987.8,98,0.7,5,0.3,0,2520,27,5.1,3.6
2020,4,16,06:00,UTC,8,987.9,98,0,5,0.4,0.1,13280,56,6.7,5.3
2020,4,16,07:00,UTC,8,989.3,97,0,5,0.7,0.2,4520,20,4.9,3.5
2020,4,16,08:00,UTC,8,990.7,98,1.4,5,0.4,0.1,1440,339,4.3,3.5
2020,4,16,09:00,UTC,8,992.3,97,0.6,6,0.9,0.4,4520,360,6.5,5
2020,4,16,10:00,UTC,8,993.8,94,0,5,1.8,0.8,50000,344,7.4,5.2
2020,4,16,11:00,UTC,7,995.1,91,0,5,2.7,1.4,49610,332,6.8,4.6
2020,4,16,12:00,UTC,6,996.5,85,0,3,3.9,1.7,50000,327,7.2,4.9
2020,4,16,13:00,UTC,4,997.1,75,0,2,5.4,1.3,50000,309,10.8,7.2
2020,4,16,14:00,UTC,2,997.7,69,0,2,6.3,1.1,48590,299,13.1,9.9
2020,4,16,15:00,UTC,1,997.8,66,0,0,6.8,0.8,50000,299,11.5,8.9
2020,4,16,16:00,UTC,5,998.8,78,0,0,4.8,1.4,50000,313,9,5.3
2020,4,16,17:00,UTC,3,999.6,82,0,0,3.8,1,50000,298,9.9,7.3
2020,4,16,18:00,UTC,4,1000.2,85,0,0,3.1,0.8,50000,296,7.7,6.3
2020,4,16,19:00,UTC,0,1000.3,83,0,0,2.4,-0.1,50000,293,7.2,5.9
2020,4,16,20:00,UTC,0,1000.7,82,0,0,2.1,-0.7,50000,296,7.7,6.3
2020,4,16,21:00,UTC,0,1000.8,84,0,0,1.6,-0.8,50000,276,8.1,5.9
2020,4,16,22:00,UTC,0,1000.8,84,0,0,1.3,-1.1,50000,284,8,5.7
2020,4,16,23:00,UTC,0,1000.8,84,0,0,1,-1.4,50000,291,9,6.5
2020,4,17,00:00,UTC,0,1000.9,85,0,0,0.7,-1.6,50000,298,7.4,6.1
2020,4,17,01:00,UTC,0,1000.9,85,0,0,0.6,-1.7,50000,299,8.4,6.5
2020,4,17,02:00,UTC,0,1001,84,0,0,0.4,-1.9,50000,301,8.5,6.6
2020,4,17,03:00,UTC,0,1001.1,83,0,0,0.2,-2.3,50000,297,7.6,6.2
2020,4,17,04:00,UTC,0,1001.3,80,0,0,0.8,-2.3,50000,299,8.8,6.8
2020,4,17,05:00,UTC,0,1001.7,74,0,0,1.7,-2.4,50000,304,11,7
2020,4,17,06:00,UTC,0,1001.8,70,0,0,2.9,-2.1,50000,311,10.4,7.2
2020,4,17,07:00,UTC,1,1001.7,62,0,0,3.9,-2.8,50000,300,11.9,9
2020,4,17,08:00,UTC,3,1001.9,55,0,0,4.8,-3.4,50000,304,14.1,10.7
2020,4,17,09:00,UTC,5,1001.9,50,0,0,5.1,-4.5,50000,308,14.6,10.5
2020,4,17,10:00,UTC,5,1002.4,47,0,0,5.9,-4.6,50000,312,14,9.3
2020,4,17,11:00,UTC,6,1002.8,44,0,0,6.2,-5.3,50000,328,13.5,8.6
2020,4,17,12:00,UTC,7,1003.2,39,0,0,6.6,-6.3,50000,321,14.5,9.6
2020,4,17,13:00,UTC,7,1003.4,39,0,0,6.9,-6.1,50000,319,13.8,9.2
2020,4,17,14:00,UTC,7,1004.5,51,0,0,5.8,-3.7,50000,323,15.6,10.5
2020,4,17,15:00,UTC,8000,1005.4,57,0,0,5.3,-2.6,50000,328,14.4,10
2020,4,17,16:00,UTC,7,1005.9,51,0,0,5.6,-3.7,50000,327,13.9,9.3
2020,4,17,17:00,UTC,8,1006.7,50,0,0,5.3,-4.3,50000,327,13.3,8.5
2020,4,17,18:00,UTC,8,1007.4,49,0,0,5.1,-4.8,50000,324,10,6.4
2020,4,17,19:00,UTC,8,1007.6,48,0,0,4.9,-5.1,50000,315,7.3,5.2
2020,4,17,20:00,UTC,8,1007.7,49,0,0,4.5,-5.2,50000,306,8.1,5.7
2020,4,17,21:00,UTC,5,1007.8,52,0,0,3.6,-5.3,50000,300,8.9,6.7
2020,4,17,22:00,UTC,0,1008.3,56,0,0,2.7,-5.2,50000,305,8,5.7
2020,4,17,23:00,UTC,0,1008.6,58,0,0,2.5,-5,50000,307,8.2,6.3
2020,4,18,00:00,UTC,0,1008.7,57,0,0,2.6,-5,50000,309,8.9,6.2
2020,4,18,01:00,UTC,0,1009.1,65,0,0,1.4,-4.5,50000,291,7.6,5.1
2020,4,18,02:00,UTC,0,1009.3,64,0,0,1.6,-4.5,50000,303,9,7.3
2020,4,18,03:00,UTC,0,1009.8,62,0,0,2.1,-4.4,50000,319,9.4,7.2
2020,4,18,04:00,UTC,0,1010.2,65,0,0,1.9,-4.1,50000,322,11,7.5
2020,4,18,05:00,UTC,0,1010.4,64,0,0,2.7,-3.5,50000,326,8.2,5.9
2020,4,18,06:00,UTC,0,1010.5,56,0,0,4.5,-3.6,50000,318,8.5,6.3
2020,4,18,07:00,UTC,0,1010.5,48,0,0,5.8,-4.4,50000,313,11.3,8.1
2020,4,18,08:00,UTC,0,1010.5,48,0,0,6.3,-3.8,50000,311,12,8.6
2020,4,18,09:00,UTC,3,1010.6,43,0,0,7.5,-4.1,50000,307,13.8,9.3
2020,4,18,10:00,UTC,1,1010.7,41,0,0,8.3,-4.3,50000,326,15.5,9.7
2020,4,18,11:00,UTC,5,1010.8,40,0,0,8.1,-4.8,50000,325,11.1,8.3
2020,4,18,12:00,UTC,2,1010.7,37,0,0,8.2,-5.5,50000,321,13.3,9.1
2020,4,18,13:00,UTC,5,1010.5,36,0,0,9.1,-5.4,50000,315,14.5,8.7
2020,4,18,14:00,UTC,7,1010.4,35,0,0,9.1,-5.7,50000,311,13.7,10
2020,4,18,15:00,UTC,6,1010.8,36,0,0,8.9,-5.5,50000,350,11.8,8.6
2020,4,18,16:00,UTC,8,1011.4,36,0,0,7.7,-6.4,50000,335,12.7,9.4
2020,4,18,17:00,UTC,6,1011.8,41,0,0,6.6,-5.6,50000,347,12.7,7.8
2020,4,18,18:00,UTC,7,1012.4,45,0,0,5.8,-5.4,50000,348,10.9,7.6
2020,4,18,19:00,UTC,5,1013,49,0,0,4.7,-5.2,50000,356,10.1,7.1
2020,4,18,20:00,UTC,8,1013.6,51,0,0,4.5,-4.8,50000,348,8.2,5.4
2020,4,18,21:00,UTC,8,1013.9,52,0,0,4.2,-4.7,50000,344,7.5,4.9
2020,4,18,22:00,UTC,8,1014.4,56,0,0,3.8,-4.2,50000,341,7.3,5
2020,4,18,23:00,UTC,8,1014.9,60,0,0,3.5,-3.7,50000,341,7.1,5.2
2020,4,19,00:00,UTC,8,1015.6,63,0,0,3.3,-3.1,50000,354,7.8,5.6
2020,4,19,01:00,UTC,5,1016,65,0,0,3,-2.9,50000,355,6.8,5.3
2020,4,19,02:00,UTC,1,1016.7,70,0,0,2,-2.8,50000,352,6.9,5.3
2020,4,19,03:00,UTC,0,1017.2,74,0,0,1.3,-2.9,50000,349,7.1,4.8
2020,4,19,04:00,UTC,0,1017.9,74,0,0,1.5,-2.7,50000,340,7.9,5.9
2020,4,19,05:00,UTC,0,1018.5,70,0,0,2.5,-2.5,50000,357,7.7,5.5
2020,4,19,06:00,UTC,0,1019.1,65,0,0,3.7,-2.3,50000,340,7.4,6
2020,4,19,07:00,UTC,0,1019.5,59,0,0,4.9,-2.4,50000,344,7.7,5.3
2020,4,19,08:00,UTC,2,1019.8,53,0,0,5.9,-3,50000,343,9.7,5.7
2020,4,19,09:00,UTC,7,1019.9,48,0,0,6.4,-3.7,50000,331,9.2,7
2020,4,19,10:00,UTC,3,1020,44,0,0,7.6,-4,50000,5,8.4,5.3
2020,4,19,11:00,UTC,4,1020.2,41,0,0,9,-3.6,50000,359,8.2,5.5
2020,4,19,12:00,UTC,4,1020.2,40,0,0,8.9,-3.9,50000,341,8.4,4.1
2020,4,19,13:00,UTC,2,1020.3,38,0,0,9.3,-4.2,50000,344,8.4,5.7
2020,4,19,14:00,UTC,4,1020.3,39,0,0,9.5,-3.9,50000,338,8.2,5.6
2020,4,19,15:00,UTC,4,1020.3,41,0,0,9,-3.6,50000,341,7.4,5.2
2020,4,19,16:00,UTC,5,1020.4,42,0,0,8.7,-3.4,50000,1,7.7,5.3
2020,4,19,17:00,UTC,7,1020.7,46,0,0,8,-2.9,50000,21,4.3,2.7
2020,4,19,18:00,UTC,8,1021.1,48,0,0,7.8,-2.6,50000,333,1.7,1.3
2020,4,19,19:00,UTC,8,1021.4,58,0,0,6.6,-1,50000,283,2.2,1.7
2020,4,19,20:00,UTC,8,1021.7,63,0,0,6.2,-0.4,50000,290,3.4,2.9
2020,4,19,21:00,UTC,8,1022,57,0,0,7,-1,50000,322,4.4,3.3
2020,4,19,22:00,UTC,8,1022.3,60,0,0,6.6,-0.6,50000,324,4.1,3
2020,4,19,23:00,UTC,8,1022.4,61,0,0,6.4,-0.5,50000,320,4,2.8
2020,4,20,00:00,UTC,8,1022.6,62,0,0,6.3,-0.4,50000,318,4,2.9
2020,4,20,01:00,UTC,8,1022.8,65,0,0,6,-0.2,50000,320,4.3,3
2020,4,20,02:00,UTC,8,1023,67,0,0,5.7,0,50000,328,3.7,2.5
2020,4,20,03:00,UTC,8,1023.3,67,0,0,5.5,0,50000,315,4.7,3.6
2020,4,20,04:00,UTC,0,1023.7,70,0,0,5.2,0.1,31020,330,4.5,3.5
2020,4,20,05:00,UTC,0,1023.9,67,0,0,6.1,0.4,50000,332,6.3,4.5
2020,4,20,06:00,UTC,0,1024.4,62,0,0,7.4,0.6,50000,344,8.4,5.6
2020,4,20,07:00,UTC,0,1024.3,54,0,0,9.2,0.5,50000,351,7.2,4.8
2020,4,20,08:00,UTC,7,1024.2,49,0,0,10.3,0,50000,327,10.7,6.4
2020,4,20,09:00,UTC,8,1024.6,51,0,0,10.2,0.6,50000,356,10.8,6.8
2020,4,20,10:00,UTC,8,1024.9,54,0,0,10.1,1.1,50000,350,8.5,5.8
2020,4,20,11:00,UTC,8,1025.2,53,0,0,10.4,1.2,50000,337,8,6.1
2020,4,20,12:00,UTC,8,1025.5,52,0,0,10.5,1.1,50000,348,8,6
2020,4,20,13:00,UTC,8,1025.3,51,0,0,11,1.2,50000,346,5.8,3.5
2020,4,20,14:00,UTC,7,1025.1,48,0,0,11.9,1.2,50000,333,6.2,4.2
2020,4,20,15:00,UTC,7,1024.9,45,0,0,13.3,1.5,50000,316,4.6,1.7
2020,4,20,16:00,UTC,8,1024.9,48,0,0,12,1.3,50000,34,2.2,1.3
2020,4,20,17:00,UTC,8,1025.1,52,0,0,11.4,1.8,50000,130,0.8,0.5
2020,4,20,18:00,UTC,8,1025.6,59,0,0,10.6,3,50000,223,1.1,0.6
2020,4,20,19:00,UTC,7,1025.8,63,0,0,9.3,2.6,50000,243,3.8,3.2
2020,4,20,20:00,UTC,8,1026.5,58,0,0,10,2,50000,7,8.8,6.2
2020,4,20,21:00,UTC,8,1027.2,59,0,0,9.3,1.6,50000,15,9.2,6.2
2020,4,20,22:00,UTC,8,1027.6,60,0,0,8.6,1.3,50000,23,6.2,4.7
2020,4,20,23:00,UTC,5,1027.9,64,0,0,7.8,1.4,50000,12,6.8,4.6
2020,4,21,00:00,UTC,6,1028.4,67,0,0,7.2,1.5,50000,1,4.4,3.3
2020,4,21,01:00,UTC,1,1028.5,70,0,0,6.3,1.3,50000,1,4.9,3.6
2020,4,21,02:00,UTC,0,1028.8,74,0,0,5.2,0.9,50000,1,5.4,4.5
2020,4,21,03:00,UTC,0,1029.3,79,0,0,4,0.7,50000,350,5.4,4.8
2020,4,21,04:00,UTC,0,1029.8,78,0,0,4.2,0.6,50000,354,5.8,4.8
2020,4,21,05:00,UTC,0,1029.9,71,0,0,5.7,0.8,50000,2,6,4.5
2020,4,21,06:00,UTC,0,1030.1,63,0,0,7.9,1.2,50000,7,5.3,3.5
2020,4,21,07:00,UTC,0,1030.2,54,0,0,10.1,1.1,24080,359,5.9,4
2020,4,21,08:00,UTC,1,1030.1,41,0,0,10.7,-2.2,18300,16,8.4,6.1
2020,4,21,09:00,UTC,0,1029.8,36,0,0,12.2,-2.4,42070,31,7.1,5.2
2020,4,21,10:00,UTC,0,1029.4,33,0,0,13,-2.9,26010,352,8.8,4.7
2020,4,21,11:00,UTC,0,1029.1,26,0,0,13.9,-5.1,33710,335,9.2,5.7
2020,4,21,12:00,UTC,0,1028.5,23,0,0,14.6,-6.5,43220,336,6.7,3.8
2020,4,21,13:00,UTC,0,1027.8,23,0,0,15,-6.2,33260,345,8,5
2020,4,21,14:00,UTC,0,1027.5,23,0,0,15.8,-5.5,50000,343,8.6,4.5
2020,4,21,15:00,UTC,0,1027.4,26,0,0,15.3,-4.3,50000,346,7.5,5.5
2020,4,21,16:00,UTC,0,1027.4,26,0,0,15.2,-4.2,50000,350,8,5.5
2020,4,21,17:00,UTC,0,1027.3,27,0,0,14.3,-4.4,50000,322,5.6,4.4
2020,4,21,18:00,UTC,0,1027.4,31,0,0,12.4,-4.2,50000,350,2.8,2.4
2020,4,21,19:00,UTC,0,1027.5,46,0,0,9,-1.9,50000,358,1.7,1.3
2020,4,21,20:00,UTC,0,1027.5,53,0,0,7.3,-1.7,50000,307,1,0.7
2020,4,21,21:00,UTC,0,1027.7,59,0,0,6,-1.5,50000,347,1.5,1.2
2020,4,21,22:00,UTC,0,1027.7,60,0,0,5.8,-1.4,50000,318,2.6,2
2020,4,21,23:00,UTC,0,1028,65,0,0,4.8,-1.4,50000,359,2.2,1.8
2020,4,22,00:00,UTC,0,1028.7,64,0,0,4.2,-1.9,50000,4,4.9,3.9
2020,4,22,01:00,UTC,3,1029.2,57,0,0,5.2,-2.6,50000,47,8.2,6
2020,4,22,02:00,UTC,6,1029.5,61,0,0,4.8,-2.1,50000,61,7.6,5.5
2020,4,22,03:00,UTC,0,1030,63,0,0,4.2,-2.2,50000,51,4.5,3.3
2020,4,22,04:00,UTC,7,1030.1,64,0,0,4.7,-1.5,46960,46,3.8,2.9
2020,4,22,05:00,UTC,2,1030.3,56,0,0,6.6,-1.6,31670,56,7.7,5.8
2020,4,22,06:00,UTC,0,1030.3,50,0,0,8,-1.7,50000,65,6.1,4.4
2020,4,22,07:00,UTC,0,1030,43,0,0,9.2,-2.6,50000,56,3.6,2.4
2020,4,22,08:00,UTC,0,1029.7,41,0,0,9.9,-2.7,50000,133,2.9,1.4
2020,4,22,09:00,UTC,0,1029.2,37,0,0,11.4,-2.8,23760,342,3.8,1.7
2020,4,22,10:00,UTC,0,1028.7,31,0,0,12,-4.5,50000,18,3.5,1.2
2020,4,22,11:00,UTC,0,1028,41,0,0,11.3,-1.6,50000,184,6.5,4.7
2020,4,22,12:00,UTC,2,1027.1,40,0,0,11.7,-1.4,49830,191,6.3,4.3
2020,4,22,13:00,UTC,1,1026.1,41,0,0,11.3,-1.6,50000,209,5.9,4.3
2020,4,22,14:00,UTC,0,1025.3,41,0,0,10.8,-1.9,50000,208,6.4,4.8
2020,4,22,15:00,UTC,4,1024.3,43,0,0,10.6,-1.7,50000,198,6.7,4.9
2020,4,22,16:00,UTC,7,1023.3,44,0,0,10.3,-1.3,50000,214,5.8,4.3
2020,4,22,17:00,UTC,7,1022.8,50,0,0,9.1,-1,50000,197,3.8,3
2020,4,22,18:00,UTC,4,1022.4,56,0,0,8,-0.3,50000,207,2.3,2
2020,4,22,19:00,UTC,0,1022.1,59,0,0,6.7,-0.9,50000,245,2.9,2.4
2020,4,22,20:00,UTC,0,1021.4,63,0,0,5.5,-0.9,50000,263,2.6,2.2
2020,4,22,21:00,UTC,0,1021.2,64,0,0,6,-0.3,50000,315,4.1,3.1
2020,4,22,22:00,UTC,0,1021.2,66,0,0,4.7,-1,50000,353,3.3,2.6
2020,4,22,23:00,UTC,0,1020.8,74,0,0,3.5,-0.7,50000,303,2.6,1.9
2020,4,23,00:00,UTC,0,1020.5,77,0,0,2.2,-1.5,50000,322,2.3,1.1
2020,4,23,01:00,UTC,0,1019.9,74,0,0,2.7,-1.4,50000,307,4,3
2020,4,23,02:00,UTC,0,1019.5,74,0,0,2.8,-1.4,50000,329,2.9,2.1
2020,4,23,03:00,UTC,0,1019.4,79,0,0,1.6,-1.6,50000,311,4.1,3.5
2020,4,23,04:00,UTC,0,1019.3,73,0,0,3.2,-1.2,50000,328,3.7,2.7
2020,4,23,05:00,UTC,0,1018.9,66,0,0,4.3,-1.5,50000,329,2.8,1.9
2020,4,23,06:00,UTC,1,1018.5,58,0,0,6.5,-1.3,50000,348,2.6,1.6
2020,4,23,07:00,UTC,0,1017.8,47,0,0,9,-1.9,50000,309,1.6,0.6
2020,4,23,08:00,UTC,0,1017,43,0,0,10.3,-1.6,50000,323,5.9,2.8
2020,4,23,09:00,UTC,0,1016.2,42,0,0,11.4,-1.2,50000,359,6.6,4.3
2020,4,23,10:00,UTC,0,1015.6,32,0,0,12.2,-4.2,50000,351,7.8,4.8
2020,4,23,11:00,UTC,0,1014.9,31,0,0,13.1,-3.7,50000,342,7.9,4.3
2020,4,23,12:00,UTC,0,1014.2,24,0,0,13.3,-6.6,50000,330,8.2,5.7
2020,4,23,13:00,UTC,0,1013.4,26,0,0,13.2,-5.7,50000,354,7.1,3.2
2020,4,23,14:00,UTC,1,1012.7,25,0,0,13.3,-6.4,50000,320,8.3,4.6
2020,4,23,15:00,UTC,1,1012,28,0,0,13.4,-5,50000,336,9,5.2
2020,4,23,16:00,UTC,0,1011.3,30,0,0,12,-4.9,50000,350,8.7,6.1
2020,4,23,17:00,UTC,0,1010.8,28,0,0,10.8,-6.9,50000,360,6.2,3.9
2020,4,23,18:00,UTC,0,1010.5,35,0,0,9.3,-5.4,50000,353,4.4,3.3
2020,4,23,19:00,UTC,7,1009.9,38,0,0,8.4,-5,50000,6,2.1,1.8
2020,4,23,20:00,UTC,7,1009.4,42,0,0,7.6,-4.4,50000,9,3.3,2.8
2020,4,23,21:00,UTC,5,1008.9,46,0,0,7.1,-3.7,50000,350,2.6,2
2020,4,23,22:00,UTC,8,1008.6,54,0,0,6.2,-2.4,50000,308,2.6,2.2
2020,4,23,23:00,UTC,8,1007.6,54,0,0,6.1,-2.5,50000,321,1.5,0.8
2020,4,24,00:00,UTC,4,1006.7,60,0,0,5.1,-2,50000,291,3.3,2.4
2020,4,24,01:00,UTC,7,1006.1,61,0,0,5.1,-1.8,50000,302,5.9,4.7
2020,4,24,02:00,UTC,8,1005.4,61,0,0,4.7,-2.1,50000,308,5.6,4.2
2020,4,24,03:00,UTC,8,1004.8,62,0,0,4.5,-2.1,50000,314,7.5,4.5
2020,4,24,04:00,UTC,8,1004.3,68,0,0,4.4,-1.1,50000,312,6.2,4.4
2020,4,24,05:00,UTC,8,1003.8,71,0,0,4.8,0,50000,309,7.3,4.9
2020,4,24,06:00,UTC,8,1003.6,71,0,0,5.4,0.6,50000,316,8.4,5.9
2020,4,24,07:00,UTC,7,1003.2,64,0,0,6.7,0.5,50000,319,8.8,6.2
2020,4,24,08:00,UTC,8,1002.8,60,0,0,7.2,-0.1,50000,308,7.9,5.8
2020,4,24,09:00,UTC,8,1002.5,55,0,0,8.1,-0.6,50000,330,7.7,5.8
2020,4,24,10:00,UTC,7,1002.4,46,0,0,9.7,-1.2,50000,332,9.7,7.3
2020,4,24,11:00,UTC,7,1002.4,47,0,0,9.6,-1.1,50000,356,9.7,7.3
2020,4,24,12:00,UTC,8,1002.3,48,0,0,8.9,-1.4,50000,335,8.7,4.6
2020,4,24,13:00,UTC,7,1001.9,49,0,0,9.2,-1.1,50000,341,7.2,5.2
2020,4,24,14:00,UTC,8,1002.2,70,0,0,6.7,1.6,50000,2,9.1,6.8
2020,4,24,15:00,UTC,7,1002,58,0,0,7.6,-0.2,50000,353,7.8,5.1
2020,4,24,16:00,UTC,5,1001.5,47,0,0,7.8,-3,50000,349,8.6,6.3
2020,4,24,17:00,UTC,4,1001.3,51,0,0,7.3,-2.1,50000,314,4.9,3.5
2020,4,24,18:00,UTC,1,1001.4,41,0,0,6.6,-5.7,50000,338,7.5,5.5
2020,4,24,19:00,UTC,0,1001.7,43,0,0,5.3,-6.4,49570,333,4.3,3.5
2020,4,24,20:00,UTC,0,1002,44,0,0,4,-7.3,50000,337,5.1,4
2020,4,24,21:00,UTC,0,1002.4,34,0,0,2.9,-11.3,50000,360,8.1,5.5
2020,4,24,22:00,UTC,0,1002.8,40,0,0,1.7,-10.3,50000,353,6.2,4.8
2020,4,24,23:00,UTC,0,1003.2,45,0,0,0.6,-9.9,50000,3,6.9,5.1
2020,4,25,00:00,UTC,0,1003.4,52,0,0,-0.5,-9.2,50000,355,4.8,3.7
2020,4,25,01:00,UTC,0,1003.6,55,0,0,-1,-8.9,50000,345,4.7,3.3
2020,4,25,02:00,UTC,0,1003.7,58,0,0,-1.6,-8.9,50000,348,4,3
2020,4,25,03:00,UTC,0,1003.8,60,0,0,-2,-8.7,50000,337,3.6,2.5
2020,4,25,04:00,UTC,0,1004,58,0,0,-1.2,-8.4,50000,333,5.4,3.6
2020,4,25,05:00,UTC,0,1003.9,52,0,0,0.7,-8,50000,356,4.6,3.2
2020,4,25,06:00,UTC,0,1003.8,47,0,0,1.9,-8.3,50000,353,6.4,4.6
2020,4,25,07:00,UTC,0,1003.6,40,0,0,3.2,-9.2,50000,336,8.1,4.7
2020,4,25,08:00,UTC,0,1003.3,35,0,0,4.6,-9.5,50000,336,7.8,5.5
2020,4,25,09:00,UTC,1,1002.9,34,0,0,5.2,-9.4,50000,304,7.7,3
2020,4,25,10:00,UTC,2,1002.5,34,0,0,6.2,-8.6,50000,293,7.4,4.5
2020,4,25,11:00,UTC,5,1002,32,0,0,7.1,-8.6,50000,306,8.8,5.7
2020,4,25,12:00,UTC,4,1001.5,31,0,0,7.6,-8.4,50000,290,8.3,5.5
2020,4,25,13:00,UTC,5,1000.9,30,0,0,8.2,-8.4,50000,304,9.2,5.8
2020,4,25,14:00,UTC,7,1000.6,37,0,0,7.9,-6.1,50000,292,9.8,6.8
2020,4,25,15:00,UTC,3,1000.4,49,0,0,6.5,-3.5,50000,271,8.2,6.3
2020,4,25,16:00,UTC,3,1000.4,64,0,0,5.2,-1.2,50000,305,7.6,5.5
2020,4,25,17:00,UTC,8,1000.1,60,0,0,5.1,-2.2,50000,290,4.6,3.3
2020,4,25,18:00,UTC,8,1000.2,61,0,0,4.9,-2,50000,277,4.9,3.5
2020,4,25,19:00,UTC,3,1000.5,64,0,0,3.9,-2.3,50000,287,4.8,3.7
2020,4,25,20:00,UTC,2,1000.6,68,0,0,3.4,-2,50000,306,5.2,3.8
2020,4,25,21:00,UTC,6,1000.9,75,0,0,1.9,-2.1,50000,278,4.3,3.5
2020,4,25,22:00,UTC,0,1001.3,74,0,0,1.4,-2.8,50000,292,4.8,3.7
2020,4,25,23:00,UTC,0,1001.5,74,0,0,1,-3.1,50000,310,4.8,3.6
2020,4,26,00:00,UTC,0,1001.8,77,0,0,-0.1,-3.7,50000,300,3.8,3
2020,4,26,01:00,UTC,1,1002,77,0,0,-0.6,-4,50000,300,4.9,3.9
2020,4,26,02:00,UTC,5,1002.1,78,0,0,-1.2,-4.6,50000,286,4,3.5
2020,4,26,03:00,UTC,0,1002,75,0,0,-1.1,-4.9,50000,299,3.9,3.3
2020,4,26,04:00,UTC,2,1002.2,71,0,0,-0.1,-4.8,50000,303,4.4,3.3
2020,4,26,05:00,UTC,8,1002.3,60,0,0,1.8,-5.3,50000,299,3.1,2.4
2020,4,26,06:00,UTC,8,1002.3,53,0,0,3.5,-5.2,50000,301,3.6,2.8
2020,4,26,07:00,UTC,2,1002.4,39,0,0,6,-7,50000,301,4.8,3.2
2020,4,26,08:00,UTC,0,1002.6,33,0,0,7,-8.4,50000,300,7,5.2
2020,4,26,09:00,UTC,0,1002.9,30,0,0,7.7,-8.7,50000,289,8.9,6.8
2020,4,26,10:00,UTC,1,1002.8,32,0,0,8.6,-7.3,50000,269,8.9,5.9
2020,4,26,11:00,UTC,5,1003,37,0,0,7.8,-5.9,50000,329,7.2,4.8
2020,4,26,12:00,UTC,5,1003.3,40,0,0,8,-4.6,50000,328,6.5,4.2
2020,4,26,13:00,UTC,7,1003.9,50,0,0,7,-2.8,50000,294,6.3,4.3
2020,4,26,14:00,UTC,7,1003.8,50,0,0,7,-2.7,50000,273,6.1,4.3
2020,4,26,15:00,UTC,7,1003.8,47,0,0,7.8,-2.8,50000,288,5.9,4.1
2020,4,26,16:00,UTC,7,1004.2,50,0,0,6.7,-3,50000,342,8.7,5.8
2020,4,26,17:00,UTC,7,1004.6,55,0,0,6,-2.5,50000,336,3.3,2.5
2020,4,26,18:00,UTC,8,1005.2,57,0,0,5.5,-2.3,50000,316,2.3,1.7
2020,4,26,19:00,UTC,8,1005.5,55,0,0,5.4,-3,50000,315,5.1,3.2
2020,4,26,20:00,UTC,8,1006,55,0,0,4.9,-3.4,50000,317,3.6,2.6
2020,4,26,21:00,UTC,8,1006.3,55,0,0,4.5,-3.7,50000,316,4.1,3.1
2020,4,26,22:00,UTC,8,1006.9,58,0,0,4,-3.6,50000,329,4.6,3.3
2020,4,26,23:00,UTC,4,1007.3,61,0,0,3.1,-3.8,50000,329,4.6,3.5
2020,4,27,00:00,UTC,4,1007.7,66,0,0,2,-3.6,50000,330,3.7,2.8
2020,4,27,01:00,UTC,0,1008,71,0,0,1.1,-3.7,50000,337,5.3,4.3
2020,4,27,02:00,UTC,0,1008.5,68,0,0,0.6,-4.6,50000,343,4.6,3.5
2020,4,27,03:00,UTC,0,1008.8,68,0,0,0.4,-4.8,50000,337,5.1,3.5
2020,4,27,04:00,UTC,0,1009.2,65,0,0,1.1,-4.7,50000,325,4.8,3.4
2020,4,27,05:00,UTC,0,1009.5,62,0,0,2.2,-4.4,50000,351,5.8,4.3
2020,4,27,06:00,UTC,0,1010,56,0,0,3.9,-4.2,50000,340,5,3.8
2020,4,27,07:00,UTC,0,1010.2,47,0,0,4.7,-5.6,50000,357,7.6,4.3
2020,4,27,08:00,UTC,4,1010.3,41,0,0,6,-6.3,50000,305,8.7,4.4
2020,4,27,09:00,UTC,3,1010.4,34,0,0,7.3,-7.4,46420,20,7,4.8
2020,4,27,10:00,UTC,8,1010.6,36,0,0,6.4,-7.5,45390,341,6.4,3.8
2020,4,27,11:00,UTC,7,1010.7,33,0,0,7,-8.4,50000,11,7.4,4
2020,4,27,12:00,UTC,8,1010.8,32,0,0,7.4,-8.3,50000,349,5.3,3
2020,4,27,13:00,UTC,6,1010.6,32,0,0,7,-8.7,50000,349,5.5,2.9
2020,4,27,14:00,UTC,7,1010.4,28,0,0,7.7,-9.5,50000,346,6.1,3.8
2020,4,27,15:00,UTC,8,1010.4,30,0,0,7.7,-8.7,50000,329,4.7,2.9
2020,4,27,16:00,UTC,8,1010.5,30,0,0,7.3,-9.3,50000,3,3.8,2.7
2020,4,27,17:00,UTC,8,1010.7,46,0,0,6.3,-4.4,50000,249,5.1,3.9
2020,4,27,18:00,UTC,8,1010.9,51,0,0,5.3,-4,50000,244,5.9,4.7
2020,4,27,19:00,UTC,8,1010.9,59,0,0,4.6,-2.8,50000,225,3,2.5
2020,4,27,20:00,UTC,8,1010.8,61,0,0,4.1,-2.7,50000,220,2.2,2
2020,4,27,21:00,UTC,8,1010.6,66,0,0,3.7,-2,50000,227,1.6,1.3
2020,4,27,22:00,UTC,8,1010.4,68,0,0,3.5,-1.9,50000,229,1.6,1.3
2020,4,27,23:00,UTC,8,1010,69,0,0,3,-2.2,50000,24,1.9,1.6
2020,4,28,00:00,UTC,8,1009.6,74,0,0,2.7,-1.5,50000,120,1.4,1.1
2020,4,28,01:00,UTC,8,1009.3,75,0,0,2.3,-1.7,50000,133,1.7,1.4
2020,4,28,02:00,UTC,8,1008.9,76,0,0,2.1,-1.7,50000,91,1.9,1.7
2020,4,28,03:00,UTC,8,1008.4,77,0,0,2,-1.6,50000,111,2,1.6
2020,4,28,04:00,UTC,8,1008.1,78,0,0,3.4,-0.1,50000,155,3.2,2.1
2020,4,28,05:00,UTC,8,1007.7,71,0,0,4.6,-0.3,50000,167,3,1.9
2020,4,28,06:00,UTC,7,1007.5,51,0,0,5.6,-3.8,50000,183,3.4,2.2
2020,4,28,07:00,UTC,1,1006.9,38,0,0,6.2,-7,50000,164,4,2.5
2020,4,28,08:00,UTC,2,1006.4,37,0,0,6.6,-7.2,50000,153,4.8,2.8
2020,4,28,09:00,UTC,7,1005.8,37,0,0,7,-6.8,50000,136,5.9,3.6
2020,4,28,10:00,UTC,8,1005.4,39,0,0,6,-6.8,50000,151,8.8,5.9
2020,4,28,11:00,UTC,8,1005.1,43,0,0,5.8,-6,50000,137,7.5,5.1
2020,4,28,12:00,UTC,8,1004.8,49,0,0,4.9,-4.9,50000,150,7.8,4.7
2020,4,28,13:00,UTC,8,1004.5,63,0,0,3.7,-2.7,23600,123,6.2,2.9
2020,4,28,14:00,UTC,7,1004,59,0,0,4.3,-3.1,44470,88,4.6,2.9
2020,4,28,15:00,UTC,8,1003.5,54,0,0,4.8,-3.8,50000,101,5.9,4
2020,4,28,16:00,UTC,7,1003.2,54,0,0,4.7,-3.9,50000,86,6.3,3.9
2020,4,28,17:00,UTC,7,1002.8,54,0,0,4.6,-3.9,50000,37,5.4,3.9
2020,4,28,18:00,UTC,8,1002.7,61,0,0,3.8,-3,50000,29,4.9,3.7
2020,4,28,19:00,UTC,8,1002.7,78,0,0,2.9,-0.6,50000,25,7.2,5.2
2020,4,28,20:00,UTC,8,1002.5,86,0,0,2.3,0.2,29290,23,6.2,4.8
2020,4,28,21:00,UTC,7,1002.4,90,0,0,2,0.5,48830,20,6.9,5
2020,4,28,22:00,UTC,8,1002.4,90,0,0,2,0.4,44840,22,8.2,5
2020,4,28,23:00,UTC,8,1002.6,95,0.5,0,1.1,0.5,8620,1,6.6,5.2
2020,4,29,00:00,UTC,8,1002.8,94,0.5,0,1.2,0.3,11030,12,6.9,5
2020,4,29,01:00,UTC,8,1003.3,93,0,0,1.1,0,25190,6,5.9,4.3
2020,4,29,02:00,UTC,8,1003.5,95,0,0,0.9,0.1,37220,348,4.4,3.3
2020,4,29,03:00,UTC,1,1003.9,93,0,0,0.7,-0.3,50000,344,4.7,3.5
2020,4,29,04:00,UTC,4,1004.3,93,0,0,0.7,-0.3,50000,359,5.9,4.7
2020,4,29,05:00,UTC,7,1005,89,0,0,1.4,-0.3,50000,360,7.3,4.8
2020,4,29,06:00,UTC,7,1005.6,85,0,0,2.5,0.2,50000,9,6.7,4.8
2020,4,29,07:00,UTC,7,1006.1,75,0,0,3.7,-0.3,50000,26,6.8,4.3
2020,4,29,08:00,UTC,7,1006.6,83,1.1,0,2.6,0,50000,22,3.2,1.8
2020,4,29,09:00,UTC,3,1006.6,63,0,0,5.5,-1.1,50000,70,4.5,2.5
2020,4,29,10:00,UTC,8,1007.5,86,0,0,2.3,0.3,23040,336,8.1,6.3
2020,4,29,11:00,UTC,5,1007.9,62,0,0,5.5,-1.3,50000,69,5.7,3.1
2020,4,29,12:00,UTC,8,1008.8,87,0,0,2.6,0.7,50000,46,6.4,4.3
2020,4,29,13:00,UTC,7,1009.4,83,2.6,0,2.8,0.2,10100,79,4.7,2.9
2020,4,29,14:00,UTC,0,1009.3,68,0,0,5.3,-0.2,50000,254,3.4,1.5
2020,4,29,15:00,UTC,7,1009.7,62,0,0,4.3,-2.4,50000,350,5.9,3.6
2020,4,29,16:00,UTC,6,1010.4,66,0,0,4.7,-1.1,50000,70,9,4.6
2020,4,29,17:00,UTC,6,1011,76,0,0,3.7,-0.2,50000,149,2.4,1.7
2020,4,29,18:00,UTC,7,1011.5,74,0,0,3.4,-0.8,50000,40,2.9,1.8
2020,4,29,19:00,UTC,1,1011.9,73,0,0,2.1,-2.3,50000,50,1.5,0.9
2020,4,29,20:00,UTC,0,1012.4,83,0,0,0.7,-1.8,50000,336,1.5,1.2
2020,4,29,21:00,UTC,0,1012.8,89,0,0,-0.6,-2.2,50000,23,2.1,1.2
2020,4,29,22:00,UTC,1,1013.2,84,0,0,-0.8,-3.1,50000,352,3.7,2.9
2020,4,29,23:00,UTC,0,1013.6,87,0,0,-1.5,-3.4,50000,9,3.5,2.6
2020,4,30,00:00,UTC,0,1013.9,83,0,0,-1.5,-4.1,50000,30,2.5,1.6
2020,4,30,01:00,UTC,0,1014.4,79,0,0,-1.6,-4.7,50000,27,3,2.4
2020,4,30,02:00,UTC,3,1014.8,77,0,0,-1.8,-5.3,50000,24,3.3,2.9
2020,4,30,03:00,UTC,7,1015,76,0,0,-1.6,-5.2,50000,27,2.5,2
2020,4,30,04:00,UTC,7,1015.4,73,0,0,-0.9,-5.1,50000,31,2.9,1.9
2020,4,30,05:00,UTC,7,1015.5,66,0,0,1.3,-4.3,50000,42,3.2,2
2020,4,30,06:00,UTC,0,1015.5,51,0,0,3.3,-5.8,50000,71,3.6,2.7
2020,4,30,07:00,UTC,1,1015.6,45,0,0,4,-7,50000,94,4.7,2.3
2020,4,30,08:00,UTC,5,1015.5,43,0,0,5.8,-5.7,50000,36,3.4,1.8
2020,4,30,09:00,UTC,1,1015.5,39,0,0,4.7,-8,50000,107,2.2,1.3
2020,4,30,10:00,UTC,6,1015.5,47,0,0,5.3,-5.2,50000,178,6.2,3.3
2020,4,30,11:00,UTC,7,1015.7,45,0,0,6.1,-4.9,50000,156,6.1,4
2020,4,30,12:00,UTC,5,1015.8,45,0,0,6.5,-4.7,50000,197,7,4
2020,4,30,13:00,UTC,7,1015.4,43,0,0,6.1,-5.6,50000,199,4.6,3
2020,4,30,14:00,UTC,5,1015.4,42,0,0,5.7,-6.3,50000,142,6.9,4.9
2020,4,30,15:00,UTC,0,1015.2,40,0,0,5.8,-6.8,50000,159,6.6,3.5
2020,4,30,16:00,UTC,0,1015.1,41,0,0,5.7,-6.6,50000,145,6.1,4.3
2020,4,30,17:00,UTC,0,1015.3,41,0,0,4.9,-7.4,50000,129,6.3,4.9
2020,4,30,18:00,UTC,0,1015.5,55,0,0,3.7,-4.5,50000,132,5.6,4.2
2020,4,30,19:00,UTC,0,1015.7,65,0,0,2.5,-3.5,50000,120,4.1,3.2
2020,4,30,20:00,UTC,0,1015.8,75,0,0,0.3,-3.7,50000,87,3.4,3
2020,4,30,21:00,UTC,1,1015.8,77,0,0,-0.3,-3.8,50000,99,3,2.3
2020,4,30,22:00,UTC,4,1015.7,79,0,0,-0.6,-3.8,50000,87,4.1,3.4
2020,4,30,23:00,UTC,1,1015.6,82,0,0,-1.2,-3.8,50000,77,4.2,3.7
2020,5,1,00:00,UTC,0,1015.8,83,0,0,-1.4,-3.9,50000,88,3.3,2.5
2020,5,1,01:00,UTC,0,1015.8,86,0,0,-1.3,-3.4,50000,90,4.3,3.5
2020,5,1,02:00,UTC,0,1015.6,87,0,0,-1.3,-3.1,50000,85,4,3.3
2020,5,1,03:00,UTC,0,1015.3,86,0,0,-0.5,-2.6,50000,86,4.5,3.6
2020,5,1,04:00,UTC,2,1015.1,79,0,0,1.6,-1.6,50000,90,5.2,4
2020,5,1,05:00,UTC,1,1014.8,72,0,0,4.1,-0.6,50000,103,5.7,4.3
2020,5,1,06:00,UTC,0,1014.3,58,0,0,6,-1.7,50000,116,7.4,5
2020,5,1,07:00,UTC,0,1014.2,50,0,0,7.3,-2.5,50000,110,9,6.1
2020,5,1,08:00,UTC,0,1013.7,45,0,0,7.8,-3.4,50000,116,12,8
2020,5,1,09:00,UTC,6,1013.3,44,0,0,8.7,-2.8,50000,123,9.8,7.6
2020,5,1,10:00,UTC,5,1012.9,46,0,0,9.3,-1.9,50000,135,11.6,8.5
2020,5,1,11:00,UTC,1,1012.8,43,0,0,9.7,-2.1,50000,116,12.9,9.5
2020,5,1,12:00,UTC,0,1012.2,41,0,0,9.6,-3.1,50000,113,13.5,10.2
2020,5,1,13:00,UTC,3,1011.9,39,0,0,9.1,-4,50000,124,14.2,9.8
2020,5,1,14:00,UTC,0,1011.4,39,0,0,9.2,-3.9,50000,119,12.9,9.2
2020,5,1,15:00,UTC,4,1010.9,43,0,0,8.5,-3.4,50000,107,12.5,8.6
2020,5,1,16:00,UTC,8,1010.8,47,0,0,7.9,-2.9,50000,108,10.8,7.9
2020,5,1,17:00,UTC,7,1010.7,49,0,0,7.7,-2.4,50000,107,10.4,7.3
2020,5,1,18:00,UTC,6,1010.1,49,0,0,7.6,-2.3,50000,102,11.5,7.7
2020,5,1,19:00,UTC,8,1010,51,0,0,7.4,-2,50000,97,9.2,6.6
2020,5,1,20:00,UTC,8,1009.6,50,0,0,7.4,-2.2,50000,99,8.4,6.2
2020,5,1,21:00,UTC,2,1009.4,52,0,0,8,-1.2,50000,115,8.4,6.2
2020,5,1,22:00,UTC,1,1009.1,52,0,0,8.1,-1.1,50000,121,10.3,7.6
2020,5,1,23:00,UTC,0,1008.8,55,0,0,7.5,-1,50000,123,11.4,7.8
2020,5,2,00:00,UTC,0,1008.1,57,0,0,7,-0.9,50000,120,10.2,7.6
2020,5,2,01:00,UTC,0,1007.8,60,0,0,6.5,-0.8,50000,121,9.5,6.4
2020,5,2,02:00,UTC,0,1007.3,62,0,0,6.3,-0.5,50000,121,9.9,6.8
2020,5,2,03:00,UTC,0,1006.8,62,0,0,6.2,-0.5,50000,122,9.3,6.4
2020,5,2,04:00,UTC,0,1006.7,61,0,0,6.8,-0.2,50000,120,8.1,6
2020,5,2,05:00,UTC,0,1006.6,59,0,0,7.5,0.1,50000,126,9.2,6.3
2020,5,2,06:00,UTC,0,1006.3,57,0,0,8.6,0.4,50000,129,7.5,5.6
2020,5,2,07:00,UTC,0,1006.4,54,0,0,9.4,0.6,50000,134,8.2,5.5
2020,5,2,08:00,UTC,0,1006.1,50,0,0,11.2,1.1,50000,137,9.3,6.1
2020,5,2,09:00,UTC,1,1006.1,47,0,0,12.6,1.8,50000,129,8.8,6.6
2020,5,2,10:00,UTC,0,1005.6,45,0,0,14.2,2.5,50000,137,11.7,9.2
2020,5,2,11:00,UTC,2,1005.4,42,0,0,13.7,0.9,50000,129,13.2,9.4
2020,5,2,12:00,UTC,7,1005.3,42,0,0,13.4,0.7,50000,125,11.9,8.7
2020,5,2,13:00,UTC,8,1005,44,0,0,13.1,1.3,48030,117,10.1,7
2020,5,2,14:00,UTC,8,1004.9,47,0,0,12.6,1.7,50000,122,7.8,5.7
2020,5,2,15:00,UTC,8,1004.7,70,1.1,0,10.3,5,41470,104,7.7,5.6
2020,5,2,16:00,UTC,8,1004.7,81,1,0,9.3,6.3,19550,99,5,3.7
2020,5,2,17:00,UTC,8,1004.8,89,2.7,0,8.3,6.7,11050,106,5.5,4.1
2020,5,2,18:00,UTC,8,1004.5,94,1.9,0,7.8,6.9,11210,98,5.3,4
2020,5,2,19:00,UTC,8,1004,94,1,0,8.1,7.3,12870,102,5.8,4.4
2020,5,2,20:00,UTC,8,1003.7,97,1.3,0,8.2,7.6,7040,108,5.5,4.1
2020,5,2,21:00,UTC,8,1003.3,96,0,0,8.5,7.8,10220,125,4.5,3.3
2020,5,2,22:00,UTC,8,1003.1,93,0,0,8.7,7.7,42810,140,4.8,3.7
2020,5,2,23:00,UTC,8,1003,95,0,0,8.2,7.5,14140,160,5.2,3.9
2020,5,3,00:00,UTC,8,1002.7,98,0,0,7.5,7.2,3890,204,2.7,2
2020,5,3,01:00,UTC,9,1002.9,99,0,0,7.5,7.4,350,244,3.1,2.4
2020,5,3,02:00,UTC,8,1003.3,99,0,0,7.6,7.4,9790,250,4.4,3.1
2020,5,3,03:00,UTC,8,1003.4,96,0,0,7.9,7.3,21870,252,5,4
2020,5,3,04:00,UTC,8,1003.8,93,0,0,7.8,6.7,31470,263,7.7,5.7
2020,5,3,05:00,UTC,8,1004.2,91,0,0,7.7,6.3,50000,268,7,5.2
2020,5,3,06:00,UTC,8,1004.6,88,0,0,7.7,5.9,50000,266,7.3,5.4
2020,5,3,07:00,UTC,7,1005.1,80,0,0,8.8,5.6,50000,253,5.6,4.3
2020,5,3,08:00,UTC,7,1005.7,76,0,0,9.6,5.5,50000,282,6.5,4.1
2020,5,3,09:00,UTC,7,1006.1,63,0,0,11.6,4.9,46500,254,7.1,5.3
2020,5,3,10:00,UTC,6,1006.3,60,0,0,11.5,4.1,50000,291,6.8,4.3
2020,5,3,11:00,UTC,4,1006.7,55,0,0,13.2,4.4,50000,253,7.5,4.9
2020,5,3,12:00,UTC,6,1007.2,53,0,0,12.7,3.2,50000,290,6.9,5.1
2020,5,3,13:00,UTC,7,1007.4,54,0,0,13,3.9,50000,284,8.2,6.2
2020,5,3,14:00,UTC,3,1007.9,49,0,0,13.9,3.3,50000,263,8.3,5.5
2020,5,3,15:00,UTC,5,1008.3,49,0,0,13.6,3,50000,250,9.7,7.2
2020,5,3,16:00,UTC,3,1008.7,59,0,0,12.3,4.4,50000,223,8.3,5.9
2020,5,3,17:00,UTC,0,1009.1,59,0,0,11.6,3.9,50000,228,6.4,4.3
2020,5,3,18:00,UTC,7,1009.3,62,0,0,10.2,3.2,50000,223,7.3,4.7
2020,5,3,19:00,UTC,3,1009.3,70,0,0,8.7,3.6,50000,215,5,3.9
2020,5,3,20:00,UTC,0,1009.9,83,0,0,7.2,4.4,50000,226,4.3,3.2
2020,5,3,21:00,UTC,2,1010.4,91,0,0,6.7,5.3,50000,204,4.5,3.4
2020,5,3,22:00,UTC,5,1010.5,96,0,0,6.3,5.7,24790,221,5.4,3.9
2020,5,3,23:00,UTC,8,1010.5,97,0,0,6.1,5.6,9050,212,4.7,3.8
2020,5,4,00:00,UTC,8,1010.6,97,0,0,5.1,4.7,7370,227,5.5,4.2
2020,5,4,01:00,UTC,9,1010.9,99,0,0,4.9,4.7,830,234,4.4,3.5
2020,5,4,02:00,UTC,8,1011,99,0,0,5,4.8,5320,205,4.7,3.3
2020,5,4,03:00,UTC,8,1011.3,98,0,0,4.9,4.5,5800,231,6.1,4.7
2020,5,4,04:00,UTC,9,1011.6,99,0,0,5,4.9,1090,246,3.9,3
2020,5,4,05:00,UTC,8,1011.6,93,0,0,5.7,4.7,50000,244,4.9,3.5
2020,5,4,06:00,UTC,8,1012.3,93,0,0,5.7,4.7,34280,233,6.4,4.6
2020,5,4,07:00,UTC,8,1012.8,90,0,0,6.2,4.6,50000,243,5.3,3.8
2020,5,4,08:00,UTC,8,1013.1,85,0,0,7.3,4.8,50000,246,5.1,3.3
2020,5,4,09:00,UTC,8,1013.6,84,0,0,7.9,5.4,50000,237,5.6,4
2020,5,4,10:00,UTC,8,1014.1,78,0,0,8.3,4.7,50000,219,5.3,3.3
2020,5,4,11:00,UTC,8,1014.3,78,0,0,8.5,5,50000,244,4.3,2.9
2020,5,4,12:00,UTC,8,1014.5,75,0,0,8.7,4.6,50000,228,4,2.5
2020,5,4,13:00,UTC,8,1014.4,74,0,0,8.8,4.4,50000,211,5.5,3.9
2020,5,4,14:00,UTC,8,1014.7,74,0,0,9.2,4.8,50000,207,4.3,2.7
2020,5,4,15:00,UTC,8,1015,74,0,0,9,4.6,50000,250,5.5,3.7
2020,5,4,16:00,UTC,0,1014.8,73,0,0,9.3,4.6,50000,253,4.7,2.8
2020,5,4,17:00,UTC,0,1015,78,0,0,8.6,4.9,50000,222,4.5,3.4
2020,5,4,18:00,UTC,0,1015.4,84,0,0,7.2,4.7,50000,246,3.3,2.7
2020,5,4,19:00,UTC,0,1015.8,91,0,0,5.4,4.2,50000,248,3.1,2.6
2020,5,4,20:00,UTC,0,1016.2,93,0,0,4.8,3.7,50000,248,2.2,2
2020,5,4,21:00,UTC,0,1016.4,92,0,0,3.8,2.7,50000,251,0.7,0.5
2020,5,4,22:00,UTC,0,1016.4,94,0,0,3.8,2.9,47970,287,1.1,0.7
2020,5,4,23:00,UTC,0,1016.2,95,0,0,3.3,2.5,48050,321,1.8,1.6
2020,5,5,00:00,UTC,0,1016.3,95,0,0,2,1.2,28760,321,1.8,1.4
2020,5,5,01:00,UTC,0,1016.8,96,0,0,1.9,1.4,26540,159,1.8,1.4
2020,5,5,02:00,UTC,4,1016.8,95,0,0,2.3,1.5,24800,265,1.5,1
2020,5,5,03:00,UTC,9,1016.9,99,0,0,1.5,1.3,2530,330,1.5,1.3
2020,5,5,04:00,UTC,7,1017.2,97,0,0,1.6,1.3,6440,335,2.7,1.6
2020,5,5,05:00,UTC,1,1017.4,93,0,0,5.2,4.1,49590,13,2.6,1.4
2020,5,5,06:00,UTC,0,1017.4,77,0,0,9.1,5.2,50000,104,3.9,2.7
2020,5,5,07:00,UTC,0,1017.4,70,0,0,10.5,5.4,50000,137,3.8,1.9
2020,5,5,08:00,UTC,1,1017.2,60,0,0,12.3,4.7,47890,124,3.8,2.3
2020,5,5,09:00,UTC,2,1017,54,0,0,14.1,4.8,43400,149,5.7,3.2
2020,5,5,10:00,UTC,5,1016.9,44,0,0,14.3,2.2,47470,121,6.2,3.9
2020,5,5,11:00,UTC,0,1016.6,42,0,0,15.1,2.2,50000,145,5.4,3.1
2020,5,5,12:00,UTC,2,1016.2,40,0,0,15.1,1.6,50000,160,7.8,4.7
2020,5,5,13:00,UTC,1,1015.8,39,0,0,15.7,1.8,50000,208,5.4,3.1
2020,5,5,14:00,UTC,2,1015.5,37,0,0,15.6,0.9,50000,181,7.4,3.2
2020,5,5,15:00,UTC,3,1015.4,38,0,0,15.3,1.1,50000,214,4.7,2.9
2020,5,5,16:00,UTC,0,1015,35,0,0,15.4,0.1,50000,223,5.6,3.7
2020,5,5,17:00,UTC,1,1014.8,38,0,0,14.8,0.6,50000,219,4.9,3.5
2020,5,5,18:00,UTC,0,1014.8,44,0,0,12.5,0.5,50000,244,3.8,3.2
2020,5,5,19:00,UTC,0,1014.8,51,0,0,10.6,0.8,50000,246,2.3,2
2020,5,5,20:00,UTC,0,1014.6,55,0,0,9.4,0.7,50000,262,3.3,2.7
2020,5,5,21:00,UTC,0,1014.5,64,0,0,7.9,1.5,50000,279,1.9,1.5
2020,5,5,22:00,UTC,0,1014.1,74,0,0,6.3,2,50000,302,2.4,1.8
2020,5,5,23:00,UTC,0,1013.7,70,0,0,6.9,1.8,50000,314,2.8,1.7
2020,5,6,00:00,UTC,0,1013.3,73,0,0,6.5,2.1,50000,340,4.5,3.4
2020,5,6,01:00,UTC,0,1013,69,0,0,5.9,0.7,50000,350,4.5,4.2
2020,5,6,02:00,UTC,0,1012.5,66,0,0,5.7,-0.2,50000,344,4.5,3.6
2020,5,6,03:00,UTC,0,1012.2,64,0,0,5.8,-0.5,50000,331,3.6,2.4
2020,5,6,04:00,UTC,0,1012,57,0,0,7.3,-0.7,50000,332,4,3
2020,5,6,05:00,UTC,0,1011.6,47,0,0,9.5,-1.2,50000,327,4.5,3.2
2020,5,6,06:00,UTC,0,1011.5,43,0,0,10.4,-1.8,50000,327,6.8,4.9
2020,5,6,07:00,UTC,0,1011,36,0,0,11.6,-2.9,50000,351,5.6,3.7
2020,5,6,08:00,UTC,0,1010.5,27,0,0,13.8,-5.1,50000,324,6,3.4
2020,5,6,09:00,UTC,0,1009.8,27,0,0,14.2,-4.6,50000,299,7.7,5
2020,5,6,10:00,UTC,0,1009,27,0,0,15.1,-3.6,49310,266,7.7,4.5
2020,5,6,11:00,UTC,2,1008.2,29,0,0,15.4,-2.5,50000,259,8.7,5.1
2020,5,6,12:00,UTC,4,1007.7,29,0,0,15.7,-2.4,50000,282,9,5.6
2020,5,6,13:00,UTC,5,1007.1,30,0,0,16.3,-1.5,50000,279,9.1,6.2
2020,5,6,14:00,UTC,7,1006.6,29,0,0,14.9,-3,50000,276,8.2,6.3
2020,5,6,15:00,UTC,7,1006.4,30,0,0,14.5,-2.9,50000,309,9.8,7
2020,5,6,16:00,UTC,4,1006.3,29,0,0,14.2,-3.5,50000,312,9.1,6
2020,5,6,17:00,UTC,7,1006.3,36,0,0,12.7,-2.1,50000,320,9.5,6.9
2020,5,6,18:00,UTC,3,1006.8,39,0,0,11.5,-2,50000,311,10.6,7.7
2020,5,6,19:00,UTC,0,1007.2,40,0,0,9.7,-3.3,50000,300,9.1,6.7
2020,5,6,20:00,UTC,0,1007.7,42,0,0,7.9,-4.2,50000,309,8.8,5.9
2020,5,6,21:00,UTC,0,1007.8,46,0,0,6.6,-4.2,50000,310,7.4,5
2020,5,6,22:00,UTC,0,1008,48,0,0,5.7,-4.4,50000,311,8,5.6
2020,5,6,23:00,UTC,0,1008.3,51,0,0,5,-4.3,50000,314,6.9,4.6
2020,5,7,00:00,UTC,0,1008.4,55,0,0,4.2,-4.1,50000,307,8.1,5.3
2020,5,7,01:00,UTC,0,1008.5,59,0,0,3.4,-3.9,50000,307,6.1,4.9
2020,5,7,02:00,UTC,0,1008.4,67,0,0,2,-3.5,50000,297,4.3,3.2
2020,5,7,03:00,UTC,0,1008.7,70,0,0,2.1,-2.8,50000,290,4.8,4.1
2020,5,7,04:00,UTC,0,1008.8,69,0,0,3.4,-1.7,50000,306,7.5,5.1
2020,5,7,05:00,UTC,0,1008.9,63,0,0,5.3,-1.1,50000,319,5.8,3.9
2020,5,7,06:00,UTC,0,1009,52,0,0,7.2,-1.8,50000,322,7,5.1
2020,5,7,07:00,UTC,0,1009,41,0,0,8.8,-3.5,50000,328,7.7,5.5
2020,5,7,08:00,UTC,1,1008.9,39,0,0,9.4,-3.7,50000,321,10.6,5
2020,5,7,09:00,UTC,2,1008.9,34,0,0,11.1,-4.3,50000,321,8.7,5.4
2020,5,7,10:00,UTC,1,1009,30,0,0,11.9,-5.2,50000,317,9.9,6.4
2020,5,7,11:00,UTC,3,1009.1,30,0,0,12.3,-4.7,50000,308,10.8,6.7
2020,5,7,12:00,UTC,2,1009,32,0,0,12.6,-3.6,50000,320,10.6,5.9
2020,5,7,13:00,UTC,1,1009,33,0,0,12.5,-3.5,50000,318,9.4,6.3
2020,5,7,14:00,UTC,7,1009.2,33,0,0,12.8,-3.2,50000,318,8.3,5.4
2020,5,7,15:00,UTC,7,1009.9,42,0,0,11.4,-1.1,50000,357,4.9,3.4
2020,5,7,16:00,UTC,6,1010,41,0,0,11.5,-1.4,50000,287,6.7,4.1
2020,5,7,17:00,UTC,3,1010.2,40,0,0,11.3,-1.9,50000,352,5.7,4.1
2020,5,7,18:00,UTC,3,1010.7,39,0,0,11,-2.3,50000,302,8.7,6.5
2020,5,7,19:00,UTC,0,1011.4,43,0,0,9.2,-2.8,50000,302,8,5.2
2020,5,7,20:00,UTC,0,1011.8,45,0,0,7.8,-3.4,50000,301,5.9,4.8
2020,5,7,21:00,UTC,0,1012,48,0,0,6.5,-3.7,50000,295,5.9,4.5
2020,5,7,22:00,UTC,0,1012.4,53,0,0,5.4,-3.3,50000,302,6.4,5.1
2020,5,7,23:00,UTC,0,1012.4,57,0,0,4.9,-2.9,50000,308,6.5,5.1
2020,5,8,00:00,UTC,0,1012.7,63,0,0,3.9,-2.5,50000,306,6.3,4.8
2020,5,8,01:00,UTC,0,1012.8,68,0,0,3.2,-2.2,50000,307,5.3,4
2020,5,8,02:00,UTC,0,1012.9,72,0,0,2.4,-2.1,50000,301,4.7,3.7
2020,5,8,03:00,UTC,0,1012.9,73,0,0,2.4,-1.9,50000,305,5,4.1
2020,5,8,04:00,UTC,0,1013.3,71,0,0,3.5,-1.2,50000,306,5.2,4.2
2020,5,8,05:00,UTC,0,1013.4,66,0,0,5.2,-0.7,50000,292,4.1,3
2020,5,8,06:00,UTC,0,1013.3,54,0,0,7.6,-1,50000,281,4,2.7
2020,5,8,07:00,UTC,2,1013,38,0,0,10,-3.8,50000,319,3.9,2.2
2020,5,8,08:00,UTC,5,1012.5,32,0,0,11.1,-5,50000,203,7.5,3.4
2020,5,8,09:00,UTC,1,1012.2,35,0,0,11.6,-3.3,50000,187,9.5,6.8
2020,5,8,10:00,UTC,7,1012,41,0,0,10.8,-2,50000,199,11.2,8.1
2020,5,8,11:00,UTC,0,1011.4,39,0,0,11.3,-2.1,50000,186,9.9,7.1
2020,5,8,12:00,UTC,0,1011,43,0,0,12.2,-0.1,50000,186,9.8,6.9
2020,5,8,13:00,UTC,2,1010.3,39,0,0,12.6,-0.9,50000,198,8.5,6.1
2020,5,8,14:00,UTC,6,1009.7,34,0,0,12.3,-3.1,50000,210,9,6.5
2020,5,8,15:00,UTC,2,1009.4,37,0,0,11.6,-2.5,50000,190,9.2,5.5
2020,5,8,16:00,UTC,7,1009.1,39,0,0,11.2,-2.3,50000,187,7.5,5.3
2020,5,8,17:00,UTC,8,1008.9,45,0,0,10,-1.5,50000,184,5.3,4.1
2020,5,8,18:00,UTC,8,1008.3,50,0,0,8.9,-0.9,50000,136,7.5,5.8
2020,5,8,19:00,UTC,3,1007.9,55,0,0,8.2,-0.2,50000,140,5.9,4.6
2020,5,8,20:00,UTC,4,1007.2,71,0,0,8,3.1,50000,205,8.8,6.2
2020,5,8,21:00,UTC,7,1007.7,79,0,0,7.3,3.9,46200,244,8.9,7
2020,5,8,22:00,UTC,5,1007.5,82,0,0,6.6,3.8,43420,233,7.7,5.5
2020,5,8,23:00,UTC,0,1007.9,87,0,0,5.6,3.6,36820,241,5.3,3.8
2020,5,9,00:00,UTC,8,1007.9,87,0,0,6.1,4.2,29890,247,3.6,2.8
2020,5,9,01:00,UTC,8,1008.2,89,0,0,5.8,4.1,24920,270,6.6,5.1
2020,5,9,02:00,UTC,0,1008.7,94,0,0,3.8,2.9,17350,245,3.8,3.2
2020,5,9,03:00,UTC,0,1008.9,95,0,0,4,3.2,17450,251,3.7,3.1
2020,5,9,04:00,UTC,0,1009.2,78,0,0,6.3,2.8,50000,295,6.7,5.4
2020,5,9,05:00,UTC,0,1009.8,66,0,0,7.9,2,50000,289,6.4,4.8
2020,5,9,06:00,UTC,0,1010.2,56,0,0,9.4,1,50000,290,9.2,7.3
2020,5,9,07:00,UTC,0,1010.7,46,0,0,9.8,-1.2,50000,306,9,7.1
2020,5,9,08:00,UTC,0,1010.9,39,0,0,11.3,-2.3,50000,282,9.4,6.2
2020,5,9,09:00,UTC,0,1011.2,29,0,0,11.9,-5.5,50000,291,10.4,6.8
2020,5,9,10:00,UTC,0,1011.3,28,0,0,13,-5.3,50000,286,11,7.7
2020,5,9,11:00,UTC,0,1011.4,24,0,0,14.1,-6,48730,267,12.4,7.2
2020,5,9,12:00,UTC,0,1011.6,20,0,0,13.7,-9.1,50000,303,12.2,8
2020,5,9,13:00,UTC,0,1011.7,19,0,0,13.5,-10,50000,300,11.1,7.2
2020,5,9,14:00,UTC,0,1011.7,19,0,0,13.9,-9.2,50000,309,9.7,6.6
2020,5,9,15:00,UTC,0,1012.1,16,0,0,13.2,-12.4,50000,305,10.9,8.1
2020,5,9,16:00,UTC,0,1012.2,20,0,0,12.7,-10,50000,308,9.8,7.1
2020,5,9,17:00,UTC,0,1012.5,20,0,0,12,-10.4,50000,331,7,5.2
2020,5,9,18:00,UTC,0,1012.9,23,0,0,10.7,-9.3,50000,329,6.6,4.8
2020,5,9,19:00,UTC,0,1013.5,27,0,0,9.3,-8.6,50000,337,3.4,2.6
2020,5,9,20:00,UTC,0,1013.8,36,0,0,7.2,-6.9,50000,306,2.4,2
2020,5,9,21:00,UTC,0,1013.9,44,0,0,5.4,-6,50000,324,1.8,1.3
2020,5,9,22:00,UTC,0,1014,49,0,0,3.9,-6,50000,331,1.5,0.9
2020,5,9,23:00,UTC,0,1014.1,53,0,0,2.6,-6,50000,35,1.3,0.8
2020,5,10,00:00,UTC,0,1014.3,59,0,0,1.3,-5.9,50000,72,3.4,3.1
2020,5,10,01:00,UTC,0,1014.1,61,0,0,1.7,-5,50000,78,4,3.3
2020,5,10,02:00,UTC,0,1014.2,66,0,0,1.7,-4.1,50000,100,3.2,2.6
2020,5,10,03:00,UTC,0,1014.1,68,0,0,2.1,-3.2,50000,105,3.1,2.6
2020,5,10,04:00,UTC,0,1013.9,67,0,0,5,-0.6,50000,118,4.1,2.7
2020,5,10,05:00,UTC,0,1013.6,55,0,0,7.9,-0.5,50000,145,8.6,6
2020,5,10,06:00,UTC,0,1013.3,51,0,0,9.4,-0.3,50000,140,9.5,6.8
2020,5,10,07:00,UTC,0,1012.9,45,0,0,10.5,-1,50000,139,9.6,7.6
2020,5,10,08:00,UTC,0,1012.6,42,0,0,11.3,-1.1,50000,154,8.3,5.8
2020,5,10,09:00,UTC,0,1011.8,37,0,0,11.8,-2.5,50000,154,10,6.9
2020,5,10,10:00,UTC,0,1011,32,0,0,13.7,-2.9,50000,165,9.5,6.2
2020,5,10,11:00,UTC,0,1010.5,33,0,0,14.2,-1.9,50000,152,9.6,7.2
2020,5,10,12:00,UTC,0,1009.7,30,0,0,14.6,-2.7,50000,165,8.7,6.3
2020,5,10,13:00,UTC,0,1008.9,34,0,0,13.8,-1.8,50000,138,9.4,6.7
2020,5,10,14:00,UTC,0,1008.3,34,0,0,14.1,-1.7,50000,142,8.7,6.8
2020,5,10,15:00,UTC,0,1007.3,35,0,0,14.1,-1.2,50000,141,8.3,6.9
2020,5,10,16:00,UTC,0,1006.4,36,0,0,14.2,-0.9,50000,157,6.9,5
2020,5,10,17:00,UTC,1,1005.8,42,0,0,12.9,0.4,50000,152,5.2,4.3
2020,5,10,18:00,UTC,1,1005.2,48,0,0,11.7,1,50000,144,5.9,4.8
2020,5,10,19:00,UTC,7,1004.6,52,0,0,11,1.6,50000,152,6,4.6
2020,5,10,20:00,UTC,5,1003.8,55,0,0,10.5,1.8,50000,153,6.1,4.7
2020,5,10,21:00,UTC,7,1003.2,56,0,0,10.9,2.5,50000,172,3.4,2.4
2020,5,10,22:00,UTC,7,1002.9,70,0,0,10.2,4.9,34540,234,3.4,2.5
2020,5,10,23:00,UTC,8,1002.1,67,0,0,11.1,5.3,50000,201,7.7,5.8
2020,5,11,00:00,UTC,8,1001.2,77,0,0,10.1,6.2,41670,181,7.2,5.4
2020,5,11,01:00,UTC,7,1000.3,78,0,0,9.9,6.4,50000,197,9.5,7.1
2020,5,11,02:00,UTC,7,999.4,75,0,0,9.8,5.5,50000,198,8,5.8
2020,5,11,03:00,UTC,5,998.8,81,0,0,9.6,6.5,50000,219,8.9,6.1
2020,5,11,04:00,UTC,8,998.4,84,0,0,9.5,6.8,33490,210,6.2,4.7
2020,5,11,05:00,UTC,8,998,93,0,0,8.5,7.4,11560,263,4.1,3.2
2020,5,11,06:00,UTC,8,997.8,94,2.6,0,8.3,7.4,10710,301,3.8,3
2020,5,11,07:00,UTC,8,997.5,93,0.8,0,6.3,5.3,14590,318,8,5.8
2020,5,11,08:00,UTC,8,998.6,94,3.6,0,2.2,1.2,5330,334,11.2,8.2
2020,5,11,09:00,UTC,8,998.7,98,3.5,0,0.5,0.1,800,338,7.5,5.1
2020,5,11,10:00,UTC,8,999.1,97,2.9,2,0.3,0,590,330,8.1,6.2
2020,5,11,11:00,UTC,8,999.1,96,0.2,2,0.5,0,900,323,10.1,6.9
2020,5,11,12:00,UTC,8,999.2,95,0.8,2,1,0.3,5010,325,9.6,6.5
2020,5,11,13:00,UTC,7,999.2,89,0,2,1.9,0.2,50000,338,8.8,6.6
2020,5,11,14:00,UTC,4,999.3,83,0,0,3.3,0.7,50000,322,6.7,4.1
2020,5,11,15:00,UTC,8,999.6,89,0.2,0,1.4,-0.1,50000,312,6,3.9
2020,5,11,16:00,UTC,8,999.6,88,0,0,2.6,0.8,50000,301,5.4,3.2
2020,5,11,17:00,UTC,1,999.8,84,0,0,3,0.5,50000,276,5.1,3.7
2020,5,11,18:00,UTC,2,999.9,62,0,0,3.4,-3.2,50000,269,5.7,4
2020,5,11,19:00,UTC,2,1000.2,60,0,0,2.8,-4.2,50000,294,7.2,5.5
2020,5,11,20:00,UTC,5,1000.4,67,0,0,1.7,-3.8,50000,300,7,4.5
2020,5,11,21:00,UTC,3,1000.8,74,0,0,1.1,-3.1,50000,282,4.5,3.6
2020,5,11,22:00,UTC,3,1000.6,77,0,0,0.5,-3.1,50000,283,4.6,3.6
2020,5,11,23:00,UTC,3,1000.8,77,0,0,0.4,-3.2,50000,285,5.2,3.8
2020,5,12,00:00,UTC,7,1000.7,79,0,0,0,-3.2,50000,286,3.7,2.9
2020,5,12,01:00,UTC,7,1000.7,81,0,0,-0.1,-2.9,50000,283,4.4,3.5
2020,5,12,02:00,UTC,6,1000.7,85,0,0,-0.2,-2.4,50000,287,4.4,3.1
2020,5,12,03:00,UTC,0,1000.9,86,0,0,0.1,-1.9,50000,276,3.5,2.8
2020,5,12,04:00,UTC,0,1001,87,0,0,1.1,-0.9,50000,277,3.2,2.5
2020,5,12,05:00,UTC,0,1001.2,86,0,0,1.7,-0.4,50000,269,3.4,2.2
2020,5,12,06:00,UTC,0,1001.5,76,0,0,4.5,0.7,50000,276,4.8,3.4
2020,5,12,07:00,UTC,0,1001.8,61,0,0,6.2,-0.7,50000,291,4.7,3.2
2020,5,12,08:00,UTC,0,1002.1,49,0,0,7,-2.9,50000,283,6.6,4.7
2020,5,12,09:00,UTC,4,1002.1,43,0,0,8.1,-3.8,50000,288,6.6,5.2
2020,5,12,10:00,UTC,2,1001.9,36,0,0,9.5,-5.1,50000,287,7.2,4.8
2020,5,12,11:00,UTC,7,1002.2,36,0,0,8.8,-5.6,50000,344,4.4,3
2020,5,12,12:00,UTC,3,1003,38,0,0,9.6,-4.2,50000,269,8,5.3
2020,5,12,13:00,UTC,7,1003.6,46,0,0,8.5,-2.4,50000,322,10,6.2
2020,5,12,14:00,UTC,3,1003.7,54,0,0,8.4,-0.4,50000,354,10,7.3
2020,5,12,15:00,UTC,6,1003.6,46,0,0,8.3,-2.6,50000,7,5.5,3.1
2020,5,12,16:00,UTC,4,1003.8,55,0,0,7.4,-1,50000,157,5.2,4.1
2020,5,12,17:00,UTC,4,1003.9,54,0,0,7.6,-1.1,50000,139,5.1,3.5
2020,5,12,18:00,UTC,6,1004.6,53,0,0,6.9,-2,50000,246,6.4,4.7
2020,5,12,19:00,UTC,2,1004.9,57,0,0,5.7,-2.3,50000,264,2.9,1.7
2020,5,12,20:00,UTC,0,1005.2,64,0,0,3.8,-2.4,50000,249,3.5,2.8
2020,5,12,21:00,UTC,0,1005.4,70,0,0,2.9,-2,50000,251,3.4,2.8
2020,5,12,22:00,UTC,0,1005.4,72,0,0,2.4,-2.2,50000,236,2,1.6
2020,5,12,23:00,UTC,0,1005.5,84,0,0,0.1,-2.3,50000,149,1.2,0.7
2020,5,13,00:00,UTC,0,1005.3,90,0,0,-1.1,-2.6,50000,127,1.1,0.6
2020,5,13,01:00,UTC,0,1005,88,0,0,-1.1,-2.8,50000,124,1.3,1
2020,5,13,02:00,UTC,0,1004.7,89,0,0,-1.6,-3.2,50000,98,3.2,2.5
2020,5,13,03:00,UTC,0,1004.4,84,0,0,0.8,-1.5,45290,114,3.5,3.2
2020,5,13,04:00,UTC,0,1004.1,80,0,0,4.4,1.2,50000,120,3.5,2.6
2020,5,13,05:00,UTC,0,1003.6,70,0,0,6.2,1.1,50000,122,5.5,3.8
2020,5,13,06:00,UTC,4,1003.4,60,0,0,7.1,-0.1,50000,145,10.6,7.7
2020,5,13,07:00,UTC,7,1003.7,72,0,0,4.8,0.2,50000,176,10.4,7.2
2020,5,13,08:00,UTC,7,1003.8,72,0,0,3.9,-0.8,47560,154,14.5,9.6
2020,5,13,09:00,UTC,8,1003.5,93,0,0,3.7,2.8,12800,123,7.6,5.5
2020,5,13,10:00,UTC,7,1003.6,85,0,0,4.7,2.4,50000,181,7.9,5.8
2020,5,13,11:00,UTC,7,1003.8,77,0,0,5.5,1.9,50000,154,6.9,5.1
2020,5,13,12:00,UTC,7,1003.6,66,0,0,6.5,0.6,50000,158,6.7,4.5
2020,5,13,13:00,UTC,7,1003.5,71,0,0,5.4,0.5,50000,140,8,5.8
2020,5,13,14:00,UTC,2,1003.5,63,0,0,6.8,0.4,50000,191,6.7,3.6
2020,5,13,15:00,UTC,4,1003.7,65,0,0,5.9,-0.3,50000,180,7.5,5
2020,5,13,16:00,UTC,7,1003.7,66,0,0,5.5,-0.3,50000,162,5.7,4.2
2020,5,13,17:00,UTC,0,1003.6,72,0,0,5.1,0.4,50000,172,4.6,3.6
2020,5,13,18:00,UTC,0,1003.8,80,0,0,4.1,0.9,50000,185,2.4,1.7
2020,5,13,19:00,UTC,6,1004,83,0,0,3.4,0.8,50000,331,4.1,3.2
2020,5,13,20:00,UTC,3,1004.4,89,0,0,2.8,1.2,50000,310,3.6,2.9
2020,5,13,21:00,UTC,3,1004.6,92,0,0,2.1,0.9,50000,321,4.3,3
2020,5,13,22:00,UTC,0,1004.9,94,0,0,1.5,0.7,50000,337,3.8,3.1
2020,5,13,23:00,UTC,0,1005.3,95,0,0,0.8,0.2,50000,308,2.9,2.3
2020,5,14,00:00,UTC,0,1005.7,97,0,0,0.4,0,50000,301,4.7,3.9
2020,5,14,01:00,UTC,7,1006,96,0,0,1,0.4,50000,304,3.2,2.4
2020,5,14,02:00,UTC,8,1006.3,95,0,0,1.3,0.6,50000,285,4.5,3.4
2020,5,14,03:00,UTC,0,1006.4,92,0,0,1.8,0.7,50000,299,4.7,3.4
2020,5,14,04:00,UTC,0,1006.6,85,0,0,3,0.8,50000,297,5.7,4.3
2020,5,14,05:00,UTC,1,1006.8,81,0,0,4.3,1.3,50000,300,4.9,3.6
2020,5,14,06:00,UTC,0,1007,69,0,0,6.1,0.8,50000,292,6.2,3.9
2020,5,14,07:00,UTC,0,1007.2,49,0,0,7.9,-2.3,50000,303,8.6,6.3
2020,5,14,08:00,UTC,5,1007.5,49,0,0,8.6,-1.6,50000,294,9.8,5.7
2020,5,14,09:00,UTC,1,1007.6,29,0,0,9,-8.3,50000,291,9.4,6.7
2020,5,14,10:00,UTC,0,1007.8,30,0,0,9.6,-6.9,50000,255,9.2,6.3
2020,5,14,11:00,UTC,4,1008,34,0,0,9.7,-5.5,50000,279,10.7,7.1
2020,5,14,12:00,UTC,5,1008.5,41,0,0,8.5,-4.1,50000,283,11.7,8.9
2020,5,14,13:00,UTC,1,1008.4,36,0,0,8.5,-5.6,50000,271,11.8,7.3
2020,5,14,14:00,UTC,3,1008.6,50,0,0,7.2,-2.5,50000,222,9.6,7.3
2020,5,14,15:00,UTC,1,1008.3,47,0,0,8.7,-2.1,50000,242,8.7,5.6
2020,5,14,16:00,UTC,5,1008.4,51,0,0,6.5,-2.8,50000,236,7.9,5.5
2020,5,14,17:00,UTC,5,1008.3,51,0,0,6.9,-2.4,50000,198,5,4.1
2020,5,14,18:00,UTC,1,1007.9,72,0,0,6.1,1.4,50000,171,3.8,2.9
2020,5,14,19:00,UTC,0,1008,67,0,0,4.1,-1.5,50000,242,5,3.5
2020,5,14,20:00,UTC,5,1008.3,61,0,0,3,-3.7,50000,240,4,3.5
2020,5,14,21:00,UTC,0,1008.3,64,0,0,3.4,-2.8,50000,232,5.6,4.6
2020,5,14,22:00,UTC,6,1008,73,0,0,2.7,-1.6,50000,237,3.9,3.2
2020,5,14,23:00,UTC,2,1007.8,80,0,0,2,-1.1,50000,242,2.8,2.5
2020,5,15,00:00,UTC,5,1007.4,85,0,0,2.5,0.2,50000,238,2.5,1.8
2020,5,15,01:00,UTC,1,1006.7,90,0,0,2.8,1.3,50000,192,3.4,2.5
2020,5,15,02:00,UTC,8,1006.4,89,14.7,0,1.7,0,2180,224,8.2,5.9
2020,5,15,03:00,UTC,8,1006.4,98,3.4,0,0.2,-0.1,790,269,2.5,1.6
2020,5,15,04:00,UTC,8,1006.1,98,0,0,0.5,0.2,25510,213,2.2,1.8
2020,5,15,05:00,UTC,2,1006,97,0,0,1.9,1.4,42770,220,1.2,0.8
2020,5,15,06:00,UTC,2,1005.8,86,0,0,3.8,1.6,50000,228,4.3,2.5
2020,5,15,07:00,UTC,7,1005.6,88,0,0,4,2.2,50000,238,4.3,3.5
2020,5,15,08:00,UTC,7,1005.7,88,0,0,2.8,1,11730,231,5.2,3.9
2020,5,15,09:00,UTC,7,1005.5,86,0,0,4.5,2.4,50000,236,8.4,4.7
2020,5,15,10:00,UTC,7,1005.4,73,0,0,6.1,1.6,42310,289,6.3,4.4
2020,5,15,11:00,UTC,3,1005.5,76,0,0,6.5,2.6,50000,251,5.4,3.5
2020,5,15,12:00,UTC,3,1005.5,46,0,0,8.2,-2.7,50000,255,11,8
2020,5,15,13:00,UTC,6,1005.6,40,0,0,8.8,-3.9,50000,268,8.8,6.6
2020,5,15,14:00,UTC,6,1005.5,45,0,0,9.1,-2.2,50000,258,10.4,6.7
2020,5,15,15:00,UTC,7,1005.3,43,0,0,8.7,-3.3,50000,272,7.5,4.4
2020,5,15,16:00,UTC,4,1005,35,0,0,9.5,-5.1,50000,268,8.5,5.9
2020,5,15,17:00,UTC,1,1005,39,0,0,8.9,-4.3,50000,267,7.7,5.7
2020,5,15,18:00,UTC,2,1005.2,44,0,0,7.7,-3.8,50000,268,6.7,5
2020,5,15,19:00,UTC,2,1005.4,62,0,0,5.8,-1,50000,231,6.3,4.9
2020,5,15,20:00,UTC,6,1005.6,57,0,0,5,-2.9,50000,233,5.5,3.1
2020,5,15,21:00,UTC,8,1005.1,58,0,0,4.7,-2.8,50000,251,3.5,2.4
2020,5,15,22:00,UTC,8,1004.7,67,0,0,3.8,-1.7,50000,203,3,2.5
2020,5,15,23:00,UTC,4,1004,71,0,0,2.9,-1.7,50000,112,1.9,1.5
2020,5,16,00:00,UTC,5,1003.2,74,0,0,2.9,-1.3,50000,136,4.2,3.5
2020,5,16,01:00,UTC,7,1002.4,87,0,0,3.8,1.9,50000,142,4.7,4
2020,5,16,02:00,UTC,7,1001.5,79,0,0,4.8,1.5,50000,151,5.9,4.7
2020,5,16,03:00,UTC,7,1000.9,87,0,0,5.5,3.5,50000,172,6,4
2020,5,16,04:00,UTC,8,1000.6,95,2,0,3.8,3,20730,260,2.9,2.2
2020,5,16,05:00,UTC,8,1000.1,93,0.4,0,4.3,3.3,41010,218,2.6,1.9
2020,5,16,06:00,UTC,8,999.5,92,0.8,0,4.1,3,11230,197,1.1,0.6
2020,5,16,07:00,UTC,8,999.1,87,0.6,0,4.1,2.2,25170,180,2.9,1.5
2020,5,16,08:00,UTC,8,999,89,0,0,4.5,2.7,46730,258,2.3,1.4
2020,5,16,09:00,UTC,8,998.8,89,0.2,0,5.4,3.6,18630,231,5.1,3.8
2020,5,16,10:00,UTC,6,998.8,88,0,0,4.9,3,50000,219,3.8,2.9
2020,5,16,11:00,UTC,7,998.4,80,0,0,5.9,2.8,50000,247,6.6,4.3
2020,5,16,12:00,UTC,8,998.4,82,0.2,0,5.9,3.1,50000,245,5.1,3.5
2020,5,16,13:00,UTC,6,998.2,83,0,0,5.2,2.5,50000,336,6.4,4
2020,5,16,14:00,UTC,8,998.5,87,0,0,5.7,3.7,14390,248,8.2,5.1
2020,5,16,15:00,UTC,7,999,84,0,0,5.5,3,50000,274,8.2,6.2
2020,5,16,16:00,UTC,7,999.8,81,0,0,5.5,2.5,50000,313,8.3,6
2020,5,16,17:00,UTC,7,1000.7,82,0,0,5.4,2.5,50000,279,7.3,4.7
2020,5,16,18:00,UTC,8,1001.3,85,0,0,4.6,2.2,50000,277,8.1,5.6
2020,5,16,19:00,UTC,7,1001.7,84,0,0,4.1,1.6,50000,283,6.8,5.2
2020,5,16,20:00,UTC,0,1002.1,90,0,0,3,1.4,50000,262,6,4.5
2020,5,16,21:00,UTC,0,1002.5,92,0,0,2.2,1,50000,259,5.3,4.2
2020,5,16,22:00,UTC,1,1002.7,91,0,0,2,0.8,50000,262,5.8,4.3
2020,5,16,23:00,UTC,0,1003,92,0,0,1.7,0.4,50000,274,5.1,3.8
2020,5,17,00:00,UTC,0,1003,94,0,0,0.6,-0.2,50000,275,3.5,3
2020,5,17,01:00,UTC,0,1003.3,95,0,0,-0.2,-0.9,50000,256,4.1,3.2
2020,5,17,02:00,UTC,0,1003.3,95,0,0,-0.1,-0.8,50000,264,4.1,3.6
2020,5,17,03:00,UTC,0,1003.3,92,0,0,0.7,-0.5,50000,288,3.6,2.8
2020,5,17,04:00,UTC,0,1003.4,82,0,0,2.4,-0.3,50000,264,2.8,2
2020,5,17,05:00,UTC,0,1003.3,75,0,0,4.1,0.1,50000,232,2.9,2
2020,5,17,06:00,UTC,0,1003.1,64,0,0,6,-0.4,50000,246,5.7,4.2
2020,5,17,07:00,UTC,2,1003,51,0,0,7.3,-2.2,50000,225,6.9,4.5
2020,5,17,08:00,UTC,6,1002.8,62,0,0,7.8,0.9,50000,201,7.7,5.6
2020,5,17,09:00,UTC,7,1002.5,54,0,0,8.1,-0.7,50000,217,6.5,3.3
2020,5,17,10:00,UTC,7,1002.1,53,0,0,8.5,-0.5,50000,171,7.2,4.8
2020,5,17,11:00,UTC,8,1004.1,89,0,2,2.4,0.7,15920,83,1.8,1
2020,5,17,12:00,UTC,7,1003.6,90,0,2,3.8,2.3,39430,303,3.8,3
2020,5,17,13:00,UTC,8,1003,83,0,0,4.9,2.3,50000,294,3.7,2.6
2020,5,17,14:00,UTC,6,1002.5,78,0,0,5.5,1.9,50000,244,4.9,3.7
2020,5,17,15:00,UTC,3,1002.1,68,0,0,7.1,1.6,50000,253,4.1,2.4
2020,5,17,16:00,UTC,0,1002,68,0,0,6.6,1.1,50000,238,6.3,4.6
2020,5,17,17:00,UTC,6,1001.7,83,0,0,5.5,2.7,50000,243,6.7,5
2020,5,17,18:00,UTC,2,1002,80,0,0,4.9,1.8,50000,279,4.9,3.7
2020,5,17,19:00,UTC,7,1002.3,88,0,0,4.6,2.7,50000,280,3.5,2.6
2020,5,17,20:00,UTC,8,1002,90,0,0,3.9,2.5,50000,278,3.6,2.7
2020,5,17,21:00,UTC,1,1002.1,93,0,0,3.2,2.3,50000,283,5,3.8
2020,5,17,22:00,UTC,1,1002.1,95,0,0,2.9,2.1,50000,301,4.4,3.6
2020,5,17,23:00,UTC,7,1002.2,94,0,0,2.2,1.4,50000,303,3.9,2.8
2020,5,18,00:00,UTC,1,1002.5,83,0,0,2.9,0.2,50000,315,4.7,3.4
2020,5,18,01:00,UTC,0,1003,89,0,0,1.4,-0.2,50000,302,5,3.3
2020,5,18,02:00,UTC,0,1003.4,90,0,0,1,-0.4,50000,287,4.9,4.3
2020,5,18,03:00,UTC,0,1003.7,87,0,0,1.9,-0.1,50000,306,5.1,4
2020,5,18,04:00,UTC,0,1004.1,80,0,0,3.2,0.1,50000,307,5.1,3.6
2020,5,18,05:00,UTC,0,1004.5,72,0,0,5.1,0.5,50000,323,5.8,4.2
2020,5,18,06:00,UTC,0,1005.1,66,0,0,6.8,0.8,50000,324,7.2,5.1
2020,5,18,07:00,UTC,1,1005.6,58,0,0,7.8,0,50000,322,8.3,5.8
2020,5,18,08:00,UTC,4,1006.2,55,0,0,8.6,0,50000,310,8.6,5.9
2020,5,18,09:00,UTC,4,1007,52,0,0,9,-0.2,50000,316,10.4,6.5
2020,5,18,10:00,UTC,6,1007.5,49,0,0,9.9,-0.5,50000,287,8,6.1
2020,5,18,11:00,UTC,5,1007.7,50,0,0,10.4,0.5,50000,288,8.2,4.7
2020,5,18,12:00,UTC,1,1008.1,42,0,0,11.4,-1.2,50000,287,7.9,5.7
2020,5,18,13:00,UTC,2,1008.7,44,0,0,12.2,0.4,50000,296,9.6,6.7
2020,5,18,14:00,UTC,7,1009.8,53,0,0,10.4,1.1,50000,51,7.2,5
2020,5,18,15:00,UTC,8,1010.7,85,0,0,6.6,4.2,50000,128,1.5,0.9
2020,5,18,16:00,UTC,7,1010.7,64,0,0,8.6,2.2,50000,316,6.2,3.9
2020,5,18,17:00,UTC,4,1010.5,55,0,0,9.4,0.7,50000,311,3.4,2.2
2020,5,18,18:00,UTC,7,1010.8,63,0,0,8.7,2.1,50000,250,4.2,3
2020,5,18,19:00,UTC,0,1010.9,78,0,0,6.3,2.6,50000,241,3.8,3.2
2020,5,18,20:00,UTC,7,1011,81,0,0,5.6,2.6,50000,231,4.2,3.6
2020,5,18,21:00,UTC,0,1011,83,0,0,5.1,2.5,50000,228,5.5,4.4
2020,5,18,22:00,UTC,0,1010.9,86,0,0,3.9,1.8,50000,245,3.7,3.3
2020,5,18,23:00,UTC,0,1010.7,86,0,0,3.5,1.3,50000,260,4.3,3.6
2020,5,19,00:00,UTC,3,1010.7,88,0,0,2.9,1.1,50000,266,3.8,3.5
2020,5,19,01:00,UTC,0,1010.7,91,0,0,2.1,0.9,50000,269,3.5,3.2
2020,5,19,02:00,UTC,0,1010.6,93,0,0,1.8,0.8,50000,278,3.4,3.1
2020,5,19,03:00,UTC,0,1010.6,94,0,0,2,1.1,50000,265,2.5,1.9
2020,5,19,04:00,UTC,0,1010.5,85,0,0,3.8,1.5,50000,297,4.3,3.6
2020,5,19,05:00,UTC,0,1010.4,74,0,0,6.1,1.7,50000,283,2.6,1.9
2020,5,19,06:00,UTC,0,1010.2,63,0,0,7.4,0.8,50000,291,2.3,1.4
2020,5,19,07:00,UTC,0,1010,49,0,0,9.3,-1,50000,348,2.3,0.8
2020,5,19,08:00,UTC,3,1009.8,44,0,0,10.3,-1.3,50000,240,5.4,2.5
2020,5,19,09:00,UTC,6,1009.6,42,0,0,10.9,-1.6,50000,224,8,4.5
2020,5,19,10:00,UTC,6,1009.5,38,0,0,11.2,-2.6,50000,252,6.7,4.4
2020,5,19,11:00,UTC,7,1009.7,59,0,0,9.4,1.9,46800,285,7.6,3.5
2020,5,19,12:00,UTC,8,1011.1,85,0,0,5.7,3.4,19490,276,13.1,9.4
2020,5,19,13:00,UTC,7,1010.9,73,0,0,7.6,3.1,50000,254,4.4,3
2020,5,19,14:00,UTC,2,1010.8,68,0,0,8.5,2.9,50000,257,5.8,4.3
2020,5,19,15:00,UTC,5,1010.8,67,0,0,8,2.3,45730,316,8.6,5.1
2020,5,19,16:00,UTC,7,1011.4,80,0,0,6,2.8,50000,311,8.4,6.1
2020,5,19,17:00,UTC,8,1010.9,76,0,0,6.3,2.3,50000,248,1.8,0.9
2020,5,19,18:00,UTC,7,1011.7,80,0,0,6.4,3.2,50000,315,5.2,4
2020,5,19,19:00,UTC,8,1011.8,79,0,0,5.4,2.1,50000,324,5.9,2.6
2020,5,19,20:00,UTC,8,1012,89,0,0,4.7,3,50000,283,4.4,3.5
2020,5,19,21:00,UTC,8,1012.2,86,0,0,4.5,2.4,50000,293,4.8,3.9
2020,5,19,22:00,UTC,6,1012.5,91,0,0,3.5,2.1,50000,287,3.9,3.2
2020,5,19,23:00,UTC,0,1012.7,93,0,0,2.6,1.6,50000,287,4.6,3.7
2020,5,20,00:00,UTC,0,1012.7,94,0,0,2.3,1.3,50000,293,5.6,4.1
2020,5,20,01:00,UTC,0,1013,94,0,0,2.2,1.3,50000,303,5.4,4.2
2020,5,20,02:00,UTC,8,1013.4,94,0,0,2.7,1.7,50000,313,5.3,3.6
2020,5,20,03:00,UTC,8,1013.8,93,0,0,3.5,2.4,50000,323,4.9,3.4
2020,5,20,04:00,UTC,8,1014,93,0,0,4.1,3.1,29860,327,5.3,3.9
2020,5,20,05:00,UTC,6,1014.4,86,0,0,5.4,3.3,50000,340,7.6,5.3
2020,5,20,06:00,UTC,7,1014.7,79,0,0,7,3.6,50000,331,8.1,6.2
2020,5,20,07:00,UTC,5,1015.1,73,0,0,8.2,3.6,50000,339,8.5,6.2
2020,5,20,08:00,UTC,4,1015.2,61,0,0,9.4,2.1,50000,338,10.3,7.5
2020,5,20,09:00,UTC,5,1015.3,49,0,0,11.3,1.1,50000,346,9.3,5.9
2020,5,20,10:00,UTC,5,1015.9,53,0,0,10.3,1,50000,8,12.6,9.4
2020,5,20,11:00,UTC,0,1016.1,52,0,0,10.5,1,50000,333,13.3,8.7
2020,5,20,12:00,UTC,2,1016.4,57,0,0,10,2,50000,329,10.6,7.6
2020,5,20,13:00,UTC,0,1016.3,46,0,0,11.8,0.4,50000,337,13.7,9
2020,5,20,14:00,UTC,1,1016.4,40,0,0,12.6,-0.5,50000,353,11.4,8.6
2020,5,20,15:00,UTC,7,1017.1,57,0,0,10.3,2,50000,12,6.9,4.7
2020,5,20,16:00,UTC,5,1017.2,45,0,0,11.5,-0.2,50000,1,9.8,6.7
2020,5,20,17:00,UTC,5,1017.4,56,0,0,10.2,1.7,37650,16,11.7,5.9
2020,5,20,18:00,UTC,1,1017.5,52,0,0,9.7,0.2,50000,7,10.5,6.8
2020,5,20,19:00,UTC,0,1017.6,57,0,0,8.6,0.6,50000,346,5.2,3.7
2020,5,20,20:00,UTC,0,1017.8,57,0,0,8,-0.1,50000,318,5.5,3.9
2020,5,20,21:00,UTC,0,1017.8,61,0,0,7,0,50000,333,5.7,4.2
2020,5,20,22:00,UTC,0,1017.7,59,0,0,6.9,-0.6,50000,328,8.5,6.3
2020,5,20,23:00,UTC,0,1017.9,60,0,0,6.7,-0.6,50000,334,11,6.6
2020,5,21,00:00,UTC,0,1017.9,64,0,0,6.3,0,50000,339,8.5,6.7
2020,5,21,01:00,UTC,,,,,,,,,,,
2020,5,21,02:00,UTC,0,1017.7,71,0,0,5.5,0.6,50000,332,9.2,5.9
2020,5,21,03:00,UTC,1,1017.7,70,0,0,5.6,0.5,50000,337,10.6,7.1
2020,5,21,04:00,UTC,0,1017.6,63,0,0,6.6,0,50000,349,13,8.6
2020,5,21,05:00,UTC,1,1017.4,59,0,0,7.1,-0.5,50000,349,11.8,8.5
2020,5,21,06:00,UTC,7,1017.3,51,0,0,8.3,-1.1,50000,351,17.1,10.1
2020,5,21,07:00,UTC,7,1017.5,48,0,0,9.3,-1.3,50000,351,13.3,9.1
2020,5,21,08:00,UTC,0,1017.5,36,0,0,11.2,-3.5,50000,356,15.9,11.8
2020,5,21,09:00,UTC,0,1017.7,33,0,0,12.2,-3.5,50000,12,14.1,10.2
2020,5,21,10:00,UTC,0,1017.9,28,0,0,13.4,-4.6,50000,7,14.9,10.4
2020,5,21,11:00,UTC,0,1017.9,26,0,0,14.8,-4.4,50000,3,12.5,8.6
2020,5,21,12:00,UTC,0,1018.1,26,0,0,14.6,-4.9,50000,21,12.8,9.3
2020,5,21,13:00,UTC,0,1018.4,26,0,0,14.8,-4.6,50000,12,11.6,8.9
2020,5,21,14:00,UTC,3,1018.8,27,0,0,14.9,-3.8,50000,8,12.9,8.6
2020,5,21,15:00,UTC,0,1019,27,0,0,15.3,-3.5,50000,360,11.9,8.8
2020,5,21,16:00,UTC,0,1019.2,28,0,0,14.4,-3.7,50000,10,10.6,6.8
2020,5,21,17:00,UTC,0,1019.6,31,0,0,13.4,-3.5,50000,5,9,6.2
2020,5,21,18:00,UTC,0,1020.2,36,0,0,11.8,-2.7,50000,347,6.1,4.6
2020,5,21,19:00,UTC,6,1020.6,39,0,0,10.9,-2.5,50000,351,7.7,5.8
2020,5,21,20:00,UTC,7,1021.2,42,0,0,10.1,-2.3,50000,353,6.8,5.5
2020,5,21,21:00,UTC,7,1021.6,44,0,0,9.6,-2,50000,4,8.4,6
2020,5,21,22:00,UTC,4,1021.9,49,0,0,8.7,-1.5,50000,5,5.6,4.3
2020,5,21,23:00,UTC,7,1022.2,51,0,0,8.4,-1.2,50000,7,5.8,4.4
2020,5,22,00:00,UTC,4,1022.6,54,0,0,7.6,-1.2,50000,7,5.5,4.6
2020,5,22,01:00,UTC,0,1023.1,57,0,0,6.9,-1.1,50000,16,5.3,4.2
2020,5,22,02:00,UTC,2,1023.5,61,0,0,6.3,-0.8,50000,22,4.3,3.4
2020,5,22,03:00,UTC,1,1023.9,55,0,0,7.3,-1.2,50000,39,5.3,4
2020,5,22,04:00,UTC,0,1024.2,51,0,0,8.5,-1.1,50000,56,5.7,4.2
2020,5,22,05:00,UTC,0,1024.5,43,0,0,9.5,-2.5,50000,60,7.7,5.3
2020,5,22,06:00,UTC,0,1024.6,32,0,0,10.8,-5.5,50000,68,7,4.9
2020,5,22,07:00,UTC,0,1024.6,33,0,0,11.9,-3.7,50000,78,6.5,3.6
2020,5,22,08:00,UTC,0,1024.5,34,0,0,13.2,-2.5,50000,8,8.8,6
2020,5,22,09:00,UTC,0,1024.4,31,0,0,14.3,-2.6,50000,356,10.5,5.1
2020,5,22,10:00,UTC,0,1024.2,26,0,0,15.7,-3.9,47680,19,7.1,4
2020,5,22,11:00,UTC,0,1024.1,22,0,0,16.8,-5.3,50000,15,5.6,3.3
2020,5,22,12:00,UTC,0,1023.9,22,0,0,16.8,-4.8,50000,1,7.6,4.8
2020,5,22,13:00,UTC,0,1023.7,22,0,0,17.7,-4.3,44290,348,6.5,4.1
2020,5,22,14:00,UTC,0,1023.3,21,0,0,17.5,-5.4,50000,347,6.2,3.4
2020,5,22,15:00,UTC,0,1023,33,0,0,16.5,0,50000,196,8.5,5.8
2020,5,22,16:00,UTC,0,1023,35,0,0,15.8,0.4,50000,193,6.9,5.2
2020,5,22,17:00,UTC,0,1022.9,37,0,0,14.6,0,50000,167,5.1,3.4
2020,5,22,18:00,UTC,0,1022.9,41,0,0,13.4,0.5,50000,186,4.9,3.8
2020,5,22,19:00,UTC,0,1023,47,0,0,11.7,0.6,50000,192,4.5,3.6
2020,5,22,20:00,UTC,0,1023.4,57,0,0,9.7,1.6,50000,205,3.7,3.3
2020,5,22,21:00,UTC,0,1023.7,68,0,0,8.4,2.8,50000,212,2.6,2.3
2020,5,22,22:00,UTC,0,1023.8,69,0,0,8.1,2.8,50000,208,1.8,1.6
2020,5,22,23:00,UTC,0,1023.6,73,0,0,7.2,2.8,50000,219,2,1.8
2020,5,23,00:00,UTC,0,1023.4,77,0,0,6.5,2.8,50000,227,2.1,1.5
2020,5,23,01:00,UTC,0,1023.5,81,0,0,5.1,2.1,50000,237,1.4,0.9
2020,5,23,02:00,UTC,0,1023.8,88,0,0,4.4,2.6,50000,274,0.8,0.5
2020,5,23,03:00,UTC,0,1024,80,0,0,5.6,2.4,50000,110,1.3,0.8
2020,5,23,04:00,UTC,0,1024,59,0,0,9.1,1.6,50000,111,1.1,0.7
2020,5,23,05:00,UTC,0,1023.7,50,0,0,11.5,1.4,50000,173,1.4,0.6
2020,5,23,06:00,UTC,0,1023.5,39,0,0,13.8,-0.1,50000,132,3.3,2.3
2020,5,23,07:00,UTC,0,1023.3,33,0,0,14.8,-1.4,50000,169,9.3,4.5
2020,5,23,08:00,UTC,0,1023.4,29,0,0,15.3,-2.7,48140,186,6.8,5
2020,5,23,09:00,UTC,0,1023.3,25,0,0,16,-3.9,50000,205,7.2,5.3
2020,5,23,10:00,UTC,0,1023.2,22,0,0,16.4,-5.2,50000,186,7.8,5.3
2020,5,23,11:00,UTC,0,1022.7,23,0,0,16.6,-4.4,50000,171,8.1,4.8
2020,5,23,12:00,UTC,0,1022.5,23,0,0,17.1,-4.5,50000,167,8.5,5.7
2020,5,23,13:00,UTC,0,1021.8,24,0,0,16.9,-3.8,50000,163,8.2,6.2
2020,5,23,14:00,UTC,0,1021.3,27,0,0,16.7,-2.2,50000,143,8.6,5.5
2020,5,23,15:00,UTC,0,1021.1,27,0,0,15.5,-3.7,50000,155,8,5.6
2020,5,23,16:00,UTC,0,1020.7,26,0,0,14.7,-4.7,50000,125,8,6.4
2020,5,23,17:00,UTC,0,1020.4,33,0,0,13.8,-2.4,50000,133,7.3,5.6
2020,5,23,18:00,UTC,0,1019.9,35,0,0,12.6,-2.3,50000,113,5.7,4.3
2020,5,23,19:00,UTC,0,1019.8,40,0,0,11.7,-1.4,50000,116,5.6,4.2
2020,5,23,20:00,UTC,0,1019.3,45,0,0,10.8,-0.7,50000,115,7.8,4.8
2020,5,23,21:00,UTC,0,1019.5,48,0,0,10.3,-0.3,50000,118,6,4.4
2020,5,23,22:00,UTC,0,1019.4,50,0,0,10.3,0.3,50000,122,6.8,4.8
2020,5,23,23:00,UTC,0,1018.9,52,0,0,9.9,0.6,50000,114,5.5,4.1
2020,5,24,00:00,UTC,1,1018.2,60,0,0,9.7,2.3,50000,110,6.4,5.1
2020,5,24,01:00,UTC,4,1017.8,58,0,0,9.8,1.9,50000,114,6.2,4.6
2020,5,24,02:00,UTC,2,1017.5,57,0,0,9.4,1.2,50000,120,5.8,4.2
2020,5,24,03:00,UTC,0,1017.7,60,0,0,9,1.5,50000,141,3.4,2.1
2020,5,24,04:00,UTC,0,1017.1,55,0,0,9.9,1.2,50000,130,6.7,3.8
2020,5,24,05:00,UTC,0,1016.9,52,0,0,10.4,1,50000,118,7.4,5.6
2020,5,24,06:00,UTC,0,1016.8,47,0,0,11.3,0.4,50000,116,6.9,5.1
2020,5,24,07:00,UTC,0,1016.7,45,0,0,12.2,0.7,50000,123,5.3,3.7
2020,5,24,08:00,UTC,0,1017,50,0,0,12.5,2.4,50000,191,5.3,3.5
2020,5,24,09:00,UTC,0,1017.1,53,0,0,12.9,3.5,50000,184,5.6,3.6
2020,5,24,10:00,UTC,0,1017.2,53,0,0,12.7,3.4,50000,157,6,3.9
2020,5,24,11:00,UTC,0,1017.2,45,0,0,13.7,2.1,50000,153,5.9,3.8
2020,5,24,12:00,UTC,1,1017.1,37,0,0,13.6,-0.9,50000,132,6.8,4.6
2020,5,24,13:00,UTC,0,1017.1,35,0,0,14,-1.2,50000,119,6,4.2
2020,5,24,14:00,UTC,4,1016.8,33,0,0,15.3,-1,50000,118,6.6,4.8
2020,5,24,15:00,UTC,6,1017,31,0,0,14.4,-2.6,50000,146,5.7,4.3
2020,5,24,16:00,UTC,7,1017.2,33,0,0,13.6,-2.6,50000,166,4,2.9
2020,5,24,17:00,UTC,2,1017.4,40,0,0,13.2,-0.2,50000,214,3.6,2.7
2020,5,24,18:00,UTC,7,1017.7,47,0,0,12.5,1.4,50000,245,2.6,2
2020,5,24,19:00,UTC,8,1017.9,55,0,0,11.8,3,50000,288,3.2,2.2
2020,5,24,20:00,UTC,8,1018.1,51,0,0,12,2.2,50000,316,4.2,3.4
2020,5,24,21:00,UTC,8,1018.2,60,0,0,11.2,3.7,50000,328,3.4,2.5
2020,5,24,22:00,UTC,8,1018.3,63,0,0,11.2,4.5,50000,352,3.5,3
2020,5,24,23:00,UTC,8,1018.7,66,0,0,11,4.9,50000,350,4.6,3.9
2020,5,25,00:00,UTC,7,1019.2,66,0,0,10.9,4.7,50000,41,4.4,2.9
2020,5,25,01:00,UTC,5,1019.4,67,0,0,10.6,4.6,50000,352,3.1,2.3
2020,5,25,02:00,UTC,8,1019.6,67,0,0,10.4,4.5,50000,4,3.6,3.2
2020,5,25,03:00,UTC,7,1020.1,65,0,0,10.8,4.4,50000,9,5,3.8
2020,5,25,04:00,UTC,0,1020.4,61,0,0,12,4.6,50000,8,5.7,4.1
2020,5,25,05:00,UTC,7,1020.9,56,0,0,13.1,4.5,50000,11,5.8,4.2
2020,5,25,06:00,UTC,0,1021.5,50,0,0,14.3,4,50000,14,7.3,5.2
2020,5,25,07:00,UTC,1,1022.1,46,0,0,15.2,3.7,50000,7,8.1,5.8
2020,5,25,08:00,UTC,2,1022.6,44,0,0,15.7,3.5,50000,352,7.4,5.6
2020,5,25,09:00,UTC,2,1022.9,42,0,0,16.5,3.5,50000,354,6.9,4.7
2020,5,25,10:00,UTC,7,1023.5,39,0,-1,16.9,2.9,50000,24,6.1,4
2020,5,25,11:00,UTC,5,1023.9,34,0,-1,17.5,1.3,50000,20,8.1,4.8
2020,5,25,12:00,UTC,1,1024,32,0,-1,18.3,1.3,50000,316,5.3,2.8
2020,5,25,13:00,UTC,4,1024.2,30,0,-1,18.4,0.7,50000,336,8.3,6.6
2020,5,25,14:00,UTC,7,1024.4,32,0,-1,18.9,1.6,50000,319,6.9,4.3
2020,5,25,15:00,UTC,2,1024.7,28,0,-1,18.6,-0.3,50000,330,5.5,3.9
2020,5,25,16:00,UTC,7,1025.2,36,0,-1,17.9,2.5,50000,1,5.1,3.4
2020,5,25,17:00,UTC,4,1025.5,36,0,-1,17.9,2.7,50000,334,4.2,3.3
2020,5,25,18:00,UTC,7,1026.2,42,0,-1,16.8,3.9,50000,308,4.7,3.4
2020,5,25,19:00,UTC,0,1027,56,0,-1,14.2,5.5,50000,283,4.2,3.6
2020,5,25,20:00,UTC,0,1027.5,58,0,-1,13.3,5.2,50000,291,5.1,4.3
2020,5,25,21:00,UTC,0,1028.1,63,0,-1,12.9,6.2,50000,304,5.4,4.1
2020,5,25,22:00,UTC,0,1028.6,68,0,-1,12.3,6.5,50000,308,5,3.7
2020,5,25,23:00,UTC,0,1028.8,72,0,-1,11.4,6.5,50000,308,6.3,3.8
2020,5,26,00:00,UTC,0,1029,71,0,-1,11.3,6.2,50000,318,4.3,3.2
2020,5,26,01:00,UTC,0,1029,73,0,-1,10.8,6.2,50000,319,5.1,4.1
2020,5,26,02:00,UTC,0,1029.5,81,0,-1,9.1,6,50000,322,2.6,1.7
2020,5,26,03:00,UTC,0,1029.9,82,0,-1,9.4,6.4,50000,280,1.8,1.2
2020,5,26,04:00,UTC,0,1030.1,71,0,-1,11.6,6.5,50000,316,2.9,1.6
2020,5,26,05:00,UTC,0,1030.3,60,0,-1,14.1,6.4,50000,351,3.3,2.5
2020,5,26,06:00,UTC,0,1030.4,50,0,-1,16.7,6.1,50000,290,2.4,1.5
2020,5,26,07:00,UTC,0,1030.6,36,0,-1,19.7,4.2,47900,314,3.5,2.4
2020,5,26,08:00,UTC,0,1030.5,24,0,-1,20.8,-0.5,50000,348,5.4,2.9
2020,5,26,09:00,UTC,4,1030.3,24,0,-1,21.1,-0.6,50000,325,7.4,5.1
2020,5,26,10:00,UTC,5,1030.2,23,0,-1,21.4,-0.5,50000,315,5.6,2.5
2020,5,26,11:00,UTC,3,1029.8,20,0,-1,22.6,-1.4,50000,357,6.7,3.8
2020,5,26,12:00,UTC,7,1029.5,21,0,-1,23,-0.8,47500,8,5.8,3.7
2020,5,26,13:00,UTC,3,1029,20,0,-1,23.2,-0.9,50000,242,4.5,2.3
2020,5,26,14:00,UTC,5,1028.8,23,0,-1,22.1,-0.2,50000,283,4.1,3
2020,5,26,15:00,UTC,7,1028.6,22,0,-1,22.1,-0.4,50000,292,4,1.9
2020,5,26,16:00,UTC,8,1028.4,26,0,-1,21.6,1.5,46020,229,10,7.3
2020,5,26,17:00,UTC,0,1028.2,29,0,-1,20.7,2.2,50000,238,8.5,6.4
2020,5,26,18:00,UTC,0,1028.2,30,0,-1,19.4,1.6,50000,243,8.2,5.7
2020,5,26,19:00,UTC,0,1028.4,36,0,-1,17.1,2.1,50000,252,5.3,3.8
2020,5,26,20:00,UTC,0,1028.3,44,0,-1,14.9,2.6,50000,256,3.8,2.9
2020,5,26,21:00,UTC,0,1028.1,47,0,-1,13.9,2.8,50000,272,4.1,3.5
2020,5,26,22:00,UTC,0,1028,47,0,-1,14,2.9,50000,306,5.5,4.2
2020,5,26,23:00,UTC,0,1027.8,46,0,-1,14.1,2.6,50000,319,4.2,3.4
2020,5,27,00:00,UTC,0,1027.5,57,0,-1,11.4,3.1,50000,311,2.9,2.1
2020,5,27,01:00,UTC,0,1027.2,60,0,-1,10.3,3,50000,319,1.9,1.6
2020,5,27,02:00,UTC,0,1026.8,64,0,-1,9.7,3.3,50000,297,3.3,2.8
2020,5,27,03:00,UTC,0,1026.5,61,0,-1,10.6,3.3,50000,297,3.2,2.7
2020,5,27,04:00,UTC,0,1026.5,58,0,-1,12.2,4.3,50000,267,4.5,3.4
2020,5,27,05:00,UTC,0,1026.1,48,0,-1,14.9,3.9,50000,301,4.7,3.6
2020,5,27,06:00,UTC,0,1025.8,41,0,-1,16.9,3.5,48170,280,3.3,2.2
2020,5,27,07:00,UTC,0,1025.1,30,0,-1,18.5,0.7,50000,226,4.1,2.6
2020,5,27,08:00,UTC,0,1024.5,26,0,-1,19.7,-0.4,50000,230,6.2,3.8
2020,5,27,09:00,UTC,0,1023.9,26,0,-1,20.3,0.1,50000,232,6.9,4.2
2020,5,27,10:00,UTC,0,1023.3,24,0,-1,20.5,-0.5,50000,223,9,6.1
2020,5,27,11:00,UTC,0,1022.9,26,0,-1,21.1,0.6,50000,245,11.1,7.7
2020,5,27,12:00,UTC,0,1022.5,25,0,-1,20.3,-0.6,50000,213,11.5,7.9
2020,5,27,13:00,UTC,2,1021.8,31,0,-1,19.9,2.5,50000,217,8.8,6.4
2020,5,27,14:00,UTC,0,1021,41,0,-1,20.3,6.6,47780,228,7.8,5.7
2020,5,27,15:00,UTC,0,1020.7,46,0,-1,19.4,7.4,50000,240,9.8,7.2
2020,5,27,16:00,UTC,1,1020.3,42,0,-1,17.8,4.7,50000,231,9.1,7
2020,5,27,17:00,UTC,2,1020.1,44,0,-1,16.9,4.7,50000,258,7.9,5.7
2020,5,27,18:00,UTC,7,1019.9,53,0,-1,15.7,6.1,50000,235,5.2,3.8
2020,5,27,19:00,UTC,7,1019.9,61,0,-1,14.6,7.2,50000,236,4.7,3.8
2020,5,27,20:00,UTC,6,1020.1,71,0,-1,13.4,8.2,50000,242,4.2,3.2
2020,5,27,21:00,UTC,8,1020.3,74,0,-1,13,8.4,50000,244,3.8,3.2
2020,5,27,22:00,UTC,8,1020.4,66,0,-1,14.3,8.1,50000,322,4.6,3.4
2020,5,27,23:00,UTC,8,1020.4,67,0,-1,13.8,7.8,50000,352,6.6,4.5
2020,5,28,00:00,UTC,7,1020.3,74,0,-1,12.9,8.4,50000,354,6.7,4.9
2020,5,28,01:00,UTC,8,1021.1,74,0,-1,12.6,8.1,50000,295,5.9,4
2020,5,28,02:00,UTC,8,1021.3,78,0,-1,12,8.2,50000,309,4.8,3.5
2020,5,28,03:00,UTC,8,1021.5,77,0,-1,11.9,8,50000,310,5.3,3.9
2020,5,28,04:00,UTC,8,1021.9,79,0,-1,11.3,7.8,50000,322,4.8,3.4
2020,5,28,05:00,UTC,2,1022.1,71,0,-1,11.8,6.7,50000,320,6.7,4.5
2020,5,28,06:00,UTC,4,1022.5,63,0,-1,12.4,5.6,50000,315,5.1,3.6
2020,5,28,07:00,UTC,0,1022.8,57,0,-1,13.4,5,50000,306,6.7,4.8
2020,5,28,08:00,UTC,5,1023,53,0,-1,13.9,4.4,50000,303,6.3,5
2020,5,28,09:00,UTC,2,1022.9,48,0,-1,15.4,4.4,50000,271,7.9,4.8
2020,5,28,10:00,UTC,7,1022.8,33,0,-1,17.1,0.5,50000,340,7.3,4.3
2020,5,28,11:00,UTC,8,1023,39,0,-1,15.8,1.7,50000,288,6.2,5
2020,5,28,12:00,UTC,7,1022.8,35,0,-1,16.7,1,50000,293,5.2,3.5
2020,5,28,13:00,UTC,7,1022.7,32,0,-1,17.5,0.5,50000,322,5.5,3.8
2020,5,28,14:00,UTC,7,1022.8,33,0,-1,17,0.8,50000,258,5.5,4.1
2020,5,28,15:00,UTC,7,1022.8,50,0,-1,15.5,5.1,50000,249,6.3,4
2020,5,28,16:00,UTC,6,1022.9,33,0,-1,16.6,0.4,50000,332,9.9,7.2
2020,5,28,17:00,UTC,7,1023.2,36,0,-1,15.9,0.7,50000,335,6,4.7
2020,5,28,18:00,UTC,7,1023.6,36,0,-1,15.8,0.6,50000,349,9.4,6.4
2020,5,28,19:00,UTC,4,1024.3,38,0,-1,14.2,0.2,50000,331,6.3,4.2
2020,5,28,20:00,UTC,1,1024.8,44,0,-1,12.9,0.9,50000,309,5.1,3.8
2020,5,28,21:00,UTC,0,1025,45,0,-1,12,0.5,50000,319,5.8,4.4
2020,5,28,22:00,UTC,0,1025.4,51,0,-1,10.5,0.7,50000,330,5.9,4.7
2020,5,28,23:00,UTC,0,1026,54,0,-1,9.8,0.9,50000,325,6.3,4.5
2020,5,29,00:00,UTC,0,1026.3,59,0,-1,9,1.3,50000,330,6,4.8
2020,5,29,01:00,UTC,0,1026.3,64,0,-1,8.2,1.8,50000,329,5.6,4.7
2020,5,29,02:00,UTC,0,1026.4,67,0,-1,7.7,2,50000,329,5.1,4.2
2020,5,29,03:00,UTC,0,1026.5,66,0,-1,8.5,2.5,50000,336,5,4.2
2020,5,29,04:00,UTC,0,1026.4,62,0,-1,10,3,50000,336,5.4,4.3
2020,5,29,05:00,UTC,0,1026.5,56,0,-1,11.7,3.3,50000,335,4.9,3.7
2020,5,29,06:00,UTC,0,1026.2,49,0,-1,13.2,2.7,50000,335,4.5,3.1
2020,5,29,07:00,UTC,0,1026,41,0,-1,14.8,1.6,50000,332,8,5.5
2020,5,29,08:00,UTC,1,1025.9,36,0,-1,15.4,0.3,50000,312,6,3.4
2020,5,29,09:00,UTC,1,1025.8,33,0,-1,16.7,0.2,50000,336,6.7,3.9
2020,5,29,10:00,UTC,5,1025.4,32,0,-1,17.4,0.7,50000,354,7.8,4.8
2020,5,29,11:00,UTC,7,1025.2,33,0,-1,17.1,0.7,50000,345,6,3.6
2020,5,29,12:00,UTC,7,1024.8,35,0,-1,16.9,1.2,47320,321,6.1,3.8
2020,5,29,13:00,UTC,7,1024.6,37,0,-1,16.8,2,50000,353,7.5,4.8
2020,5,29,14:00,UTC,5,1024.3,35,0,-1,17.1,1.4,50000,339,7,4
2020,5,29,15:00,UTC,7,1024.1,36,0,-1,16.7,1.4,50000,326,8.5,6.3
2020,5,29,16:00,UTC,0,1024,33,0,-1,17.2,0.7,50000,331,7.7,5.9
2020,5,29,17:00,UTC,0,1024.3,36,0,-1,16.3,1,50000,359,7.4,5.1
2020,5,29,18:00,UTC,6,1024.5,41,0,-1,15.3,2,50000,3,4,3
2020,5,29,19:00,UTC,7,1024.8,44,0,-1,14.9,2.7,50000,358,3.1,2.5
2020,5,29,20:00,UTC,4,1025,48,0,-1,14,3,50000,342,3,2.6
2020,5,29,21:00,UTC,6,1025.2,52,0,-1,13,3.3,50000,336,3.8,3.5
2020,5,29,22:00,UTC,0,1025.6,60,0,-1,11.2,3.7,50000,356,5.4,4.9
2020,5,29,23:00,UTC,0,1026,64,0,-1,10.4,3.9,50000,353,4.4,3.9
2020,5,30,00:00,UTC,1,1026.1,64,0,-1,10.4,3.9,50000,352,4.3,3.9
2020,5,30,01:00,UTC,8,1026.5,61,0,-1,11.5,4.2,50000,360,4.8,3.7
2020,5,30,02:00,UTC,8,1026.7,62,0,-1,11.5,4.4,50000,6,4.2,3.3
2020,5,30,03:00,UTC,8,1026.7,58,0,-1,12.1,4.1,50000,13,6.4,4.2
2020,5,30,04:00,UTC,0,1026.8,53,0,-1,13,3.8,50000,15,8.6,5.5
2020,5,30,05:00,UTC,0,1027.1,49,0,-1,14.2,3.7,50000,30,8.3,4.7
2020,5,30,06:00,UTC,0,1027.3,44,0,-1,14.7,2.5,50000,46,9.4,6.5
2020,5,30,07:00,UTC,1,1027.5,43,0,-1,14.8,2.4,50000,13,9.6,7.4
2020,5,30,08:00,UTC,4,1027.5,41,0,-1,15.8,2.5,50000,7,8.6,6.8
2020,5,30,09:00,UTC,2,1027.2,39,0,-1,16.8,2.7,50000,25,11.4,6.5
2020,5,30,10:00,UTC,0,1026.8,35,0,-1,18.3,2.5,50000,29,12.3,7.2
2020,5,30,11:00,UTC,1,1026.6,33,0,-1,19,2.2,50000,35,12,7.7
2020,5,30,12:00,UTC,0,1026.3,31,0,-1,20,2.3,50000,31,11.6,6.7
2020,5,30,13:00,UTC,0,1025.9,32,0,-1,19.6,2.5,48440,14,12.5,7.7
2020,5,30,14:00,UTC,0,1025.8,30,0,-1,19.9,1.7,50000,38,11,7.7
2020,5,30,15:00,UTC,0,1025.7,31,0,-1,19.8,2.4,50000,18,11.7,7.6
2020,5,30,16:00,UTC,0,1025.7,31,0,-1,20,2.3,50000,33,10.4,6.8
2020,5,30,17:00,UTC,0,1025.8,32,0,-1,19.2,1.9,50000,36,11.6,7.7
2020,5,30,18:00,UTC,0,1026.1,34,0,-1,18.1,2,50000,42,9.4,6.2
2020,5,30,19:00,UTC,0,1026.7,36,0,-1,16.9,1.5,50000,41,8.1,5.7
2020,5,30,20:00,UTC,0,1027.2,41,0,-1,15.1,2,50000,31,4.5,3.5
2020,5,30,21:00,UTC,0,1027.5,45,0,-1,14,2.3,50000,25,5.1,3.9
2020,5,30,22:00,UTC,0,1027.9,50,0,-1,12.8,2.6,50000,12,5.5,4.6
2020,5,30,23:00,UTC,0,1028,53,0,-1,11.9,2.6,50000,13,6.4,5
2020,5,31,00:00,UTC,0,1028.3,55,0,-1,11.5,2.8,50000,14,7.3,5.2
2020,5,31,01:00,UTC,0,1028.3,59,0,-1,10.6,3,50000,14,6.6,4.7
2020,5,31,02:00,UTC,0,1028.4,58,0,-1,11,3.1,50000,23,7.2,5
2020,5,31,03:00,UTC,0,1028.5,56,0,-1,11.7,3.2,50000,28,6.8,4.7
2020,5,31,04:00,UTC,0,1028.7,51,0,-1,13.1,3.3,50000,38,6.2,4
2020,5,31,05:00,UTC,0,1029,46,0,-1,14.7,3.2,50000,35,7,4.8
2020,5,31,06:00,UTC,0,1028.9,41,0,-1,16,2.7,50000,60,9,6.2
2020,5,31,07:00,UTC,0,1028.6,32,0,-1,17,0.2,50000,47,12,7.7
2020,5,31,08:00,UTC,0,1028.4,30,0,-1,17.9,0,50000,38,10.5,7.3
2020,5,31,09:00,UTC,0,1027.9,29,0,-1,18.8,0.2,50000,28,10.8,7.6
2020,5,31,10:00,UTC,0,1027.4,28,0,-1,19.8,0.5,48270,20,11.2,7.7
2020,5,31,11:00,UTC,0,1027.1,30,0,-1,19.9,2,50000,11,12.3,7.3
2020,5,31,12:00,UTC,1,1026.8,31,0,-1,19.9,2.1,47570,27,14,10.1
2020,5,31,13:00,UTC,0,1026.2,31,0,-1,20.5,2.7,50000,29,12.9,7.9
2020,5,31,14:00,UTC,0,1025.5,29,0,-1,21.1,2.6,50000,24,11.9,7.4
2020,5,31,15:00,UTC,0,1025.2,31,0,-1,20.6,2.7,50000,22,10.8,7.3
2020,5,31,16:00,UTC,0,1025,32,0,-1,20.5,3,50000,29,12.1,8.2
2020,5,31,17:00,UTC,0,1024.8,34,0,-1,20,3.4,50000,24,10.8,7.3
2020,5,31,18:00,UTC,0,1024.8,36,0,-1,19.3,4,49370,22,8.3,5.3
2020,5,31,19:00,UTC,0,1025.1,40,0,-1,18.1,4.4,50000,26,5.3,3.8
2020,5,31,20:00,UTC,0,1025.3,44,0,-1,16.7,4.5,50000,26,5,3.8
2020,5,31,21:00,UTC,0,1025.4,50,0,-1,15.2,4.9,50000,9,4,3.7
2020,5,31,22:00,UTC,5,1025.7,54,0,-1,14,4.8,50000,10,4.1,3.5
2020,5,31,23:00,UTC,0,1025.8,57,0,-1,13.3,4.9,50000,8,4.2,4
2020,6,1,00:00,UTC,0,1025.8,61,0,-1,12,4.8,50000,23,3.3,2.5
2020,6,1,01:00,UTC,0,1025.8,66,0,-1,11.1,5,50000,360,4,3.8
2020,6,1,02:00,UTC,8,1025.4,67,0,-1,11.4,5.6,50000,357,4.1,3.5
2020,6,1,03:00,UTC,0,1025.4,66,0,-1,12,5.8,50000,354,5.3,3.8
2020,6,1,04:00,UTC,8,1025.7,63,0,-1,12.7,5.9,50000,11,5.7,4.1
2020,6,1,05:00,UTC,7,1025.6,58,0,-1,13.8,5.7,50000,21,5.2,3.9
2020,6,1,06:00,UTC,7,1025.7,57,0,-1,14.1,5.7,50000,3,4.9,3.5
2020,6,1,07:00,UTC,2,1025.5,47,0,-1,15.5,4.2,48230,19,6.1,3.9
2020,6,1,08:00,UTC,7,1025.4,43,0,-1,16.2,3.7,50000,13,5.2,3
2020,6,1,09:00,UTC,7,1025.2,43,0,-1,16.1,3.6,50000,96,4.5,2.6
2020,6,1,10:00,UTC,8,1025,45,0,-1,15.9,4.1,50000,94,5.8,4
2020,6,1,11:00,UTC,8,1025.1,59,0,-1,13.9,5.9,50000,134,6.9,5.4
2020,6,1,12:00,UTC,7,1024.9,56,0,-1,13.7,5.1,50000,141,6.4,4.3
2020,6,1,13:00,UTC,7,1024.5,59,0,-1,14.1,6.1,50000,133,5.4,4.1
2020,6,1,14:00,UTC,1,1023.9,54,0,-1,15.2,6.1,50000,155,4.3,3.2
2020,6,1,15:00,UTC,7,1023.4,50,0,-1,16.4,6,50000,169,4.5,3.2
2020,6,1,16:00,UTC,0,1023.7,54,0,-1,13.9,4.8,46110,160,6.7,5.3
2020,6,1,17:00,UTC,0,1023.9,57,0,-1,13,4.6,50000,146,5.5,4.2
2020,6,1,18:00,UTC,3,1024.1,60,0,-1,11.9,4.4,50000,160,5,3.7
2020,6,1,19:00,UTC,0,1024.2,61,0,-1,10.9,3.8,50000,153,2.4,1.4
2020,6,1,20:00,UTC,0,1024.6,62,0,-1,10.4,3.5,50000,123,2.6,2.1
2020,6,1,21:00,UTC,6,1024.8,74,0,-1,8.6,4.2,50000,110,0.9,0.8
2020,6,1,22:00,UTC,7,1025,74,0,-1,8.6,4.1,50000,346,1.7,1.1
2020,6,1,23:00,UTC,7,1024.8,78,0,-1,7.8,4.2,50000,12,2.3,2
2020,6,2,00:00,UTC,7,1024.6,76,0,-1,8.1,4.1,50000,37,1.7,1.3
2020,6,2,01:00,UTC,0,1024.4,79,0,-1,7.2,3.9,50000,38,2.4,2.2
2020,6,2,02:00,UTC,0,1024.1,80,0,-1,7,3.8,50000,36,2.1,1.8
2020,6,2,03:00,UTC,0,1024,73,0,-1,8.9,4.3,32180,52,2.3,1.9
2020,6,2,04:00,UTC,0,1023.8,57,0,-1,11.4,3.2,49860,49,3.5,2.7
2020,6,2,05:00,UTC,0,1023.6,48,0,-1,13,2.1,50000,54,4.8,3.3
2020,6,2,06:00,UTC,0,1023.5,40,0,-1,13.7,0.2,50000,105,5.4,2.9
2020,6,2,07:00,UTC,0,1023,36,0,-1,14.7,-0.2,50000,93,6.1,3.8
2020,6,2,08:00,UTC,0,1022.7,35,0,-1,16.1,0.7,50000,84,8.4,5.2
2020,6,2,09:00,UTC,0,1021.9,32,0,-1,16.7,-0.1,50000,99,9.2,4.3
2020,6,2,10:00,UTC,0,1021.5,38,0,-1,15.6,1.3,50000,140,8.3,5.7
2020,6,2,11:00,UTC,0,1021.3,37,0,-1,15.3,0.6,50000,138,8.3,5.7
2020,6,2,12:00,UTC,0,1020.7,34,0,-1,16,0,50000,154,7.5,5.3
2020,6,2,13:00,UTC,0,1020.2,33,0,-1,15.6,-0.7,47080,135,7.9,5.8
2020,6,2,14:00,UTC,0,1019.5,33,0,-1,16.1,0,50000,145,7.3,5.2
2020,6,2,15:00,UTC,0,1018.8,32,0,-1,16.5,-0.2,50000,133,7.9,6.2
2020,6,2,16:00,UTC,0,1018.2,32,0,-1,15.9,-0.7,50000,142,7.3,5.6
2020,6,2,17:00,UTC,0,1017.7,33,0,-1,15.7,-0.5,50000,138,7.1,5.2
2020,6,2,18:00,UTC,0,1017.6,35,0,-1,14.9,-0.4,50000,144,6.6,4.8
2020,6,2,19:00,UTC,0,1017.6,38,0,-1,14.4,0.2,50000,117,2.1,1.5
2020,6,2,20:00,UTC,4,1017.7,45,0,-1,12.9,1.1,50000,29,1.5,1.1
2020,6,2,21:00,UTC,0,1017.6,56,0,-1,10.4,2.1,50000,30,2.3,1.9
2020,6,2,22:00,UTC,7,1017.4,59,0,-1,9.4,1.8,50000,24,3,2.3
2020,6,2,23:00,UTC,4,1017.1,62,0,-1,8.9,2.1,50000,28,3.7,3
2020,6,3,00:00,UTC,0,1017,63,0,-1,8.4,1.8,50000,28,3.9,3.2
2020,6,3,01:00,UTC,0,1016.5,64,0,-1,7.3,1.1,50000,49,4.5,3.7
2020,6,3,02:00,UTC,0,1016.4,64,0,-1,7.7,1.3,50000,60,5.3,4.8
2020,6,3,03:00,UTC,0,1016,59,0,-1,9.4,1.7,50000,63,5.8,4.8
2020,6,3,04:00,UTC,0,1015.7,58,0,-1,11.4,3.5,50000,92,5.1,3.5
2020,6,3,05:00,UTC,0,1015.7,54,0,-1,13.3,4.1,50000,95,4.2,3
2020,6,3,06:00,UTC,0,1015.7,42,0,-1,15.2,2.4,50000,117,6.1,3.8
2020,6,3,07:00,UTC,2,1015.3,34,0,-1,16.9,1.1,50000,94,8.9,4.9
2020,6,3,08:00,UTC,2,1015,37,0,-1,16.6,1.8,50000,124,8,4.8
2020,6,3,09:00,UTC,5,1014.8,33,0,-1,16.6,0.4,47510,75,9.4,5.9
2020,6,3,10:00,UTC,1,1014.5,32,0,-1,17.1,0.4,48450,89,11.3,8
2020,6,3,11:00,UTC,0,1014.3,31,0,-1,17,-0.5,50000,114,11.6,8.4
2020,6,3,12:00,UTC,0,1013.8,30,0,-1,17,-1,42390,103,10.6,6.7
2020,6,3,13:00,UTC,0,1013.3,30,0,-1,17.7,-0.3,50000,107,9.8,6.7
2020,6,3,14:00,UTC,0,1012.9,32,0,-1,16.9,0.2,50000,117,7.9,4.8
2020,6,3,15:00,UTC,0,1012.5,33,0,-1,17.2,0.9,50000,117,7.5,4.5
2020,6,3,16:00,UTC,0,1012.1,35,0,-1,17,1.3,50000,140,7.8,5.2
2020,6,3,17:00,UTC,0,1012,36,0,-1,17,1.8,50000,111,7.3,5.2
2020,6,3,18:00,UTC,0,1011.6,38,0,-1,16.4,2,50000,107,5,3.6
2020,6,3,19:00,UTC,0,1011.5,44,0,-1,15.1,3,50000,74,2.9,2.5
2020,6,3,20:00,UTC,0,1011.5,51,0,-1,13.4,3.5,50000,59,3,2.6
2020,6,3,21:00,UTC,0,1011.2,53,0,-1,12.6,3.2,50000,59,3.7,3.4
2020,6,3,22:00,UTC,0,1010.8,57,0,-1,11.3,3.1,50000,49,3.8,3.2
2020,6,3,23:00,UTC,7,1010.3,55,0,-1,12.2,3.3,50000,49,4.7,3.7
2020,6,4,00:00,UTC,7,1009.8,55,0,-1,12.3,3.4,50000,50,5.2,4
2020,6,4,01:00,UTC,2,1009.3,60,0,-1,11.4,3.8,50000,53,5,3.9
2020,6,4,02:00,UTC,6,1009.1,61,0,-1,11.5,4.2,50000,49,3.1,2
2020,6,4,03:00,UTC,7,1008.8,61,0,-1,11.7,4.4,50000,43,4.2,2.8
2020,6,4,04:00,UTC,8,1008.5,59,0,-1,12.3,4.4,43500,40,4.7,3
2020,6,4,05:00,UTC,7,1007.8,57,0,-1,13.3,5.1,50000,34,6,3.9
2020,6,4,06:00,UTC,7,1007.2,56,0,-1,15,6.4,50000,22,4.5,2.5
2020,6,4,07:00,UTC,3,1006.7,47,0,-1,18.5,6.9,46760,54,7.3,5.8
2020,6,4,08:00,UTC,3,1006.1,43,0,-1,20,7.1,47000,61,10.6,7.8
2020,6,4,09:00,UTC,7,1006.1,49,0,-1,18.5,7.7,49910,102,10.3,6.7
2020,6,4,10:00,UTC,5,1006,66,0,-1,17,10.7,33160,118,8,5.7
2020,6,4,11:00,UTC,8,1005.8,80,0,-1,14.7,11.3,23820,102,6.8,4.1
2020,6,4,12:00,UTC,7,1005.1,73,0,-1,15.8,11,49470,73,10.2,5.2
2020,6,4,13:00,UTC,8,1004.6,74,0,-1,15.1,10.5,19020,38,7.4,5.4
2020,6,4,14:00,UTC,8,1004.1,77,0,-1,14.7,10.7,44040,5,6.1,4.3
2020,6,4,15:00,UTC,8,1003.3,76,0,-1,15.8,11.5,50000,338,5.2,4
2020,6,4,16:00,UTC,7,1002.5,63,0,-1,16.3,9.2,50000,339,6,4.5
2020,6,4,17:00,UTC,8,1003,70,0,-1,14.1,8.6,50000,129,8.6,6.8
2020,6,4,18:00,UTC,8,1002.9,82,0,-1,12.9,10,22040,65,2.8,2
2020,6,4,19:00,UTC,8,1002.1,86,0,-1,12.5,10.2,37850,327,3.2,2.4
2020,6,4,20:00,UTC,8,1001.1,88,0,-1,12.1,10.2,50000,314,5.5,4
2020,6,4,21:00,UTC,7,1000.2,86,0,-1,12.1,9.8,50000,317,6.6,5.1
2020,6,4,22:00,UTC,8,999.4,90,0.2,-1,11.7,10,34990,336,6.5,4.6
2020,6,4,23:00,UTC,8,998.7,91,0.6,-1,11.4,9.9,23810,333,6.7,4.8
2020,6,5,00:00,UTC,8,998.1,93,0,-1,11.1,10,23060,325,7.1,4.8
2020,6,5,01:00,UTC,8,997.4,94,0.4,-1,11,10.1,6720,326,7.5,5.7
2020,6,5,02:00,UTC,8,996.8,95,0,-1,10.9,10.2,19490,318,7.2,4.8
2020,6,5,03:00,UTC,8,996.5,95,0,-1,11,10.3,8980,315,5.8,4.2
2020,6,5,04:00,UTC,8,996.3,96,0.2,-1,11.2,10.6,3250,314,5.7,4.2
2020,6,5,05:00,UTC,8,996.4,97,0,-1,11.5,11.1,2970,299,4.3,3.3
2020,6,5,06:00,UTC,8,996.3,98,0.2,-1,11.7,11.4,2230,296,4.5,3.9
2020,6,5,07:00,UTC,8,996.5,98,0,-1,12,11.6,3490,274,4.9,3.5
2020,6,5,08:00,UTC,8,997,96,0,-1,12.5,11.9,11920,262,4.8,3.5
2020,6,5,09:00,UTC,8,997.6,95,0,-1,12.7,11.9,8250,254,4.9,3.4
2020,6,5,10:00,UTC,8,998.1,89,0,-1,13.3,11.5,32190,242,6.5,4.8
2020,6,5,11:00,UTC,8,998.6,85,0,-1,14,11.6,50000,218,5,3.5
2020,6,5,12:00,UTC,8,999.1,81,0,-1,15.2,11.9,38280,201,6.2,4.1
2020,6,5,13:00,UTC,7,999.5,82,0,-1,14.5,11.4,49070,201,5.3,3.7
2020,6,5,14:00,UTC,8,999.8,75,0,-1,14.8,10.4,50000,196,2.1,1.6
2020,6,5,15:00,UTC,7,999.8,55,0,-1,18.4,9.1,39940,225,9.4,5.8
2020,6,5,16:00,UTC,0,1000.1,49,0,-1,18.8,7.7,50000,210,8.2,6.1
2020,6,5,17:00,UTC,0,1000.4,48,0,-1,18.5,7.2,50000,197,6.9,5.1
2020,6,5,18:00,UTC,1,1000.9,70,0,-1,15.3,9.8,50000,140,7.8,6.1
2020,6,5,19:00,UTC,2,1001.4,76,0,-1,14.4,10.2,50000,120,4.4,3.2
2020,6,5,20:00,UTC,0,1001.5,89,0,-1,13.7,11.9,50000,109,4.4,3.5
2020,6,5,21:00,UTC,1,1001.4,89,0,-1,13.5,11.7,50000,111,4.7,3.7
2020,6,5,22:00,UTC,4,1001.2,83,0,-1,14.1,11.2,50000,115,5.6,4.5
2020,6,5,23:00,UTC,6,1000.8,81,0,-1,14.2,11,50000,120,7,5
2020,6,6,00:00,UTC,0,1000.3,85,0,-1,13.4,10.9,50000,123,6.6,5.1
2020,6,6,01:00,UTC,0,999.6,84,0,-1,13.3,10.6,50000,112,6.2,4.3
2020,6,6,02:00,UTC,0,998.7,83,0,-1,13.1,10.2,50000,104,6.2,4.6
2020,6,6,03:00,UTC,0,997.9,71,0,-1,14.8,9.4,50000,112,8.7,6.1
2020,6,6,04:00,UTC,7,997.1,70,0,-1,14.7,9.2,50000,111,10,7
2020,6,6,05:00,UTC,8,997,80,0.8,-1,13.3,10,13910,125,13,8.8
2020,6,6,06:00,UTC,8,996.9,94,3.8,-1,11.8,10.9,7310,127,10.5,7.8
2020,6,6,07:00,UTC,8,997.1,96,3.2,-1,11.9,11.3,5300,137,10.7,7.4
2020,6,6,08:00,UTC,8,997.6,96,0,-1,12.5,11.8,37610,158,7.8,6
2020,6,6,09:00,UTC,8,997.8,93,0,-1,13.9,12.8,43540,182,7.3,4.9
2020,6,6,10:00,UTC,7,998.1,80,0,-1,15.6,12.2,50000,200,7.9,5.6
2020,6,6,11:00,UTC,7,998.4,74,0,-1,16.3,11.6,50000,186,10.3,7.3
2020,6,6,12:00,UTC,7,999,69,0,-1,16.3,10.7,50000,196,10.2,7.5
2020,6,6,13:00,UTC,7,999.5,69,0,-1,16.3,10.6,50000,173,9.8,7.2
2020,6,6,14:00,UTC,7,1000.7,82,0,-1,12.9,9.9,50000,219,8.8,6.5
2020,6,6,15:00,UTC,5,1001.2,72,0,-1,13.9,9.1,50000,214,11.4,7.7
2020,6,6,16:00,UTC,4,1001.7,63,0,-1,14,7,50000,217,15.5,10.6
2020,6,6,17:00,UTC,7,1002.6,61,0,-1,13.9,6.6,50000,214,13.5,9.6
2020,6,6,18:00,UTC,0,1003.3,61,0,-1,13.1,5.6,50000,212,12.2,8.2
2020,6,6,19:00,UTC,0,1003.8,63,0,-1,12.3,5.5,50000,200,9.6,7.1
2020,6,6,20:00,UTC,0,1004.2,62,0,-1,12,5,50000,195,11.9,8.3
2020,6,6,21:00,UTC,0,1004.6,61,0,-1,11.9,4.5,50000,194,13.1,9.5
2020,6,6,22:00,UTC,0,1005.1,63,0,-1,11.6,4.8,50000,193,12.7,9.2
2020,6,6,23:00,UTC,0,1005.5,67,0,-1,11.3,5.5,50000,192,12,8.7
2020,6,7,00:00,UTC,0,1006,71,0,-1,11,6,50000,191,11.5,8.1
2020,6,7,01:00,UTC,0,1006.6,74,0,-1,10.9,6.4,50000,200,11.2,7.6
2020,6,7,02:00,UTC,0,1007.3,73,0,-1,11,6.4,50000,199,11.6,7.8
2020,6,7,03:00,UTC,0,1008.1,72,0,-1,11.4,6.5,50000,202,10.6,7.7
2020,6,7,04:00,UTC,0,1008.7,69,0,-1,12.1,6.7,50000,209,10.1,7.1
2020,6,7,05:00,UTC,0,1009.3,62,0,-1,13.3,6.2,50000,220,11.4,7.1
2020,6,7,06:00,UTC,1,1009.7,56,0,-1,14.5,5.7,50000,225,11.5,7.3
2020,6,7,07:00,UTC,0,1010.6,60,0,-1,14.6,6.8,50000,192,11.2,8.1
2020,6,7,08:00,UTC,0,1011.2,52,0,-1,15.8,6,50000,205,8.9,6.7
2020,6,7,09:00,UTC,0,1011.9,48,0,-1,17.1,6.1,50000,191,10.2,6.6
2020,6,7,10:00,UTC,0,1012.1,45,0,-1,17.6,5.4,48430,186,9.7,5.9
2020,6,7,11:00,UTC,0,1012.4,38,0,-1,18.2,3.6,50000,178,9.4,6.5
2020,6,7,12:00,UTC,0,1012.4,35,0,-1,18.7,2.8,50000,181,8.5,6.1
2020,6,7,13:00,UTC,0,1012.1,34,0,-1,19.2,2.9,50000,174,8.5,4.8
2020,6,7,14:00,UTC,0,1011.9,40,0,-1,18.6,4.8,50000,143,7.8,5.6
2020,6,7,15:00,UTC,1,1011.6,43,0,-1,17.3,4.5,50000,124,10,7.2
2020,6,7,16:00,UTC,4,1011.8,41,0,-1,17.7,4.1,50000,130,6.7,5.1
2020,6,7,17:00,UTC,8,1010.8,54,0,-1,16.7,7.3,50000,127,7,5.5
2020,6,7,18:00,UTC,7,1011.3,73,0,-1,16.1,11.2,50000,173,4.1,3
2020,6,7,19:00,UTC,6,1011.5,78,0,-1,15.5,11.6,50000,151,4,3.3
2020,6,7,20:00,UTC,6,1011.6,81,0,-1,14.8,11.5,50000,137,4.7,3.8
2020,6,7,21:00,UTC,3,1011.8,85,0,-1,14,11.5,50000,145,3.1,2
2020,6,7,22:00,UTC,7,1011.6,87,0,-1,13.6,11.5,50000,139,1.2,0.9
2020,6,7,23:00,UTC,7,1011.6,88,0,-1,13.1,11.2,50000,121,2.5,2
2020,6,8,00:00,UTC,8,1011.7,90,0,-1,13.1,11.5,50000,106,1.5,0.9
2020,6,8,01:00,UTC,8,1011.8,88,0,-1,13.5,11.6,50000,0,0.7,0
2020,6,8,02:00,UTC,8,1011.8,89,0,-1,13.5,11.8,50000,105,1.9,1.2
2020,6,8,03:00,UTC,5,1011.7,90,0,-1,13.5,11.8,41500,82,1.7,1.3
2020,6,8,04:00,UTC,0,1012.2,77,0,-1,15.7,11.6,30860,63,2.2,1.3
2020,6,8,05:00,UTC,0,1012.2,59,0,-1,17.3,9.1,34830,59,3,2.2
2020,6,8,06:00,UTC,0,1012,53,0,-1,18.3,8.7,50000,68,3.9,2.4
2020,6,8,07:00,UTC,1,1012.1,50,0,-1,19.4,8.6,50000,86,4.8,2.6
2020,6,8,08:00,UTC,7,1012.1,50,0,-1,19.6,8.9,50000,72,4.5,2.8
2020,6,8,09:00,UTC,8,1012,58,0,-1,19.2,10.8,50000,72,4.3,2.5
2020,6,8,10:00,UTC,7,1012,81,0,-1,17.3,14.1,24940,127,3.6,2.9
2020,6,8,11:00,UTC,8,1012.2,92,2.1,-1,15.9,14.7,13150,207,1.3,1
2020,6,8,12:00,UTC,8,1012.3,91,0,-1,15.8,14.3,37200,281,3.3,2.6
2020,6,8,13:00,UTC,8,1012.4,94,0,-1,15.1,14.2,33920,352,3.9,2.7
2020,6,8,14:00,UTC,8,1011.9,94,0,-1,15,14.1,36670,359,5.6,4.2
2020,6,8,15:00,UTC,8,1011.5,93,0,-1,15.1,13.9,50000,357,6.3,4.8
2020,6,8,16:00,UTC,7,1011.3,92,0,-1,14.6,13.3,50000,3,6.7,5
2020,6,8,17:00,UTC,8,1011.7,91,0,-1,14.3,12.8,50000,2,7.9,5.3
2020,6,8,18:00,UTC,7,1012,89,0,-1,14.4,12.7,50000,342,5.7,4.1
2020,6,8,19:00,UTC,8,1011.9,87,0,-1,13.8,11.7,50000,352,8.2,5.8
2020,6,8,20:00,UTC,8,1012,86,0,-1,13.4,11.2,50000,354,7.2,4.9
2020,6,8,21:00,UTC,8,1012.4,86,0,-1,13.3,11,50000,17,6.5,4.7
2020,6,8,22:00,UTC,8,1012.7,85,0,-1,13.1,10.7,50000,4,8.8,6.3
2020,6,8,23:00,UTC,8,1013,93,0,-1,12.4,11.4,16830,360,5.9,4.3
2020,6,9,00:00,UTC,8,1012.8,95,0,-1,12.5,11.7,30480,356,6.3,4.5
2020,6,9,01:00,UTC,8,1013.3,92,0,-1,12.6,11.4,50000,351,4.7,3.5
2020,6,9,02:00,UTC,8,1013.5,91,0,-1,12.7,11.2,50000,357,5.9,4.4
2020,6,9,03:00,UTC,8,1014,93,0,-1,12.8,11.7,50000,342,5.9,4.3
2020,6,9,04:00,UTC,8,1014.4,91,0,-1,13.1,11.7,50000,349,6,4.2
2020,6,9,05:00,UTC,8,1015.1,90,0,-1,13.3,11.6,50000,351,5.6,4.3
2020,6,9,06:00,UTC,7,1015.7,84,0,-1,13.6,10.9,50000,347,6.8,4.3
2020,6,9,07:00,UTC,8,1016.3,87,0,-1,13.2,11.1,50000,346,9,6.4
2020,6,9,08:00,UTC,8,1016.7,86,0,-1,13.3,11.1,50000,358,7.3,5.2
2020,6,9,09:00,UTC,8,1016.9,81,0,-1,14.5,11.4,50000,6,8.1,6
2020,6,9,10:00,UTC,8,1017.1,75,0,-1,15.2,10.9,50000,15,8.4,5.8
2020,6,9,11:00,UTC,8,1017.2,74,0,-1,16.1,11.4,50000,8,8,5.5
2020,6,9,12:00,UTC,8,1017.4,73,0,-1,16.2,11.5,50000,21,9.9,6.7
2020,6,9,13:00,UTC,8,1017.6,69,0,-1,16.5,10.8,50000,17,8.4,6.4
2020,6,9,14:00,UTC,4,1017.2,64,0,-1,17.7,10.8,50000,33,10.2,7.1
2020,6,9,15:00,UTC,1,1017.1,62,0,-1,17.9,10.5,47370,5,8.9,6.5
2020,6,9,16:00,UTC,8,1016.9,58,0,-1,18.1,9.8,48830,14,9.8,6.8
2020,6,9,17:00,UTC,3,1016.9,63,0,-1,17.8,10.8,50000,17,5.6,3.9
2020,6,9,18:00,UTC,0,1017.4,63,0,-1,17.2,10,50000,19,6,3.9
2020,6,9,19:00,UTC,0,1017.6,68,0,-1,16.5,10.6,50000,358,4,2.8
2020,6,9,20:00,UTC,4,1017.8,72,0,-1,15.9,10.8,50000,337,3.9,3.4
2020,6,9,21:00,UTC,7,1017.7,74,0,-1,15.4,10.7,50000,325,3.6,2.6
2020,6,9,22:00,UTC,7,1017.7,78,0,-1,14.5,10.8,50000,350,3.2,2.8
2020,6,9,23:00,UTC,0,1017.7,81,0,-1,14,10.8,50000,330,3.6,3
2020,6,10,00:00,UTC,6,1017.9,83,0,-1,13.6,10.8,50000,339,4,3.8
2020,6,10,01:00,UTC,6,1017.8,87,0,-1,12.7,10.6,50000,353,4.2,3.9
2020,6,10,02:00,UTC,7,1018,86,0,-1,12.8,10.6,50000,346,4.4,3.4
2020,6,10,03:00,UTC,7,1018.1,82,0,-1,13.6,10.7,49220,341,3.7,3.1
2020,6,10,04:00,UTC,7,1018.3,79,0,-1,14.2,10.6,50000,350,5.1,3.9
2020,6,10,05:00,UTC,0,1018.5,66,0,-1,15.9,9.6,50000,8,6.4,4.7
2020,6,10,06:00,UTC,0,1018.6,60,0,-1,18.2,10.2,50000,355,5.3,4.2
2020,6,10,07:00,UTC,0,1018.6,53,0,-1,19.7,9.8,50000,353,6.6,4.7
2020,6,10,08:00,UTC,0,1018.8,48,0,-1,20.9,9.4,48260,22,6.5,4.4
2020,6,10,09:00,UTC,1,1018.9,48,0,-1,21.5,10,50000,14,7.7,4.8
2020,6,10,10:00,UTC,6,1018.6,42,0,-1,22,8.7,50000,9,8.9,6.5
2020,6,10,11:00,UTC,2,1018.4,40,0,-1,22.7,8.5,49440,8,9.3,6
2020,6,10,12:00,UTC,3,1018.4,38,0,-1,23.3,8.2,50000,30,9.7,5.1
2020,6,10,13:00,UTC,3,1018.5,36,0,-1,24,7.9,47040,30,7.9,4.4
2020,6,10,14:00,UTC,5,1018.3,33,0,-1,24,6.8,33830,39,9,6
2020,6,10,15:00,UTC,0,1018,35,0,-1,23.6,7.1,50000,19,8.8,5.9
2020,6,10,16:00,UTC,0,1017.9,35,0,-1,23.2,6.9,50000,32,6.7,4.7
2020,6,10,17:00,UTC,0,1018.1,37,0,-1,22.2,7,50000,17,6.2,4.5
2020,6,10,18:00,UTC,0,1018.4,39,0,-1,21.5,6.8,50000,26,6,3.9
2020,6,10,19:00,UTC,0,1018.5,41,0,-1,20.2,6.6,50000,12,4.6,3.6
2020,6,10,20:00,UTC,0,1018.9,45,0,-1,18.7,6.5,50000,10,4.8,4.1
2020,6,10,21:00,UTC,0,1019,47,0,-1,17.4,6.1,50000,16,5.8,4.8
2020,6,10,22:00,UTC,0,1019.5,49,0,-1,16.5,5.8,50000,24,5.1,4.1
2020,6,10,23:00,UTC,0,1019.9,52,0,-1,15.6,5.8,50000,25,5.4,4.4
2020,6,11,00:00,UTC,0,1019.6,50,0,-1,15.5,5.1,50000,26,6.3,5
2020,6,11,01:00,UTC,0,1019.7,52,0,-1,14.7,4.9,50000,27,6,4.5
2020,6,11,02:00,UTC,0,1020,54,0,-1,14.1,4.9,50000,9,5.9,4.7
2020,6,11,03:00,UTC,0,1020.1,56,0,-1,14.3,5.6,50000,31,5.8,4.3
2020,6,11,04:00,UTC,0,1020.2,59,0,-1,14.5,6.5,50000,28,5.6,4
2020,6,11,05:00,UTC,0,1020.3,62,0,-1,16.7,9.5,50000,36,5.5,3.8
2020,6,11,06:00,UTC,0,1020.1,57,0,-1,18.4,9.7,47350,24,5.4,3.8
2020,6,11,07:00,UTC,0,1020,57,0,-1,19.8,11,50000,6,7.5,6
2020,6,11,08:00,UTC,0,1020.3,49,0,-1,21.3,10.1,50000,3,7.6,5.1
2020,6,11,09:00,UTC,1,1019.9,42,0,-1,22.7,9,48580,29,8.7,5.3
2020,6,11,10:00,UTC,2,1020,42,0,-1,22.7,9.2,48590,45,8.3,5.8
2020,6,11,11:00,UTC,3,1020.1,38,0,-1,23.1,8.1,50000,50,7.4,5.4
2020,6,11,12:00,UTC,4,1020.5,57,0,-1,20.5,11.7,43300,143,7.3,4.9
2020,6,11,13:00,UTC,0,1020.3,57,0,-1,20.6,11.8,47600,140,4.9,3.4
2020,6,11,14:00,UTC,0,1019.8,55,0,-1,22,12.5,50000,158,5.6,3.4
2020,6,11,15:00,UTC,5,1020,59,0,-1,20.3,12.1,50000,154,6.5,4.9
2020,6,11,16:00,UTC,0,1020.3,62,0,-1,19.4,12,50000,152,5.7,3.6
2020,6,11,17:00,UTC,1,1020.7,63,0,-1,19.1,11.9,50000,161,4.6,3
2020,6,11,18:00,UTC,0,1021.1,69,0,-1,17.8,12.1,50000,131,6.7,4.6
2020,6,11,19:00,UTC,0,1021.4,76,0,-1,16.5,12.1,50000,119,4.4,3.5
2020,6,11,20:00,UTC,0,1021.7,82,0,-1,15.2,12.1,50000,69,2.6,2.1
2020,6,11,21:00,UTC,0,1021.6,85,0,-1,14.4,12,50000,356,2.7,2.2
2020,6,11,22:00,UTC,0,1022,89,0,-1,13.7,11.9,50000,7,4.6,4.1
2020,6,11,23:00,UTC,0,1022.5,87,0,-1,13.6,11.5,50000,27,3.7,3
2020,6,12,00:00,UTC,0,1022.6,79,0,-1,13.8,10.2,50000,37,4.7,3.8
2020,6,12,01:00,UTC,0,1022.4,76,0,-1,13.8,9.7,50000,32,6.4,4.7
2020,6,12,02:00,UTC,0,1022.9,75,0,-1,13.9,9.5,16920,44,4.5,3.5
2020,6,12,03:00,UTC,0,1022.7,71,0,-1,14.8,9.6,41900,37,5.1,3.9
2020,6,12,04:00,UTC,0,1022.8,65,0,-1,16.1,9.5,27410,48,6.5,4.5
2020,6,12,05:00,UTC,0,1022.9,57,0,-1,17.6,8.8,50000,56,7.7,5.2
2020,6,12,06:00,UTC,0,1023,48,0,-1,19.1,7.9,50000,65,8.8,6
2020,6,12,07:00,UTC,0,1023.1,40,0,-1,20.2,6.3,21300,45,8.6,6.3
2020,6,12,08:00,UTC,0,1023.4,33,0,-1,20.7,3.8,39750,73,10.9,7.9
2020,6,12,09:00,UTC,0,1023.6,24,0,-1,22,0.7,48570,82,11.1,7.8
2020,6,12,10:00,UTC,0,1023.9,21,0,-1,22.8,-0.8,48110,90,10.4,6.3
2020,6,12,11:00,UTC,0,1023.7,23,0,-1,23.5,1,49490,70,12.2,8
2020,6,12,12:00,UTC,0,1023.4,25,0,-1,23.8,2.5,50000,66,10.3,6.3
2020,6,12,13:00,UTC,1,1023.4,31,0,-1,23.5,5.4,50000,131,7.9,5.5
2020,6,12,14:00,UTC,0,1023.5,32,0,-1,22.9,5.4,50000,127,9.5,6.2
2020,6,12,15:00,UTC,0,1023.5,33,0,-1,22.1,5.1,50000,138,8,5.8
2020,6,12,16:00,UTC,0,1023.5,32,0,-1,21.7,4.3,50000,135,7.6,5.7
2020,6,12,17:00,UTC,0,1023.5,32,0,-1,21.6,4.3,50000,114,6,4.6
2020,6,12,18:00,UTC,0,1023.8,35,0,-1,20.6,4.7,50000,115,5.7,4.4
2020,6,12,19:00,UTC,0,1024.3,38,0,-1,19.2,4.6,50000,115,4.7,3.7
2020,6,12,20:00,UTC,0,1024.7,52,0,-1,16.3,6.6,50000,90,3.9,2.9
2020,6,12,21:00,UTC,0,1024.9,53,0,-1,15.5,6.1,50000,84,3.2,2.8
2020,6,12,22:00,UTC,0,1025.4,59,0,-1,14.1,6.3,50000,72,2.1,1.8
2020,6,12,23:00,UTC,0,1025.6,66,0,-1,12.8,6.6,50000,61,2.8,2.7
2020,6,13,00:00,UTC,0,1025.9,68,0,-1,12.4,6.6,50000,34,2.2,1.7
2020,6,13,01:00,UTC,0,1026.1,73,0,-1,12.1,7.4,50000,358,2.7,2.3
2020,6,13,02:00,UTC,0,1026.3,74,0,-1,11.6,7.2,50000,15,3,2
2020,6,13,03:00,UTC,0,1026.5,67,0,-1,13.3,7.2,50000,8,3.8,2.8
2020,6,13,04:00,UTC,2,1026.8,63,0,-1,15,8,50000,25,2,1.4
2020,6,13,05:00,UTC,1,1027,49,0,-1,18.3,7.4,50000,41,3.5,2.5
2020,6,13,06:00,UTC,5,1027.1,37,0,-1,20.1,4.9,50000,62,4.1,2.9
2020,6,13,07:00,UTC,0,1027.3,35,0,-1,21,5.1,50000,64,4.7,2.5
2020,6,13,08:00,UTC,0,1027.2,34,0,-1,22.1,5.4,50000,46,6.2,3.9
2020,6,13,09:00,UTC,2,1026.9,32,0,-1,22.2,4.6,50000,106,8.2,4
2020,6,13,10:00,UTC,7,1026.8,36,0,-1,22.5,6.7,49690,139,6.8,4.6
2020,6,13,11:00,UTC,2,1026.8,32,0,-1,22.8,5.4,50000,136,7.3,4.9
2020,6,13,12:00,UTC,0,1026.7,32,0,-1,21.9,4.4,50000,143,7.6,5.8
2020,6,13,13:00,UTC,1,1026.3,30,0,-1,22.1,3.7,50000,123,8.5,5.8
2020,6,13,14:00,UTC,0,1026.3,32,0,-1,21.9,4.2,50000,155,8.9,4.3
2020,6,13,15:00,UTC,0,1026.2,31,0,-1,21.7,3.9,50000,144,7.5,5.3
2020,6,13,16:00,UTC,0,1026,31,0,-1,21.3,3.7,50000,139,8,5.9
2020,6,13,17:00,UTC,0,1026,31,0,-1,20.5,2.9,50000,151,5.9,4.2
2020,6,13,18:00,UTC,0,1025.9,33,0,-1,20,3.1,50000,117,5.7,4.1
2020,6,13,19:00,UTC,0,1026.3,37,0,-1,19.1,3.9,50000,121,3.1,2.7
2020,6,13,20:00,UTC,0,1026.5,45,0,-1,17.1,5.2,50000,0,0.8,0
2020,6,13,21:00,UTC,0,1026.7,55,0,-1,14.6,5.7,50000,360,1.7,1.4
2020,6,13,22:00,UTC,0,1026.7,61,0,-1,12.9,5.6,50000,11,1.9,1.7
2020,6,13,23:00,UTC,0,1026.9,65,0,-1,12.5,6.1,50000,340,1.8,1.3
2020,6,14,00:00,UTC,0,1027.1,66,0,-1,12,5.9,50000,342,2.6,1.7
2020,6,14,01:00,UTC,0,1027.2,73,0,-1,10.2,5.6,50000,21,3,2.6
2020,6,14,02:00,UTC,0,1027.1,67,0,-1,11.7,5.7,50000,12,2.8,2.3
2020,6,14,03:00,UTC,0,1026.8,61,0,-1,13.3,5.9,50000,28,2.8,2.1
2020,6,14,04:00,UTC,0,1026.7,49,0,-1,16.4,5.8,50000,59,2.8,2.1
2020,6,14,05:00,UTC,0,1026.4,42,0,-1,18.4,5.1,46380,61,5.1,3.9
2020,6,14,06:00,UTC,0,1026.5,34,0,-1,20.1,3.5,50000,69,5,3
2020,6,14,07:00,UTC,0,1026.1,32,0,-1,21,3.4,50000,53,6.7,4.3
2020,6,14,08:00,UTC,0,1025.7,30,0,-1,22.1,3.5,50000,69,9.5,4.7
2020,6,14,09:00,UTC,0,1025.4,29,0,-1,22.5,3.5,44820,65,10,7.5
2020,6,14,10:00,UTC,0,1024.9,28,0,-1,23.4,3.9,,114,11.8,7.9
2020,6,14,11:00,UTC,0,1024.5,33,0,-1,22.8,5.7,50000,145,9,7
2020,6,14,12:00,UTC,0,1024.3,33,0,-1,23,5.9,49760,111,9.2,5.5
2020,6,14,13:00,UTC,0,1023.9,28,0,-1,23,3.6,50000,120,8.8,5.8
2020,6,14,14:00,UTC,0,1023.1,26,0,-1,22.6,1.9,50000,110,7.7,4.9
2020,6,14,15:00,UTC,0,1022.2,25,0,-1,23.3,2.2,50000,90,8.8,5.3
2020,6,14,16:00,UTC,0,1021.8,28,0,-1,22.6,3.1,50000,106,7.6,5.1
2020,6,14,17:00,UTC,0,1021.4,32,0,-1,22.2,4.9,50000,111,6.3,4.6
2020,6,14,18:00,UTC,0,1021.4,35,0,-1,21.6,5.2,50000,98,6.8,4.5
2020,6,14,19:00,UTC,0,1021.5,41,0,-1,20,6.2,50000,81,3.5,2.3
2020,6,14,20:00,UTC,0,1021.6,52,0,-1,17.1,7.1,50000,57,2.9,2
2020,6,14,21:00,UTC,0,1021.7,62,0,-1,15.1,7.9,50000,111,2,1.6
2020,6,14,22:00,UTC,0,1021.5,62,0,-1,14.2,7.1,50000,45,2.2,2
2020,6,14,23:00,UTC,0,1021,66,0,-1,13,6.8,50000,55,3.4,3.2
2020,6,15,00:00,UTC,0,1020.6,62,0,-1,13.9,6.8,50000,53,3.4,2.7
2020,6,15,01:00,UTC,0,1020.4,64,0,-1,13.6,6.9,50000,56,3.6,3.1
2020,6,15,02:00,UTC,0,1020.1,68,0,-1,13.9,8,50000,54,5.3,3.5
2020,6,15,03:00,UTC,0,1019.8,68,0,-1,15.3,9.4,50000,53,4.4,3.2
2020,6,15,04:00,UTC,0,1019.6,63,0,-1,16.8,9.7,50000,59,5.4,4.1
2020,6,15,05:00,UTC,6,1019.3,56,0,-1,18.7,9.6,50000,60,4.9,3.9
2020,6,15,06:00,UTC,0,1018.9,45,0,-1,21.3,8.9,50000,86,5.6,4
2020,6,15,07:00,UTC,0,1018.5,40,0,-1,22.6,8.3,50000,57,7.8,6
2020,6,15,08:00,UTC,0,1018.5,35,0,-1,23.5,7,50000,92,6.9,4.9
2020,6,15,09:00,UTC,0,1017.9,34,0,-1,24.2,7.2,50000,93,8.4,4.8
2020,6,15,10:00,UTC,0,1017.6,32,0,-1,25,7.1,39700,124,10.1,7.3
2020,6,15,11:00,UTC,0,1017.3,31,0,-1,24.7,6.3,49460,107,9.7,6.2
2020,6,15,12:00,UTC,0,1016.8,33,0,-1,25.1,7.9,50000,87,9.9,4.6
2020,6,15,13:00,UTC,0,1016.3,34,0,-1,25.1,8.1,48290,125,8,5.1
2020,6,15,14:00,UTC,0,1016.1,38,0,-1,24.4,9.2,50000,118,9.8,6.2
2020,6,15,15:00,UTC,4,1016.1,43,0,-1,24.1,10.8,50000,129,7.6,5.4
2020,6,15,16:00,UTC,4,1015.9,46,0,-1,23.5,11.4,50000,136,7.1,5.4
2020,6,15,17:00,UTC,7,1015.5,49,0,-1,22.7,11.5,50000,128,6.3,4.6
2020,6,15,18:00,UTC,8,1015.5,51,0,-1,22.2,11.5,50000,110,5.1,3.5
2020,6,15,19:00,UTC,0,1015.7,55,0,-1,21.1,11.6,50000,117,3.9,3
2020,6,15,20:00,UTC,0,1015.9,61,0,-1,19.6,11.9,50000,83,2.2,1.5
2020,6,15,21:00,UTC,3,1015.7,67,0,-1,18.5,12.2,50000,85,2.5,2.1
2020,6,15,22:00,UTC,7,1015.7,70,0,-1,18.7,13.1,50000,102,2.3,1.9
2020,6,15,23:00,UTC,8,1015.3,,0,-1,18.6,13.8,50000,109,2.7,2
2020,6,16,00:00,UTC,7,1015.3,75,0,-1,18.5,14,50000,81,1.5,1.1
2020,6,16,01:00,UTC,1,1015.1,80,0,-1,17.6,14.2,50000,80,1.9,1.6
2020,6,16,02:00,UTC,0,1014.9,85,0,-1,16.6,14.1,50000,8,3.5,3
2020,6,16,03:00,UTC,5,1014.9,80,0,-1,17.9,14.5,14500,34,3,2.4
2020,6,16,04:00,UTC,0,1014.9,70,0,-1,20.6,15,22710,57,3.3,2.4
2020,6,16,05:00,UTC,8,1015.3,71,0,-1,20.2,14.8,50000,86,2.6,1.9
2020,6,16,06:00,UTC,7,1015.3,67,0,-1,21.6,15.1,50000,74,4.9,3.7
2020,6,16,07:00,UTC,3,1015.2,61,0,-1,22.9,14.9,45810,79,6,4.4
2020,6,16,08:00,UTC,7,1015.3,59,0,-1,24.2,15.5,42100,70,5.6,4.3
2020,6,16,09:00,UTC,7,1015.5,60,0,-1,24,15.7,47850,129,7.5,5.5
2020,6,16,10:00,UTC,8,1016,93,2.3,-1,19.9,18.6,10630,78,5.5,3.9
2020,6,16,11:00,UTC,7,1015.6,87,0,-1,20.8,18.6,37770,74,4.7,3.8
2020,6,16,12:00,UTC,1,1015.1,67,0,-1,24.5,18,45770,94,6.2,3.9
2020,6,16,13:00,UTC,6,1015.2,63,0,-1,24.4,17,49550,90,5.2,3.8
2020,6,16,14:00,UTC,3,1015.1,60,0,-1,24.2,16,50000,133,6,3.9
2020,6,16,15:00,UTC,2,1014.8,56,0,-1,24.1,14.9,45560,118,4.2,3.2
2020,6,16,16:00,UTC,2,1014.5,56,0,-1,24.5,15.2,50000,99,4.6,3.2
2020,6,16,17:00,UTC,8,1014.6,57,0,-1,24.3,15.2,50000,120,4.5,3.5
2020,6,16,18:00,UTC,4,1014.9,65,0,-1,21.9,15,50000,172,4.4,3.2
2020,6,16,19:00,UTC,3,1014.8,68,0,-1,21.2,15.2,50000,98,1.7,1.4
2020,6,16,20:00,UTC,2,1015.1,74,0,-1,20.1,15.2,50000,143,3,2.2
2020,6,16,21:00,UTC,4,1015.3,81,0,-1,18.6,15.3,48040,85,2.6,2.1
2020,6,16,22:00,UTC,6,1015,84,0,-1,18,15.3,50000,141,2,1.4
2020,6,16,23:00,UTC,4,1015.1,89,0,-1,17,15.2,39170,94,2.5,2.2
2020,6,17,00:00,UTC,7,1015.2,89,0,-1,17,15.3,36060,121,1.4,1
2020,6,17,01:00,UTC,7,1015.4,91,0,-1,17.5,15.9,18260,209,3,2.2
2020,6,17,02:00,UTC,7,1015.3,91,0,-1,17,15.6,20580,67,2,1.4
2020,6,17,03:00,UTC,8,1015.3,89,0,-1,17.7,15.8,37020,206,1.3,0.9
2020,6,17,04:00,UTC,8,1015.7,85,0,-1,18.3,15.8,47610,245,2.5,1.8
2020,6,17,05:00,UTC,7,1015.7,80,0,-1,19,15.5,50000,247,1.8,1
2020,6,17,06:00,UTC,7,1015.8,65,0,-1,20.1,13.3,50000,289,3,2
2020,6,17,07:00,UTC,3,1015.7,53,0,-1,22.1,12.1,50000,332,2.8,1.5
2020,6,17,08:00,UTC,0,1015.8,43,0,-1,23.5,10.2,47740,133,3.4,2.1
2020,6,17,09:00,UTC,0,1015.8,40,0,-1,24.9,10.4,48270,91,3.8,2
2020,6,17,10:00,UTC,0,1015.6,37,0,-1,26.3,10.5,49780,144,7.3,3.3
2020,6,17,11:00,UTC,0,1015.8,35,0,-1,26,9.5,45230,174,6.4,4.3
2020,6,17,12:00,UTC,0,1015.8,36,0,-1,25.5,9.5,48570,144,5.9,4
2020,6,17,13:00,UTC,0,1015.7,44,0,-1,25.2,11.9,50000,135,6.4,3.9
2020,6,17,14:00,UTC,0,1015.4,47,0,-1,25.4,13.4,50000,123,5.5,4.1
2020,6,17,15:00,UTC,0,1015.3,43,0,-1,25.5,12.1,41930,136,4.7,3.5
2020,6,17,16:00,UTC,0,1015.2,43,0,-1,25.8,12.3,50000,145,4.3,2.9
2020,6,17,17:00,UTC,0,1015.1,60,0,-1,24.1,15.8,50000,147,5.9,4.6
2020,6,17,18:00,UTC,1,1015.1,56,0,-1,23.3,13.9,49850,137,5.8,4.7
2020,6,17,19:00,UTC,0,1015.2,68,0,-1,22.3,16.1,50000,128,4.8,3.6
2020,6,17,20:00,UTC,6,1015.3,69,0,-1,21.6,15.6,50000,150,4.8,3.5
2020,6,17,21:00,UTC,5,1015.3,75,0,-1,21,16.4,50000,113,3.2,2.2
2020,6,17,22:00,UTC,0,1015.2,81,0,-1,19.6,16.2,50000,89,2.6,2.2
2020,6,17,23:00,UTC,7,1014.8,81,0,-1,19.9,16.5,50000,85,3.1,2.2
2020,6,18,00:00,UTC,0,1014.7,85,0,-1,18.8,16.3,50000,324,1.8,0.7
2020,6,18,01:00,UTC,5,1014.3,88,0,-1,18.1,16,48200,288,4.7,3.4
2020,6,18,02:00,UTC,8,1014.5,95,2.2,-1,17.5,16.7,10290,323,4.8,3.6
2020,6,18,03:00,UTC,7,1014.2,97,0,-1,17.7,17.3,9510,75,3.1,1.6
2020,6,18,04:00,UTC,7,1014.5,97,1.4,-1,17.7,17.3,5330,69,2.3,1.5
2020,6,18,05:00,UTC,7,1014.5,97,0,-1,17.8,17.4,7500,110,3.1,2.2
2020,6,18,06:00,UTC,7,1014.1,97,0.5,-1,18.4,17.9,7400,249,4.1,3.2
2020,6,18,07:00,UTC,8,1014,96,0,-1,18.7,18,9370,215,3.8,2.7
2020,6,18,08:00,UTC,8,1012.8,92,0,-1,19.6,18.2,21890,343,3.5,2.4
2020,6,18,09:00,UTC,7,1014.2,86,0,-1,19.9,17.5,24700,229,2.7,1.8
2020,6,18,10:00,UTC,7,1014.4,81,0,-1,20.7,17.2,31040,228,3.4,2.4
2020,6,18,11:00,UTC,2,1013.8,75,0,-1,21.9,17.2,23050,161,4.2,2.8
2020,6,18,12:00,UTC,3,1013.6,73,0,-1,23.3,18.3,34310,178,5.5,3.7
2020,6,18,13:00,UTC,1,1013.7,70,0,-1,23.8,18,40040,144,6.1,4.2
2020,6,18,14:00,UTC,0,1013.5,66,0,-1,23.9,17,50000,217,4.8,3.3
2020,6,18,15:00,UTC,0,1013.2,67,0,-1,24,17.4,47480,187,4.5,2.9
2020,6,18,16:00,UTC,0,1013,63,0,-1,24.5,16.8,46570,206,4,2.7
2020,6,18,17:00,UTC,0,1012.4,61,0,-1,24.2,16.1,50000,221,4.5,3.2
2020,6,18,18:00,UTC,0,1012.4,60,0,-1,23.7,15.5,50000,235,3.9,2.9
2020,6,18,19:00,UTC,0,1012.8,65,0,-1,22.5,15.6,50000,273,2.4,1.8
2020,6,18,20:00,UTC,0,1013.4,69,0,-1,21.2,15.4,50000,317,2.2,1.5
2020,6,18,21:00,UTC,0,1014,63,0,-1,20.2,13,50000,358,2.3,2.2
2020,6,18,22:00,UTC,0,1014.1,73,0,-1,18.4,13.4,50000,2,2.8,2.5
2020,6,18,23:00,UTC,0,1014.3,74,0,-1,17.7,12.9,50000,358,3.7,3.2
2020,6,19,00:00,UTC,0,1014.5,76,0,-1,16.8,12.6,50000,354,3.1,2.6
2020,6,19,01:00,UTC,0,1014.5,77,0,-1,16.4,12.4,50000,352,4.8,4.3
2020,6,19,02:00,UTC,0,1014.6,78,0,-1,16,12.2,50000,355,4,3.2
2020,6,19,03:00,UTC,0,1014.6,77,0,-1,16.7,12.7,50000,9,4.3,3.2
2020,6,19,04:00,UTC,0,1014.9,74,0,-1,17.8,13.1,50000,9,5.2,4
2020,6,19,05:00,UTC,0,1015.1,64,0,-1,20.2,13.1,50000,41,5.3,3.7
2020,6,19,06:00,UTC,0,1015,63,0,-1,21.2,13.8,50000,21,5.3,3.6
2020,6,19,07:00,UTC,0,1015.1,55,0,-1,21.8,12.4,50000,6,5.8,4.3
2020,6,19,08:00,UTC,0,1015.2,51,0,-1,22.9,12.3,50000,2,5.5,4
2020,6,19,09:00,UTC,0,1015.2,45,0,-1,24.5,11.9,50000,5,4.7,2.6
2020,6,19,10:00,UTC,0,1015.2,40,0,-1,25.3,10.6,46070,360,5.8,3.8
2020,6,19,11:00,UTC,0,1015.3,42,0,-1,25.9,11.9,45630,13,6.1,3.9
2020,6,19,12:00,UTC,1,1015.2,41,0,-1,26,11.9,50000,40,6,2.6
2020,6,19,13:00,UTC,0,1014.7,40,0,-1,26.4,11.5,50000,23,6.1,2.4
2020,6,19,14:00,UTC,6,1014.3,41,0,-1,27,12.6,50000,51,6,4.8
2020,6,19,15:00,UTC,6,1015.3,51,0,-1,25,14.3,50000,153,5.4,4.1
2020,6,19,16:00,UTC,0,1015.5,49,0,-1,25.1,13.5,50000,181,3.5,1.9
2020,6,19,17:00,UTC,2,1015.4,50,0,-1,24.8,13.7,50000,158,2.7,1.5
2020,6,19,18:00,UTC,3,1015.6,51,0,-1,24.3,13.7,50000,55,3.1,1.7
2020,6,19,19:00,UTC,0,1016.3,58,0,-1,22.8,14.1,50000,50,8,5.3
2020,6,19,20:00,UTC,0,1016.9,64,0,-1,21.1,14.1,50000,59,6.9,5
2020,6,19,21:00,UTC,0,1017.3,65,0,-1,20.4,13.6,50000,51,6.8,4.7
2020,6,19,22:00,UTC,0,1017.5,70,0,-1,19.1,13.5,50000,58,5.7,4.4
2020,6,19,23:00,UTC,0,1017.8,71,0,-1,18.5,13.3,50000,51,6.5,4.2
2020,6,20,00:00,UTC,0,1018,75,0,-1,17.7,13.2,50000,52,6.6,4.8
2020,6,20,01:00,UTC,0,1018.3,78,0,-1,17.2,13.3,50000,46,6.1,4.8
2020,6,20,02:00,UTC,0,1018.5,80,0,-1,16.7,13.3,50000,50,7.1,5
2020,6,20,03:00,UTC,0,1018.5,78,0,-1,17.3,13.4,50000,51,7.5,5.1
2020,6,20,04:00,UTC,0,1018.7,73,0,-1,18.5,13.7,50000,71,7.3,4.6
2020,6,20,05:00,UTC,0,1018.9,68,0,-1,19.4,13.4,50000,73,8.2,5.7
2020,6,20,06:00,UTC,0,1019.1,63,0,-1,20.2,13,50000,67,8,6.5
2020,6,20,07:00,UTC,0,1019.7,57,0,-1,21.3,12.4,50000,98,10.3,6.7
2020,6,20,08:00,UTC,1,1019.9,50,0,-1,22.1,11.2,50000,107,10.7,7.3
2020,6,20,09:00,UTC,0,1019.8,45,0,-1,23.1,10.7,49610,102,8.4,5.8
2020,6,20,10:00,UTC,0,1020.3,38,0,-1,22.8,7.9,50000,103,13.2,8.4
2020,6,20,11:00,UTC,0,1020.3,39,0,-1,23.8,8.9,50000,113,11,8
2020,6,20,12:00,UTC,0,1020.2,40,0,-1,23.9,9.5,50000,117,10.9,7.9
2020,6,20,13:00,UTC,1,1020.3,44,0,-1,24.3,11.3,48840,110,8.9,6
2020,6,20,14:00,UTC,0,1020.2,45,0,-1,23.6,11,50000,119,9,5.8
2020,6,20,15:00,UTC,0,1020,45,0,-1,23.5,10.9,50000,111,7.8,5.1
2020,6,20,16:00,UTC,0,1020.2,52,0,-1,21.8,11.4,50000,137,7.2,5.3
2020,6,20,17:00,UTC,0,1020.3,53,0,-1,20.9,10.9,50000,121,7,4.8
2020,6,20,18:00,UTC,0,1021,60,0,-1,19.4,11.4,50000,134,6.2,4.5
2020,6,20,19:00,UTC,0,1021.4,55,0,-1,18.2,9,50000,118,7,5.3
2020,6,20,20:00,UTC,0,1022.1,61,0,-1,17,9.5,50000,101,3.2,2.5
2020,6,20,21:00,UTC,0,1022.4,72,0,-1,15.3,10.2,50000,91,2.9,2.5
2020,6,20,22:00,UTC,0,1022.7,73,0,-1,14.5,9.8,50000,88,3.2,2.5
2020,6,20,23:00,UTC,0,1022.7,74,0,-1,13.6,9.1,50000,92,3.6,3
2020,6,21,00:00,UTC,0,1023.1,78,0,-1,12.7,9,50000,66,3.6,3.4
2020,6,21,01:00,UTC,0,1023.2,78,0,-1,11.9,8.2,50000,61,4.6,4.1
2020,6,21,02:00,UTC,0,1023,73,0,-1,12.3,7.6,50000,53,4.6,3.7
2020,6,21,03:00,UTC,0,1022.7,67,0,-1,13.7,7.7,50000,49,4.1,3.2
2020,6,21,04:00,UTC,0,1022.7,64,0,-1,15.3,8.6,50000,68,5,3.3
2020,6,21,05:00,UTC,0,1022.8,61,0,-1,16.7,9.1,50000,75,6.4,5
2020,6,21,06:00,UTC,0,1022.7,55,0,-1,18.2,9.1,50000,90,7.4,4.8
2020,6,21,07:00,UTC,0,1022.9,48,0,-1,19.2,7.8,50000,101,6.9,4.9
2020,6,21,08:00,UTC,0,1022.8,44,0,-1,19.4,6.9,50000,53,9.2,6.7
2020,6,21,09:00,UTC,0,1022.4,41,0,-1,20.5,6.8,49600,49,7.9,5.6
2020,6,21,10:00,UTC,0,1022.1,37,0,-1,22,6.7,47170,64,8,3.8
2020,6,21,11:00,UTC,2,1021.9,48,0,-1,20.5,9.2,50000,151,6.7,2.9
2020,6,21,12:00,UTC,1,1021.8,48,0,-1,20.1,8.6,50000,140,7.9,5.2
2020,6,21,13:00,UTC,0,1021.3,46,0,-1,20.8,8.8,50000,146,6.9,4.4
2020,6,21,14:00,UTC,0,1021,47,0,-1,20.7,9,49450,142,7.5,5.2
2020,6,21,15:00,UTC,0,1020.9,45,0,-1,20.1,7.9,50000,151,8.4,5.2
2020,6,21,16:00,UTC,0,1020.6,45,0,-1,19.5,7.3,50000,137,6,4.3
2020,6,21,17:00,UTC,0,1020.4,44,0,-1,19.6,6.9,50000,133,5.6,4.1
2020,6,21,18:00,UTC,0,1020.5,46,0,-1,18.8,6.8,50000,147,5.7,4.6
2020,6,21,19:00,UTC,0,1020.5,50,0,-1,18.3,7.8,50000,120,3.4,2.7
2020,6,21,20:00,UTC,0,1020.8,62,0,-1,16.4,9,50000,74,2,1.6
2020,6,21,21:00,UTC,0,1021.1,69,0,-1,14.7,9.1,50000,89,2.7,2.4
2020,6,21,22:00,UTC,0,1021.4,75,0,-1,13.5,9.1,50000,50,2.5,2.3
2020,6,21,23:00,UTC,0,1021.2,77,0,-1,12.8,8.9,50000,25,1.8,1.6
2020,6,22,00:00,UTC,0,1021.1,82,0,-1,11.9,9,50000,22,2.5,2.1
2020,6,22,01:00,UTC,0,1020.9,85,0,-1,11.3,8.8,50000,28,2.3,1.9
2020,6,22,02:00,UTC,0,1020.5,78,0,-1,12.2,8.5,50000,42,4.1,3.4
2020,6,22,03:00,UTC,0,1020.3,72,0,-1,13.2,8.4,50000,56,4.2,3
2020,6,22,04:00,UTC,0,1020.1,61,0,-1,15.3,7.7,29760,40,4.3,2.8
2020,6,22,05:00,UTC,0,1019.8,56,0,-1,16.4,7.5,50000,68,4.2,3.3
2020,6,22,06:00,UTC,0,1019.6,47,0,-1,17.7,6.2,50000,72,5.7,3.8
2020,6,22,07:00,UTC,0,1019.5,47,0,-1,18.7,7.2,50000,87,5.9,3
2020,6,22,08:00,UTC,0,1019.3,41,0,-1,19.9,6.3,50000,63,5.6,3.8
2020,6,22,09:00,UTC,0,1019,41,0,-1,20.5,6.8,42420,99,5.3,2.8
2020,6,22,10:00,UTC,0,1018.9,38,0,-1,21.1,6.4,46710,140,7.8,4.6
2020,6,22,11:00,UTC,0,1018.6,41,0,-1,21.4,7.5,46120,151,7.7,4.6
2020,6,22,12:00,UTC,0,1018.4,41,0,-1,21.9,7.9,45490,141,6.9,4.8
2020,6,22,13:00,UTC,0,1018.2,41,0,-1,21.9,7.9,50000,153,7.7,4.8
2020,6,22,14:00,UTC,0,1018.1,42,0,-1,21.7,8.1,50000,149,6.8,4
2020,6,22,15:00,UTC,0,1017.7,40,0,-1,21.5,7.5,47580,147,5.3,3.2
2020,6,22,16:00,UTC,0,1017.4,40,0,-1,21.3,7,50000,142,5.4,3.7
2020,6,22,17:00,UTC,0,1017.1,38,0,-1,21,6.1,50000,124,4.3,2.4
2020,6,22,18:00,UTC,0,1017.3,41,0,-1,20.2,6.4,50000,170,4.5,2.9
2020,6,22,19:00,UTC,0,1017.3,44,0,-1,19.3,6.8,50000,140,2.5,1.6
2020,6,22,20:00,UTC,0,1017.6,63,0,-1,16.7,9.7,50000,209,2.9,2.6
2020,6,22,21:00,UTC,0,1017.8,67,0,-1,15.4,9.3,50000,267,1.8,1.2
2020,6,22,22:00,UTC,0,1017.9,70,0,-1,14.6,9.2,50000,238,1.4,1.1
2020,6,22,23:00,UTC,0,1018.2,79,0,-1,12.7,9.2,50000,303,3.1,2.2
2020,6,23,00:00,UTC,0,1018.3,82,0,-1,12.4,9.3,50000,293,1.5,0.7
2020,6,23,01:00,UTC,0,1018.5,80,0,-1,12,8.6,50000,0,0.7,0
2020,6,23,02:00,UTC,0,1018.7,77,0,-1,12.4,8.6,50000,0,0.6,0
2020,6,23,03:00,UTC,0,1018.9,77,0,-1,13.1,9.2,50000,316,1.4,0.8
2020,6,23,04:00,UTC,0,1019.1,66,0,-1,15.8,9.5,49910,330,2.1,1.4
2020,6,23,05:00,UTC,0,1019,55,0,-1,19,9.8,48720,344,1.7,0.9
2020,6,23,06:00,UTC,0,1019.2,52,0,-1,20.6,10.4,48250,298,2.6,1.6
2020,6,23,07:00,UTC,0,1019.3,38,0,-1,23.1,7.9,50000,44,2.5,1
2020,6,23,08:00,UTC,0,1019.3,36,0,-1,24,7.9,47980,9,4.2,2
2020,6,23,09:00,UTC,0,1019.3,31,0,-1,24.7,6.6,50000,17,5.1,2.9
2020,6,23,10:00,UTC,0,1019.7,38,0,-1,24.9,9.4,43990,188,6.8,4.6
2020,6,23,11:00,UTC,0,1019.9,37,0,-1,25,9.3,45050,189,7.4,5.2
2020,6,23,12:00,UTC,0,1020,38,0,-1,24.1,8.8,42360,182,7.2,5.3
2020,6,23,13:00,UTC,0,1020.1,35,0,-1,24.6,8,50000,190,6.7,4.9
2020,6,23,14:00,UTC,0,1020.4,36,0,-1,25,8.7,50000,192,7,5.1
2020,6,23,15:00,UTC,0,1020.3,34,0,-1,24.6,7.7,50000,187,6.7,5.3
2020,6,23,16:00,UTC,0,1020.7,34,0,-1,24.1,7.4,50000,191,7.4,5.4
2020,6,23,17:00,UTC,0,1020.8,38,0,-1,24.2,8.8,50000,235,5.9,4.3
2020,6,23,18:00,UTC,0,1020.9,39,0,-1,23.3,8.5,50000,234,4.9,3.8
2020,6,23,19:00,UTC,0,1021.3,47,0,-1,21.2,9.4,50000,236,3.9,3.4
2020,6,23,20:00,UTC,0,1021.6,53,0,-1,19.7,9.9,50000,242,3.8,3.5
2020,6,23,21:00,UTC,0,1021.8,58,0,-1,18.7,10.3,50000,265,2.7,2.3
2020,6,23,22:00,UTC,0,1022.2,58,0,-1,19.6,11,50000,312,4.4,3.2
2020,6,23,23:00,UTC,0,1022.4,57,0,-1,19.4,10.7,50000,316,6.1,4.8
2020,6,24,00:00,UTC,0,1022.9,61,0,-1,18.2,10.7,50000,319,1.9,1
2020,6,24,01:00,UTC,0,1023.1,67,0,-1,16.8,10.7,50000,308,2.8,2
2020,6,24,02:00,UTC,0,1023.3,66,0,-1,17.2,10.7,50000,327,3.5,2.5
2020,6,24,03:00,UTC,0,1023.6,71,0,-1,16.6,11.5,50000,270,2.1,1.6
2020,6,24,04:00,UTC,0,1023.9,63,0,-1,18.4,11.2,50000,284,1.3,0.8
2020,6,24,05:00,UTC,0,1024,59,0,-1,20.1,12,50000,285,1.8,0.8
2020,6,24,06:00,UTC,0,1024.3,52,0,-1,23,12.6,47400,215,1.5,0.7
2020,6,24,07:00,UTC,0,1024.4,50,0,-1,24.7,13.4,41150,298,2.4,1.5
2020,6,24,08:00,UTC,0,1024.4,39,0,-1,26.7,11.8,48550,311,2.1,1.1
2020,6,24,09:00,UTC,0,1024.4,36,0,-1,27.9,11.5,45220,273,3.5,1.7
2020,6,24,10:00,UTC,4,1024.5,34,0,-1,28.6,11,47450,16,2.4,1.1
2020,6,24,11:00,UTC,0,1024.6,37,0,-1,28.2,12.3,45010,169,7.2,5
2020,6,24,12:00,UTC,0,1024.7,38,0,-1,28,12.6,48310,176,7.7,5.2
2020,6,24,13:00,UTC,0,1025,34,0,-1,27.8,10.5,49630,188,7.6,6
2020,6,24,14:00,UTC,0,1024.8,28,0,-1,27.8,7.5,46940,170,5.9,4.2
2020,6,24,15:00,UTC,0,1024.8,35,0,-1,27.4,10.7,50000,198,5.9,4.1
2020,6,24,16:00,UTC,0,1025,34,0,-1,26.7,9.7,50000,193,5.2,3.6
2020,6,24,17:00,UTC,0,1025.1,36,0,-1,26.3,10.1,49840,193,4.9,3.4
2020,6,24,18:00,UTC,0,1025,40,0,-1,25,10.5,50000,189,4.2,3.2
2020,6,24,19:00,UTC,0,1025,44,0,-1,24.6,11.5,50000,164,3.5,2.6
2020,6,24,20:00,UTC,0,1025.3,61,0,-1,21.8,13.9,50000,197,3.8,3.1
2020,6,24,21:00,UTC,0,1025.7,70,0,-1,19.7,14,50000,253,2.3,2
2020,6,24,22:00,UTC,0,1026,64,0,-1,19.4,12.5,50000,305,2.7,1.7
2020,6,24,23:00,UTC,0,1026.2,63,0,-1,18.6,11.5,50000,301,3.6,3
2020,6,25,00:00,UTC,0,1026.2,56,0,-1,18.6,9.5,50000,301,5,4.1
2020,6,25,01:00,UTC,0,1026.4,56,0,-1,18,9.1,50000,300,4.9,4.2
2020,6,25,02:00,UTC,0,1026.6,57,0,-1,17.8,9.1,50000,303,5,4
2020,6,25,03:00,UTC,0,1026.6,57,0,-1,18.3,9.7,50000,296,3.9,3
2020,6,25,04:00,UTC,0,1026.6,56,0,-1,19.7,10.6,50000,293,4.7,3.7
2020,6,25,05:00,UTC,0,1026.6,55,0,-1,21.2,11.7,50000,291,5.1,4.5
2020,6,25,06:00,UTC,0,1026.8,51,0,-1,23.2,12.4,50000,288,3.8,3
2020,6,25,07:00,UTC,0,1026.9,36,0,-1,25.3,9.3,50000,291,5.2,2.9
2020,6,25,08:00,UTC,0,1026.8,33,0,-1,26.7,9.3,50000,300,5.3,3
2020,6,25,09:00,UTC,0,1026.7,30,0,-1,28.3,8.8,50000,304,6.3,3.7
2020,6,25,10:00,UTC,0,1026.6,29,0,-1,29.5,9.6,45500,269,10.3,2.8
2020,6,25,11:00,UTC,0,1026.4,28,0,-1,30,9.3,46300,287,8.7,3.4
2020,6,25,12:00,UTC,0,1026.1,26,0,-1,30.6,8.7,50000,199,5.8,3.8
2020,6,25,13:00,UTC,0,1025.8,27,0,-1,30.6,9.4,47910,231,6.9,4
2020,6,25,14:00,UTC,0,1025.6,31,0,-1,30.1,11.1,49100,225,7.6,5.2
2020,6,25,15:00,UTC,0,1025.4,31,0,-1,29.7,10.8,50000,240,8.5,5.7
2020,6,25,16:00,UTC,0,1025.3,31,0,-1,28.8,10,50000,233,6.4,4.5
2020,6,25,17:00,UTC,0,1025.1,32,0,-1,27.7,9.5,49290,223,7.1,5
2020,6,25,18:00,UTC,0,1025,32,0,-1,26.2,8.3,50000,237,6.6,4.6
2020,6,25,19:00,UTC,0,1025,39,0,-1,23.9,9.1,50000,242,4.4,4
2020,6,25,20:00,UTC,0,1025.2,45,0,-1,21.8,9.2,50000,247,3.8,3.2
2020,6,25,21:00,UTC,0,1025.5,48,0,-1,20.6,9.1,50000,261,2.4,2.1
2020,6,25,22:00,UTC,0,1025.6,52,0,-1,19,9,50000,262,3.4,2.7
2020,6,25,23:00,UTC,0,1025.4,54,0,-1,18.8,9.2,50000,264,3,2.7
2020,6,26,00:00,UTC,0,1025.3,59,0,-1,17.3,9.2,50000,236,1.2,0.7
2020,6,26,01:00,UTC,0,1025.1,62,0,-1,16.6,9.3,50000,0,0.8,0
2020,6,26,02:00,UTC,0,1024.9,65,0,-1,16.5,9.8,50000,253,1.3,1.1
2020,6,26,03:00,UTC,0,1025.1,66,0,-1,16.6,10.2,50000,274,2.6,2.2
2020,6,26,04:00,UTC,0,1024.9,64,0,-1,19,12.1,50000,254,2.8,1.6
2020,6,26,05:00,UTC,0,1024.9,58,0,-1,20.7,12.1,47310,279,2.2,1.3
2020,6,26,06:00,UTC,0,1024.4,46,0,-1,23.1,11,50000,235,5.4,3.8
2020,6,26,07:00,UTC,0,1024,43,0,-1,23.9,10.5,50000,239,7.5,4.7
2020,6,26,08:00,UTC,0,1023.7,36,0,-1,25.3,9.2,50000,230,9.5,6.1
2020,6,26,09:00,UTC,0,1023.1,35,0,-1,26.2,9.6,50000,245,7.9,4.6
2020,6,26,10:00,UTC,0,1022.7,34,0,-1,27,9.6,42360,230,7.8,5.1
2020,6,26,11:00,UTC,0,1022.4,36,0,-1,27.6,11.3,50000,216,8.9,6.1
2020,6,26,12:00,UTC,0,1021.9,37,0,-1,28.3,12.3,45710,228,9.5,6.1
2020,6,26,13:00,UTC,0,1021.3,38,0,-1,28,12.3,49220,224,9.5,6.7
2020,6,26,14:00,UTC,0,1020.6,35,0,-1,28.1,11,42690,225,11.3,7.9
2020,6,26,15:00,UTC,0,1020.1,34,0,-1,27.9,10.6,46430,232,11.8,7.6
2020,6,26,16:00,UTC,0,1019.5,30,0,-1,27.3,8.1,48290,227,8.9,5.9
2020,6,26,17:00,UTC,0,1018.8,33,0,-1,26.2,8.8,50000,229,8,5.7
2020,6,26,18:00,UTC,0,1018.4,42,0,-1,24.9,11,50000,234,8.2,5.7
2020,6,26,19:00,UTC,0,1018.3,48,0,-1,23.1,11.6,50000,230,5.8,4.3
2020,6,26,20:00,UTC,0,1018.4,57,0,-1,21,12.2,50000,237,5.6,4.1
2020,6,26,21:00,UTC,0,1018.6,59,0,-1,19.5,11.2,50000,244,5.1,4.4
2020,6,26,22:00,UTC,0,1018.5,64,0,-1,18.1,11,50000,261,3.7,3.1
2020,6,26,23:00,UTC,0,1018.2,68,0,-1,17.1,11.1,50000,281,3.4,2.7
2020,6,27,00:00,UTC,0,1018,74,0,-1,15.5,10.8,50000,248,4.4,2.9
2020,6,27,01:00,UTC,0,1017.7,76,0,-1,15.6,11.3,50000,258,2.1,1.8
2020,6,27,02:00,UTC,0,1017.3,73,0,-1,16,11,50000,265,1.5,0.7
2020,6,27,03:00,UTC,0,1017.1,68,0,-1,17.3,11.5,50000,239,2.1,1.7
2020,6,27,04:00,UTC,0,1016.7,60,0,-1,20.2,12.1,50000,239,3.5,2.5
2020,6,27,05:00,UTC,0,1016.4,50,0,-1,22,11.1,50000,235,5.9,4.2
2020,6,27,06:00,UTC,0,1016,50,0,-1,23.7,12.5,50000,243,5.3,3.7
2020,6,27,07:00,UTC,0,1015.6,46,0,-1,25,12.5,50000,234,5.2,3.1
2020,6,27,08:00,UTC,0,1015.3,40,0,-1,26.5,11.9,50000,233,6.3,4.1
2020,6,27,09:00,UTC,0,1014.8,35,0,-1,27.7,11,50000,274,6.7,4.3
2020,6,27,10:00,UTC,0,1014.3,33,0,-1,28.3,10.6,50000,266,7.2,3.3
2020,6,27,11:00,UTC,2,1013.9,33,0,-1,28.6,10.7,50000,293,6.9,3.5
2020,6,27,12:00,UTC,3,1013.6,37,0,-1,28.6,12.6,50000,204,7.8,5.2
2020,6,27,13:00,UTC,0,1013,37,0,-1,29.3,13,47960,195,7.7,5.3
2020,6,27,14:00,UTC,2,1012.4,36,0,-1,29,12.5,45570,190,7.8,5.7
2020,6,27,15:00,UTC,0,1012.1,31,0,-1,29.4,10.7,50000,227,7.9,5.7
2020,6,27,16:00,UTC,0,1011.5,31,0,-1,29.3,10.5,50000,222,7.4,5.1
2020,6,27,17:00,UTC,0,1011.1,32,0,-1,28.6,10.4,50000,234,5.4,4.1
2020,6,27,18:00,UTC,0,1011.1,36,0,-1,27.5,11,50000,230,4.8,3.5
2020,6,27,19:00,UTC,0,1011.1,42,0,-1,25.7,11.8,50000,208,3.7,2.9
2020,6,27,20:00,UTC,0,1011.2,56,0,-1,23.5,14.2,50000,203,3.7,2.8
2020,6,27,21:00,UTC,4,1011.1,59,0,-1,22.5,14.2,50000,217,1.3,1
2020,6,27,22:00,UTC,0,1010.8,64,0,-1,21.2,14.2,50000,225,1.7,1.2
2020,6,27,23:00,UTC,0,1011.2,71,0,-1,19.4,14,50000,91,4.6,2.1
2020,6,28,00:00,UTC,0,1010.9,73,0,-1,19.5,14.6,50000,134,2.5,2
2020,6,28,01:00,UTC,0,1010.9,77,0,-1,17.8,13.7,49720,47,3.6,3
2020,6,28,02:00,UTC,0,1010.9,75,0,-1,18.2,13.7,50000,59,6.7,5.5
2020,6,28,03:00,UTC,0,1010.9,73,0,-1,19,13.9,50000,66,7.7,5.7
2020,6,28,04:00,UTC,2,1011.3,68,0,-1,20.1,14,50000,75,6.5,3.9
2020,6,28,05:00,UTC,1,1011.3,62,0,-1,21.5,13.8,50000,79,7.3,4.7
2020,6,28,06:00,UTC,0,1011.1,54,0,-1,23.5,13.6,50000,90,7.1,4.8
2020,6,28,07:00,UTC,4,1011.3,50,0,-1,24.4,13.2,50000,77,6.2,4.3
2020,6,28,08:00,UTC,3,1011.3,47,0,-1,25.4,13.2,50000,82,7.6,4.3
2020,6,28,09:00,UTC,0,1011.4,45,0,-1,25.6,12.8,50000,99,6,3.5
2020,6,28,10:00,UTC,3,1011.3,44,0,-1,26.6,13.4,50000,62,4.9,3.3
2020,6,28,11:00,UTC,4,1011.6,56,0,-1,25,15.7,45740,159,9,6.6
2020,6,28,12:00,UTC,1,1011.4,58,0,-1,24.9,16.1,43570,147,8.7,6.1
2020,6,28,13:00,UTC,0,1011.2,59,0,-1,23.9,15.4,50000,145,8,5.6
2020,6,28,14:00,UTC,0,1011.2,58,0,-1,23.8,15.1,50000,140,8.3,5.9
2020,6,28,15:00,UTC,0,1011.5,57,0,-1,23.3,14.3,50000,136,9.4,7
2020,6,28,16:00,UTC,0,1011.6,55,0,-1,22.7,13.2,45450,128,7.9,5.5
2020,6,28,17:00,UTC,0,1011.9,56,0,-1,21.8,12.5,49070,123,9.1,6.9
2020,6,28,18:00,UTC,0,1012.2,61,0,-1,21,13.2,50000,121,8.4,6.3
2020,6,28,19:00,UTC,0,1012.3,66,0,-1,19.9,13.3,50000,113,7,4.8
2020,6,28,20:00,UTC,0,1012.6,66,0,-1,18.9,12.4,50000,108,7.6,4.9
2020,6,28,21:00,UTC,0,1012.8,69,0,-1,18.1,12.3,50000,111,5.9,3.9
2020,6,28,22:00,UTC,0,1012.6,75,0,-1,16.6,12.3,50000,90,3.4,2.5
2020,6,28,23:00,UTC,0,1012.5,70,0,-1,16.7,11.3,50000,99,3.7,2.9
2020,6,29,00:00,UTC,0,1012.5,67,0,-1,16.5,10.5,50000,103,5.3,4.1
2020,6,29,01:00,UTC,1,1012.6,66,0,-1,16.4,9.9,50000,107,4.1,2.8
2020,6,29,02:00,UTC,1,1012.2,69,0,-1,16.4,10.6,50000,105,5.2,4
2020,6,29,03:00,UTC,0,1012,68,0,-1,16.7,10.7,50000,114,6.5,4.5
2020,6,29,04:00,UTC,0,1011.9,64,0,-1,17.6,10.6,50000,117,6.9,4.6
2020,6,29,05:00,UTC,0,1011.3,61,0,-1,18.8,11.2,50000,109,8.5,5.6
2020,6,29,06:00,UTC,0,1010.9,52,0,-1,19.3,9.1,50000,109,11.1,7.9
2020,6,29,07:00,UTC,0,1011,49,0,-1,20.4,9.4,49990,116,8.9,6.7
2020,6,29,08:00,UTC,1,1010.6,46,0,-1,21.1,9,50000,113,11.1,7.6
2020,6,29,09:00,UTC,0,1010.5,49,0,-1,21,9.7,50000,132,10.7,7.8
2020,6,29,10:00,UTC,0,1009.9,50,0,-1,21.4,10.4,47950,116,10.4,7.6
2020,6,29,11:00,UTC,0,1009,46,0,-1,21.7,9.4,50000,123,10.4,7.7
2020,6,29,12:00,UTC,0,1008.4,44,0,-1,22,9.2,50000,115,9.7,7.5
2020,6,29,13:00,UTC,3,1008.6,47,0,-1,21.4,9.5,50000,124,9.4,6.9
2020,6,29,14:00,UTC,4,1007.8,49,0,-1,21.1,10,50000,120,10.7,7.4
2020,6,29,15:00,UTC,7,1007.5,52,0,-1,20.7,10.4,50000,137,7.3,5.6
2020,6,29,16:00,UTC,7,1006.4,72,0,-1,18.9,13.7,50000,117,4.7,3.5
2020,6,29,17:00,UTC,8,1005.8,63,0,-1,19.2,12.1,50000,118,8.2,5.8
2020,6,29,18:00,UTC,7,1005.3,69,0,-1,18.8,13,50000,112,5.8,4.2
2020,6,29,19:00,UTC,8,1004.8,82,0,-1,18,14.8,50000,112,4.8,3.7
2020,6,29,20:00,UTC,8,1004.2,82,0,-1,18,14.9,50000,140,5,3.8
2020,6,29,21:00,UTC,8,1003.6,89,0.6,-1,17.4,15.6,27490,158,3.3,2.5
2020,6,29,22:00,UTC,7,1002.9,95,0,-1,17,16.2,30520,123,2.3,1.5
2020,6,29,23:00,UTC,8,1002.2,95,0,-1,17.3,16.4,16900,227,1.3,1
2020,6,30,00:00,UTC,8,1001.2,96,0,-1,17.1,16.5,13570,326,2.5,1.9
2020,6,30,01:00,UTC,8,1000.5,97,0,-1,17.1,16.6,6880,129,0.9,0.5
2020,6,30,02:00,UTC,8,999.5,96,0,-1,16.8,16.1,10450,317,2.6,1.8
2020,6,30,03:00,UTC,8,998.7,96,0,-1,16.8,16.2,10080,341,4.2,3
2020,6,30,04:00,UTC,8,997.6,96,0.8,-1,16.3,15.7,10630,6,4.8,3.4
2020,6,30,05:00,UTC,8,996.4,97,2.5,-1,16.3,15.7,6910,334,5.4,4.2
2020,6,30,06:00,UTC,8,995.2,96,5.7,-1,16,15.4,7330,318,7.4,5.1
2020,6,30,07:00,UTC,8,994,94,2.5,-1,15.9,15,10560,335,7.8,5.2
2020,6,30,08:00,UTC,8,992.6,91,0,-1,15.7,14.2,39540,331,11,8.2
2020,6,30,09:00,UTC,8,992.3,94,9.5,-1,14.8,13.9,4960,325,8.9,5.8
2020,6,30,10:00,UTC,8,991.8,92,1.5,-1,13.4,12.2,12640,305,11.3,8
2020,6,30,11:00,UTC,8,992.9,93,1.9,-1,13.5,12.3,10460,280,9.8,7.1
2020,6,30,12:00,UTC,8,993.5,95,2,-1,13.1,12.2,12730,256,8.2,6
2020,6,30,13:00,UTC,8,993.8,97,4.3,-1,13.3,12.8,9180,241,6.5,4.2
2020,6,30,14:00,UTC,8,993.6,95,0.5,-1,14.1,13.4,20940,217,8.2,6.2
2020,6,30,15:00,UTC,8,993.6,93,0.5,-1,13.9,12.7,48930,232,6.5,4.3
2020,6,30,16:00,UTC,1,993.3,87,0,-1,16.5,14.3,45530,219,6.8,4.3
2020,6,30,17:00,UTC,2,993.3,79,0,-1,17,13.3,50000,231,8.8,6.2
2020,6,30,18:00,UTC,4,993.5,81,0,-1,15.7,12.5,50000,234,7.5,5.2
2020,6,30,19:00,UTC,8,993.4,77,0,-1,15.5,11.4,50000,214,10.6,7.6
2020,6,30,20:00,UTC,7,993.6,91,1.1,-1,14.1,12.6,8100,217,9.7,6.6
2020,6,30,21:00,UTC,8,993.3,96,4.9,-1,14.1,13.4,7220,194,9.9,6.5
2020,6,30,22:00,UTC,7,992.9,94,0,-1,14.6,13.6,32220,224,7.7,5
2020,6,30,23:00,UTC,7,992.4,93,0,-1,15,13.8,32450,219,9.1,6
2020,7,1,00:00,UTC,7,992.4,92,0,-1,14.9,13.6,48230,211,8.8,6
2020,7,1,01:00,UTC,7,992.2,90,0,-1,15.1,13.5,41320,218,8.5,6
2020,7,1,02:00,UTC,7,992.2,89,0,-1,15.1,13.3,47050,214,10.8,6.4
2020,7,1,03:00,UTC,7,992.2,92,0.8,-1,14.8,13.5,25540,203,10.8,7
2020,7,1,04:00,UTC,7,992.3,90,0,-1,15.4,13.8,17800,213,10.3,6.6
2020,7,1,05:00,UTC,5,992.2,82,0,-1,16.3,13.3,44460,213,11.4,8.2
2020,7,1,06:00,UTC,7,992.1,79,0,-1,16.6,13,50000,214,12.7,7.4
2020,7,1,07:00,UTC,8,992.6,97,5.8,-1,13.2,12.7,13220,240,9.4,5.1
2020,7,1,08:00,UTC,5,992.4,89,0,-1,15.5,13.7,50000,219,8.4,5.1
2020,7,1,09:00,UTC,7,993,83,0,-1,16,13.1,27800,223,10.4,7.4
2020,7,1,10:00,UTC,7,993.3,90,1.2,-1,14.7,13.1,43700,244,5.5,4
2020,7,1,11:00,UTC,1,993.8,84,0,-1,16.5,13.7,50000,217,9.6,6.9
2020,7,1,12:00,UTC,3,,77,0,-1,16.5,12.4,50000,216,10.6,7.8
2020,7,1,13:00,UTC,4,994.1,67,0,-1,18.4,12.2,50000,230,12.1,8.3
2020,7,1,14:00,UTC,6,995,72,0,-1,17.6,12.4,50000,228,7.8,5.5
2020,7,1,15:00,UTC,7,995.7,89,0.9,-1,16.6,14.7,36070,233,5.4,3.5
2020,7,1,16:00,UTC,7,996.3,80,0,-1,17.2,13.8,50000,239,7.2,5.6
2020,7,1,17:00,UTC,3,997.1,76,0,-1,17.3,13,50000,241,8.2,5.8
2020,7,1,18:00,UTC,5,997.7,77,0,-1,16.3,12.2,50000,264,8,5.8
2020,7,1,19:00,UTC,3,998.5,76,0,-1,15.1,10.9,50000,266,6.7,4.9
2020,7,1,20:00,UTC,0,999.2,81,0,-1,13.9,10.7,50000,253,5,4
2020,7,1,21:00,UTC,3,999.8,89,0,-1,12.6,10.9,50000,246,3.6,3.3
2020,7,1,22:00,UTC,6,1000.1,88,0,-1,12.9,11,50000,302,2.7,1.5
2020,7,1,23:00,UTC,7,1000.5,85,0,-1,12.8,10.3,50000,271,2.9,2.2
2020,7,2,00:00,UTC,8,1000.7,80,0,-1,13,9.7,50000,312,3.4,2.4
2020,7,2,01:00,UTC,8,1001.1,84,0,-1,12.8,10.2,50000,337,1.9,1.3
2020,7,2,02:00,UTC,8,1001.6,82,0,-1,12.5,9.5,50000,347,2.4,1.7
2020,7,2,03:00,UTC,8,1002,82,0,-1,12.5,9.5,50000,7,2.2,1.8
2020,7,2,04:00,UTC,8,1002.4,80,0,-1,13,9.6,50000,39,2,1.1
2020,7,2,05:00,UTC,7,1002.9,71,0,-1,13.8,8.7,49830,28,1.8,0.9
2020,7,2,06:00,UTC,7,1003.1,62,0,-1,14.7,7.5,46700,71,2.7,1.5
2020,7,2,07:00,UTC,7,1003.5,55,0,-1,15.7,6.6,50000,93,2.1,0.9
2020,7,2,08:00,UTC,7,1003.9,49,0,-1,16.2,5.3,50000,169,2.6,1.2
2020,7,2,09:00,UTC,3,1003.8,46,0,-1,17.2,5.6,50000,135,3.5,1.6
2020,7,2,10:00,UTC,5,1004,51,0,-1,17.7,7.5,47950,218,5.3,2.5
2020,7,2,11:00,UTC,0,1004,50,0,-1,18.8,8.2,50000,181,5.6,3
2020,7,2,12:00,UTC,2,1004.2,54,0,-1,19,9.5,50000,177,5.2,3.6
2020,7,2,13:00,UTC,1,1003.9,56,0,-1,19.2,10.2,50000,137,6.2,2.6
2020,7,2,14:00,UTC,,,,,,,,,,,
2020,7,2,15:00,UTC,7,1003.9,67,0,-1,17.9,11.7,50000,183,7.1,5.3
2020,7,2,16:00,UTC,8,1003.7,79,0,-1,16.4,12.7,14320,173,5.5,3.8
2020,7,2,17:00,UTC,7,1003.5,71,0,-1,17,11.7,50000,155,6.9,4.7
2020,7,2,18:00,UTC,7,1003.2,91,0,-1,15.4,14,47030,152,5.4,3.9
2020,7,2,19:00,UTC,7,1003,89,0,-1,15.8,14.1,50000,126,5.2,4
2020,7,2,20:00,UTC,7,1002.8,87,0,-1,15.9,13.8,50000,156,5.7,4.1
2020,7,2,21:00,UTC,8,1002.7,87,0,-1,15.9,13.8,50000,158,4.3,3.3
2020,7,2,22:00,UTC,8,1002,94,7.6,-1,15.1,14.3,3770,131,4.1,2.3
2020,7,2,23:00,UTC,4,1002.8,97,0,-1,14.1,13.6,36870,240,6.5,4.3
2020,7,3,00:00,UTC,0,1003.1,97,0,-1,13.3,12.8,19060,231,4,2.9
2020,7,3,01:00,UTC,1,1003.1,98,0,-1,13.3,13,22060,207,5.1,4.1
2020,7,3,02:00,UTC,7,1003.4,96,0,-1,14.2,13.6,31050,206,5.6,4.2
2020,7,3,03:00,UTC,5,1003.7,96,0,-1,14.3,13.6,25060,222,5,3.4
2020,7,3,04:00,UTC,7,1004.3,92,0,-1,14.9,13.6,46670,266,6.4,4
2020,7,3,05:00,UTC,2,1004.7,86,0,-1,16.3,13.9,50000,266,7,4.1
2020,7,3,06:00,UTC,0,1005.4,73,0,-1,17.4,12.4,50000,238,8.4,5.9
2020,7,3,07:00,UTC,1,1005.9,59,0,-1,18,9.8,50000,229,11,7.6
2020,7,3,08:00,UTC,4,1006.6,57,0,-1,18.7,10.1,50000,236,11.6,8
2020,7,3,09:00,UTC,7,1006.9,58,0,-1,18.6,10.1,50000,224,10.2,7.3
2020,7,3,10:00,UTC,2,1007.3,60,0,-1,18.9,10.8,41140,231,11.8,8.8
2020,7,3,11:00,UTC,4,1007.5,57,0,-1,19.2,10.4,49500,219,12,8.8
2020,7,3,12:00,UTC,4,1007.6,57,0,-1,19.2,10.4,50000,231,10.3,7.3
2020,7,3,13:00,UTC,4,1008.4,54,0,-1,19.1,9.7,50000,220,12,7.7
2020,7,3,14:00,UTC,1,1008.5,53,0,-1,19.4,9.5,50000,226,10.5,7.4
2020,7,3,15:00,UTC,1,1008.6,53,0,-1,18.8,9,46710,209,9.6,7.3
2020,7,3,16:00,UTC,0,1008.7,50,0,-1,18.1,7.6,50000,220,9.6,6.1
2020,7,3,17:00,UTC,0,1008.7,54,0,-1,17.7,8.3,50000,233,7.7,6
2020,7,3,18:00,UTC,0,1008.9,66,0,-1,16.2,9.8,50000,211,7.7,5.5
2020,7,3,19:00,UTC,0,1009.1,65,0,-1,14.9,8.4,50000,222,6.6,5
2020,7,3,20:00,UTC,7,1009.3,72,0,-1,14.3,9.3,50000,220,5.8,4.2
2020,7,3,21:00,UTC,6,1009.5,76,0,-1,13.8,9.7,50000,218,4.7,3.7
2020,7,3,22:00,UTC,3,1009.4,84,0,-1,13,10.3,50000,223,3.7,2.9
2020,7,3,23:00,UTC,0,1009.5,83,0,-1,12.3,9.5,50000,211,3.8,3.4
2020,7,4,00:00,UTC,5,1009.2,81,0,-1,12.3,9.2,50000,192,4,3
2020,7,4,01:00,UTC,7,1008.9,82,0,-1,13,10,50000,200,4.7,3.8
2020,7,4,02:00,UTC,5,1008.7,84,0,-1,13.3,10.6,50000,201,4.9,3.7
2020,7,4,03:00,UTC,2,1008.7,87,0,-1,13.6,11.5,50000,201,5.5,4.1
2020,7,4,04:00,UTC,6,1008.2,83,0,-1,15.1,12.3,50000,196,8.5,6.5
2020,7,4,05:00,UTC,6,1008.1,80,0,-1,15.5,12.1,50000,200,9,6.3
2020,7,4,06:00,UTC,7,1007.8,84,0,-1,15.5,12.8,43930,197,8.1,6.3
2020,7,4,07:00,UTC,7,1007.6,75,0,-1,16.4,12.1,49610,191,10,7.3
2020,7,4,08:00,UTC,6,1007.5,75,0,-1,16.4,12,50000,196,9.9,7.5
2020,7,4,09:00,UTC,3,1007.3,73,0,-1,16,11.1,50000,197,11.7,8.5
2020,7,4,10:00,UTC,8,1007.1,67,0,-1,15.6,9.6,31550,217,10.4,7.3
2020,7,4,11:00,UTC,8,1006.4,82,1.2,-1,14.7,11.6,31120,184,7.5,4.7
2020,7,4,12:00,UTC,8,1006.1,93,2.1,-1,13.8,12.7,7530,183,10.3,7.3
2020,7,4,13:00,UTC,8,1005.4,93,0,-1,14,13,9950,187,11.9,9
2020,7,4,14:00,UTC,8,1004.7,92,0,-1,15,13.7,19190,212,8.3,5.3
2020,7,4,15:00,UTC,7,1004.4,90,0,-1,15.6,13.9,26170,214,10,7
2020,7,4,16:00,UTC,8,1004.1,90,0,-1,15.6,13.9,49820,211,10.8,7.4
2020,7,4,17:00,UTC,8,1003.9,90,0,-1,15.6,14,15190,208,11.4,7.6
2020,7,4,18:00,UTC,8,1003.6,89,0,-1,15.8,14,47380,218,12.4,8.8
2020,7,4,19:00,UTC,8,1003.5,88,0,-1,15.9,14,49260,217,12.6,7.7
2020,7,4,20:00,UTC,8,1003.4,89,0,-1,15.8,14.1,38310,220,9.3,6.8
2020,7,4,21:00,UTC,8,1003.2,91,0,-1,15.7,14.1,17860,218,11.3,7.1
2020,7,4,22:00,UTC,8,1002.9,93,0,-1,15.5,14.4,13470,216,8.8,6.1
2020,7,4,23:00,UTC,8,1002.5,96,0.3,-1,15.3,14.7,12170,203,6.7,4.8
2020,7,5,00:00,UTC,8,1002.2,97,0.4,-1,15.2,14.7,13730,215,8.2,5.5
2020,7,5,01:00,UTC,8,1002,97,2.7,-1,14.2,13.7,8660,321,7,4.7
2020,7,5,02:00,UTC,8,1002,93,0.9,-1,13.6,12.4,20520,356,2.4,1.9
2020,7,5,03:00,UTC,8,1002,95,0.4,-1,13.4,12.6,22680,319,3.1,2.3
2020,7,5,04:00,UTC,8,1002,94,1.3,-1,13,12.2,11770,13,4.9,3.1
2020,7,5,05:00,UTC,8,1002,97,1.9,-1,12,11.6,5260,355,4.9,2.9
2020,7,5,06:00,UTC,7,1002.2,94,0,-1,12.5,11.6,50000,12,4.4,3.2
2020,7,5,07:00,UTC,7,1002.4,88,0,-1,14,12.1,50000,352,3.4,2.3
2020,7,5,08:00,UTC,7,1002.5,74,0,-1,15.1,10.5,50000,334,2.3,1.3
2020,7,5,09:00,UTC,6,1002.5,70,0,-1,16,10.4,50000,70,3.1,1.8
2020,7,5,10:00,UTC,7,1002.1,72,0,-1,17.2,12.2,50000,111,4.6,2
2020,7,5,11:00,UTC,7,1001.9,75,0,-1,17.3,12.9,50000,171,4,2.3
2020,7,5,12:00,UTC,8,1001.9,77,0,-1,17.2,13.1,50000,180,6.1,4.2
2020,7,5,13:00,UTC,,,,,,,,,,,
2020,7,5,14:00,UTC,6,1001,79,0,-1,17.2,13.4,50000,204,6.2,3.9
2020,7,5,15:00,UTC,7,1000.2,78,0,-1,17,13.1,50000,169,5.7,4
2020,7,5,16:00,UTC,8,999.1,91,0,-1,15.5,14,8210,145,8.5,6.6
2020,7,5,17:00,UTC,8,997.4,96,0.6,-1,14.8,14.1,5190,147,8.6,6.7
2020,7,5,18:00,UTC,8,995.2,97,3,-1,15.7,15.3,9610,161,10,7.2
2020,7,5,19:00,UTC,8,993.9,96,2,-1,16.5,15.9,4750,180,16.6,11.3
2020,7,5,20:00,UTC,8,993.4,96,0.9,-1,16.6,16,9300,200,18.3,12.4
2020,7,5,21:00,UTC,8,993.3,94,0,-1,16.6,15.7,29540,219,11.8,8.1
2020,7,5,22:00,UTC,8,993,92,0,-1,16.6,15.3,43220,219,15.1,10.6
2020,7,5,23:00,UTC,8,992.8,93,0.6,-1,16.3,15.1,38560,218,13.5,8.8
2020,7,6,00:00,UTC,8,992.9,91,0,-1,16.1,14.6,35370,228,14.2,9.3
2020,7,6,01:00,UTC,8,993.1,91,0,-1,15.7,14.2,44110,223,10,6.6
2020,7,6,02:00,UTC,7,993.2,91,0,-1,15.3,13.8,34280,214,10.5,7.4
2020,7,6,03:00,UTC,2,993.3,89,0,-1,15.2,13.3,30030,216,11.5,7.5
2020,7,6,04:00,UTC,7,993.4,84,0,-1,15.4,12.8,36970,216,12.3,8.9
2020,7,6,05:00,UTC,,,,,,,,,,,
2020,7,6,06:00,UTC,4,994,71,0,-1,16.4,11.1,43060,220,14.9,11.1
2020,7,6,07:00,UTC,5,994.4,64,0,-1,16.8,10,46310,227,17.5,10.9
2020,7,6,08:00,UTC,1,995,57,0,-1,17.3,8.7,47850,221,14,10.2
2020,7,6,09:00,UTC,6,995.7,64,0,-1,16.6,9.9,37090,224,16.9,11.3
2020,7,6,10:00,UTC,4,996.3,64,0,-1,16.5,9.8,41470,225,16.1,11.5
2020,7,6,11:00,UTC,4,996.8,66,0,-1,16.9,10.6,34710,225,15,11
2020,7,6,12:00,UTC,4,997.5,57,0,-1,17.2,8.6,46450,215,15.5,11.8
2020,7,6,13:00,UTC,4,997.8,55,0,-1,17.1,7.8,49740,220,18.5,12.7
2020,7,6,14:00,UTC,5,998.1,58,0,-1,17,8.5,49610,223,17.2,11.2
2020,7,6,15:00,UTC,7,998.3,56,0,-1,17.2,8.3,42570,221,16.6,10.3
2020,7,6,16:00,UTC,5,998.3,61,0,-1,16.3,8.9,50000,219,17,12.2
2020,7,6,17:00,UTC,3,998.4,63,0,-1,16.3,9.3,48560,219,17,10.3
2020,7,6,18:00,UTC,3,998.8,65,0,-1,16,9.3,50000,221,12.6,9.3
2020,7,6,19:00,UTC,2,998.8,66,0,-1,15.4,9.1,50000,221,9.8,7.3
2020,7,6,20:00,UTC,4,998.9,71,0,-1,14.9,9.7,50000,201,8.4,5.9
2020,7,6,21:00,UTC,5,999.2,78,0,-1,14.3,10.6,50000,205,8.4,5.4
2020,7,6,22:00,UTC,4,999.3,78,0,-1,14,10.2,48250,198,10.3,7
2020,7,6,23:00,UTC,1,999.5,81,0,-1,13.5,10.4,50000,199,10.6,7.3
2020,7,7,00:00,UTC,1,999.4,86,0,-1,13.2,10.9,43890,191,10.5,7
2020,7,7,01:00,UTC,7,999.5,85,0,-1,13.5,11.1,42930,192,8.8,6.2
2020,7,7,02:00,UTC,7,999.5,83,0,-1,13.6,10.8,42180,194,11.6,8
2020,7,7,03:00,UTC,7,999.4,84,0,-1,13.7,11,29790,188,11.5,7.5
2020,7,7,04:00,UTC,8,999.7,81,0,-1,14.1,10.9,45780,186,11.7,7.9
2020,7,7,05:00,UTC,8,999.7,89,0.7,-1,13.6,11.7,20680,186,8.8,6.4
2020,7,7,06:00,UTC,7,1000.1,87,0,-1,14.3,12.1,35880,189,11.7,7.9
2020,7,7,07:00,UTC,8,1000.2,94,0.7,-1,13.6,12.6,6970,185,9.1,6
2020,7,7,08:00,UTC,8,1000.7,92,0,-1,14.2,13,42370,195,9.1,7.2
2020,7,7,09:00,UTC,6,1001.3,82,0,-1,15.5,12.6,45290,203,10.5,6.9
2020,7,7,10:00,UTC,5,1001.8,66,0,-1,16.6,10.1,50000,213,12.4,8.7
2020,7,7,11:00,UTC,2,1002.2,57,0,-1,17.3,8.7,50000,217,15.3,10.7
2020,7,7,12:00,UTC,8,1003,63,0,-1,16.5,9.5,50000,221,11.9,8.4
2020,7,7,13:00,UTC,8,1003.5,67,0,-1,15.7,9.6,50000,224,11.1,7.8
2020,7,7,14:00,UTC,8,1004,71,0,-1,15.2,10,50000,219,9.7,7.6
2020,7,7,15:00,UTC,7,1004.2,69,0,-1,15.9,10.3,50000,219,9.8,8
2020,7,7,16:00,UTC,8,1004.5,71,0,-1,15.4,10.3,48480,246,7.7,4.7
2020,7,7,17:00,UTC,8,1005.1,89,0,-1,14.2,12.5,50000,243,5.4,3.4
2020,7,7,18:00,UTC,4,1005.6,90,0,-1,14,12.4,50000,241,5.1,3.5
2020,7,7,19:00,UTC,1,1005.9,90,0,-1,13.5,11.8,50000,224,3.8,2.9
2020,7,7,20:00,UTC,0,1006.2,90,0,-1,12.6,11,50000,219,4.5,3.5
2020,7,7,21:00,UTC,0,1006.1,92,0,-1,11.8,10.6,50000,222,4.3,3.5
2020,7,7,22:00,UTC,0,1005.9,95,0,-1,11.3,10.5,50000,210,4,3.5
2020,7,7,23:00,UTC,0,1006.3,98,0,-1,10.9,10.6,34850,203,3.1,2.5
2020,7,8,00:00,UTC,0,1006.3,98,0,-1,10.9,10.6,40620,216,3.9,2.8
2020,7,8,01:00,UTC,0,1005.9,97,0,-1,10.6,10.2,42200,209,3.7,3.4
2020,7,8,02:00,UTC,0,1006,98,0,-1,10.7,10.4,50000,190,2.8,2
2020,7,8,03:00,UTC,0,1006,94,0,-1,11.9,10.9,50000,162,2.7,1.8
2020,7,8,04:00,UTC,0,1005.7,88,0,-1,13.7,11.8,50000,174,3.4,2.4
2020,7,8,05:00,UTC,2,1005.5,87,0,-1,14.6,12.5,50000,171,5.7,4.3
2020,7,8,06:00,UTC,3,1005.4,80,0,-1,15.6,12.1,50000,185,6.4,4.1
2020,7,8,07:00,UTC,0,1005.3,69,0,-1,16.8,11,49790,177,8,5.7
2020,7,8,08:00,UTC,0,1005.4,72,0,-1,16.7,11.6,47680,175,8,6.1
2020,7,8,09:00,UTC,1,1005.6,64,0,-1,17.6,10.7,50000,171,8.7,6.5
2020,7,8,10:00,UTC,1,1005.6,59,0,-1,17.5,9.5,50000,187,9.2,6.6
2020,7,8,11:00,UTC,4,1005.5,54,0,-1,18.1,8.7,50000,207,10,7.3
2020,7,8,12:00,UTC,1,1005.7,70,0,-1,15.5,10,50000,232,9.6,7.1
2020,7,8,13:00,UTC,7,1006.1,63,0,-1,16.4,9.3,50000,202,8.2,5.5
2020,7,8,14:00,UTC,7,1006.3,60,0,-1,15.3,7.6,50000,193,7.4,5.2
2020,7,8,15:00,UTC,7,1006.4,58,0,-1,15.3,7.2,50000,233,5,3.5
2020,7,8,16:00,UTC,8,1006.4,65,0,-1,15.3,8.8,50000,181,6.4,4.2
2020,7,8,17:00,UTC,3,1006.4,65,0,-1,14.8,8.2,50000,179,7,5.1
2020,7,8,18:00,UTC,1,1006.5,73,0,-1,13.8,9.1,50000,197,5.7,3.9
2020,7,8,19:00,UTC,7,1006.5,73,0,-1,13.7,8.9,50000,163,5.5,4.1
2020,7,8,20:00,UTC,3,1006.6,79,0,-1,12.6,9,50000,165,5.1,3.5
2020,7,8,21:00,UTC,1,1007,82,0,-1,12.1,9.1,50000,162,4.1,3.3
2020,7,8,22:00,UTC,0,1007,79,0,-1,11.8,8.3,50000,185,4.7,3.4
2020,7,8,23:00,UTC,7,1006.8,81,0,-1,11.8,8.6,50000,192,5.1,3.2
2020,7,9,00:00,UTC,7,1006.7,80,0,-1,11.7,8.3,50000,195,5.1,3.5
2020,7,9,01:00,UTC,0,1006.9,85,0,-1,10.5,8.1,50000,210,5,4.1
2020,7,9,02:00,UTC,0,1007.1,85,0,-1,10.2,7.7,50000,198,3.9,3.5
2020,7,9,03:00,UTC,0,1007.2,80,0,-1,11.4,8,50000,195,4.4,3
2020,7,9,04:00,UTC,0,1007.2,73,0,-1,12.7,8,50000,199,6.8,4.3
2020,7,9,05:00,UTC,5,1007.4,80,0,-1,12.5,9.1,50000,188,6.9,4.8
2020,7,9,06:00,UTC,6,1007.4,72,0,-1,14.1,9.1,50000,215,5,2.7
2020,7,9,07:00,UTC,8,1007.5,85,0,-1,11.2,8.8,50000,221,1.9,1.2
2020,7,9,08:00,UTC,0,1007.4,73,0,-1,14.6,9.9,50000,226,6.6,3.9
2020,7,9,09:00,UTC,4,1007.4,59,0,-1,15.1,7.2,50000,214,8.1,6
2020,7,9,10:00,UTC,7,1007.6,59,0,-1,15.3,7.2,50000,249,7.7,4.6
2020,7,9,11:00,UTC,7,1007.9,56,0,-1,16,7.1,50000,234,7.8,6.1
2020,7,9,12:00,UTC,3,1007.9,58,0,-1,15.8,7.6,50000,207,8.5,6
2020,7,9,13:00,UTC,7,1008.6,86,1.9,-1,11.9,9.7,11850,291,9.5,7
2020,7,9,14:00,UTC,6,1008.4,73,0,-1,15,10.2,50000,255,4.5,3
2020,7,9,15:00,UTC,6,1008.4,66,0,-1,15,8.7,50000,250,9.6,7
2020,7,9,16:00,UTC,7,1008.5,67,0,-1,15.6,9.4,50000,239,8.8,6
2020,7,9,17:00,UTC,7,1008.9,71,0,-1,14.9,9.8,50000,266,5.5,4.2
2020,7,9,18:00,UTC,2,1009.2,67,0,-1,14.7,8.7,50000,258,8.3,5.9
2020,7,9,19:00,UTC,0,1009.6,70,0,-1,13.6,8.2,50000,241,8.1,5.6
2020,7,9,20:00,UTC,0,1010.1,74,0,-1,12.3,7.9,50000,246,5.6,3.8
2020,7,9,21:00,UTC,0,1010.6,82,0,-1,11.2,8.2,50000,222,4.7,3.8
2020,7,9,22:00,UTC,0,1010.9,89,0,-1,10.9,9.1,50000,223,5.2,4.2
2020,7,9,23:00,UTC,0,1011.1,94,0,-1,10.3,9.4,50000,216,4,3.6
2020,7,10,00:00,UTC,4,1011.2,97,0,-1,10.5,10,50000,217,3.3,2.8
2020,7,10,01:00,UTC,4,1011.3,97,0,-1,10.6,10.2,48160,215,3.2,2.7
2020,7,10,02:00,UTC,4,1011.2,97,0,-1,10.9,10.4,49260,207,2.4,2
2020,7,10,03:00,UTC,4,1011.2,96,0,-1,12.2,11.6,46080,212,2.5,1.7
2020,7,10,04:00,UTC,6,1011.1,90,0,-1,13.4,11.8,50000,205,5.8,4.1
2020,7,10,05:00,UTC,1,1011.2,80,0,-1,14,10.7,50000,219,7.5,5.7
2020,7,10,06:00,UTC,1,1011.1,69,0,-1,15.7,9.9,50000,219,7,4
2020,7,10,07:00,UTC,4,1011.1,68,0,-1,16,10.1,50000,201,6.6,4.8
2020,7,10,08:00,UTC,3,1011.2,68,0,-1,15.8,9.9,50000,225,5.7,4.4
2020,7,10,09:00,UTC,7,1010.9,50,0,-1,18,7.5,50000,180,8.4,6.2
2020,7,10,10:00,UTC,0,1011,43,0,-1,17.3,4.7,50000,185,9.3,6.4
2020,7,10,11:00,UTC,0,1010.8,45,0,-1,18.2,6,50000,190,8.9,6.2
2020,7,10,12:00,UTC,0,1010.5,48,0,-1,18.4,7.2,50000,192,8.7,6.5
2020,7,10,13:00,UTC,0,1010.4,47,0,-1,18.8,7.3,50000,197,8.1,4.7
2020,7,10,14:00,UTC,1,1010.2,53,0,-1,18.7,8.9,50000,155,7.9,5.2
2020,7,10,15:00,UTC,0,1010.1,54,0,-1,18,8.6,50000,171,6.3,4.1
2020,7,10,16:00,UTC,1,1010.1,56,0,-1,17.7,8.9,50000,160,6.1,4.6
2020,7,10,17:00,UTC,0,1009.8,57,0,-1,17.4,8.9,50000,160,5.9,4.1
2020,7,10,18:00,UTC,0,1009.4,65,0,-1,16.6,9.9,50000,148,4.5,3.4
2020,7,10,19:00,UTC,0,1009.5,70,0,-1,16,10.4,50000,147,5,3.5
2020,7,10,20:00,UTC,0,1009.5,76,0,-1,14.9,10.8,50000,106,3,2
2020,7,10,21:00,UTC,0,1009.1,88,0,-1,12.8,10.8,50000,,2.6,2.4
2020,7,10,22:00,UTC,2,1008.7,89,0,-1,12.5,10.7,50000,84,2,1.9
2020,7,10,23:00,UTC,7,1008.1,91,0,-1,12,10.5,50000,82,2.9,2.4
2020,7,11,00:00,UTC,7,1007.7,93,0,-1,12.2,11.1,50000,71,4.1,3.4
2020,7,11,01:00,UTC,8,1007.4,92,0,-1,12.4,11.2,50000,59,3.6,2.6
2020,7,11,02:00,UTC,8,1006.1,92,0,-1,12.7,11.5,50000,62,4.2,3.6
2020,7,11,03:00,UTC,8,1005.3,95,1.7,-1,12.7,11.9,14460,53,4.6,3.6
2020,7,11,04:00,UTC,8,1004.3,96,0,-1,12.7,12.2,23200,53,5,3.8
2020,7,11,05:00,UTC,7,1003,96,0,-1,13,12.4,16900,46,7.6,5.3
2020,7,11,06:00,UTC,8,1002,97,3.9,-1,12.8,12.3,7460,43,8.5,6.2
2020,7,11,07:00,UTC,8,1000.6,96,1.4,-1,13.2,12.6,8600,57,9.1,7
2020,7,11,08:00,UTC,8,1000,96,2.4,-1,13.4,12.8,7260,74,9.1,6.4
2020,7,11,09:00,UTC,8,999.5,96,1.6,-1,13.8,13.2,6840,47,5.1,4.1
2020,7,11,10:00,UTC,8,999.4,95,0,-1,14.2,13.5,25960,30,4.9,3.2
2020,7,11,11:00,UTC,8,999.7,96,0.8,-1,14.2,13.6,7350,294,6,3
2020,7,11,12:00,UTC,8,1001,95,0,-1,13.7,12.8,20580,340,11,8.4
2020,7,11,13:00,UTC,8,1003,90,0,-1,14.3,12.7,49090,336,11.6,8.1
2020,7,11,14:00,UTC,7,1005.2,77,0,-1,15.3,11.4,50000,315,9.2,5.8
2020,7,11,15:00,UTC,7,1007.1,79,0,-1,15.3,11.6,50000,298,8.3,6.3
2020,7,11,16:00,UTC,7,1008.6,82,0,-1,14.8,11.7,50000,291,9.7,7.1
2020,7,11,17:00,UTC,6,1009.9,81,0,-1,14.7,11.4,50000,267,8.7,6.6
2020,7,11,18:00,UTC,3,1011,79,0,-1,14.1,10.5,50000,269,8.4,5.7
2020,7,11,19:00,UTC,4,1011.9,83,0,-1,13.2,10.4,50000,258,6.2,4.8
2020,7,11,20:00,UTC,7,1012.7,86,0,-1,12.9,10.7,50000,254,5.1,3.7
2020,7,11,21:00,UTC,6,1012.9,93,0,-1,11.7,10.7,50000,232,3.8,3
2020,7,11,22:00,UTC,3,1013.3,96,0,-1,11.3,10.6,50000,242,3,2.2
2020,7,11,23:00,UTC,0,1013.7,98,0,-1,10.8,10.5,50000,242,2.6,1.9
2020,7,12,00:00,UTC,0,1014.2,98,0,-1,10.1,9.8,50000,216,3.3,3
2020,7,12,01:00,UTC,0,1014.5,98,0,-1,9.7,9.4,30850,195,1.5,1.3
2020,7,12,02:00,UTC,0,1014.8,99,0,-1,9.8,9.6,29580,208,2.6,2.1
2020,7,12,03:00,UTC,0,1014.9,98,0,-1,10.7,10.4,32850,209,2.3,1.8
2020,7,12,04:00,UTC,0,1015.1,94,0,-1,12,11,50000,238,1.7,1.1
2020,7,12,05:00,UTC,0,1015.2,81,0,-1,13.9,10.7,50000,239,1.9,1.1
2020,7,12,06:00,UTC,0,1015.4,68,0,-1,15.8,9.9,50000,222,3.4,2.4
2020,7,12,07:00,UTC,0,1015.7,55,0,-1,17.2,8,50000,222,4.3,3.1
2020,7,12,08:00,UTC,0,1015.9,51,0,-1,18,7.8,50000,196,5.1,3.4
2020,7,12,09:00,UTC,4,1015.7,58,0,-1,18.6,10.2,50000,179,6.5,4.4
2020,7,12,10:00,UTC,7,1015.5,66,0,-1,18.9,12.5,50000,185,7.6,5.2
2020,7,12,11:00,UTC,2,1015.5,48,0,-1,19.4,8.2,46640,208,9.6,6.2
2020,7,12,12:00,UTC,1,1015.5,49,0,-1,19.2,8.3,50000,213,10.1,7.1
2020,7,12,13:00,UTC,1,1015.5,54,0,-1,19.7,10.1,50000,237,9.8,7.3
2020,7,12,14:00,UTC,0,1015.3,48,0,-1,19.5,8,50000,221,10.3,7.3
2020,7,12,15:00,UTC,2,1015.1,50,0,-1,19.3,8.6,50000,201,9.6,6.9
2020,7,12,16:00,UTC,2,1015.1,49,0,-1,19.2,8.3,50000,230,7.6,4.9
2020,7,12,17:00,UTC,1,1015.1,61,0,-1,18.2,10.6,50000,226,6.5,4.8
2020,7,12,18:00,UTC,1,1015.1,53,0,-1,17.4,7.7,50000,236,7.1,5.1
2020,7,12,19:00,UTC,0,1015.4,76,0,-1,15.6,11.5,50000,227,4.3,3
2020,7,12,20:00,UTC,0,1015.8,85,0,-1,14.2,11.7,50000,219,4.8,3.9
2020,7,12,21:00,UTC,0,1015.8,91,0,-1,13.2,11.8,50000,216,4.1,3
2020,7,12,22:00,UTC,0,1015.9,94,0,-1,12.1,11.2,48100,236,3.8,3.1
2020,7,12,23:00,UTC,0,1016,96,0,-1,11.6,11,35780,224,3.3,2.4
2020,7,13,00:00,UTC,0,1015.8,97,0,-1,11.1,10.6,20560,233,3.1,2.6
2020,7,13,01:00,UTC,0,1015.8,98,0,-1,11,10.7,17600,230,2,1.6
2020,7,13,02:00,UTC,0,1015.8,99,0,-1,11.2,11,18970,257,1.3,0.9
2020,7,13,03:00,UTC,8,1015.8,95,0,-1,11.8,11,31050,350,2.5,1.8
2020,7,13,04:00,UTC,9,1015.9,99,0,-1,11.1,10.9,1310,309,2.8,1.3
2020,7,13,05:00,UTC,8,1015.7,96,0,-1,12.1,11.5,3100,21,2.2,1.4
2020,7,13,06:00,UTC,8,1015.7,90,0,-1,13.1,11.5,37390,304,1.7,0.9
2020,7,13,07:00,UTC,4,1015.6,80,0,-1,14.9,11.5,49480,300,2.8,1.5
2020,7,13,08:00,UTC,2,1015,62,0,-1,16.3,9.1,50000,213,4.2,2.4
2020,7,13,09:00,UTC,7,1015,73,0,-1,14.6,9.8,50000,308,7.7,5.6
2020,7,13,10:00,UTC,6,1015.2,89,0,-1,13.8,12,49040,207,4.4,2.9
2020,7,13,11:00,UTC,0,1014.9,69,0,-1,17.1,11.4,49690,175,4.7,3.1
2020,7,13,12:00,UTC,7,1014.4,60,0,-1,17.6,9.7,50000,195,4.8,2.7
2020,7,13,13:00,UTC,8,1014.2,63,0,-1,17.7,10.6,50000,224,5.7,3.4
2020,7,13,14:00,UTC,4,1014.2,67,0,-1,15.9,9.9,50000,214,6.3,4.5
2020,7,13,15:00,UTC,7,1014.5,80,0,-1,13.7,10.4,50000,232,6.9,5.1
2020,7,13,16:00,UTC,8,1014.3,76,0,-1,15.4,11.1,50000,309,6.5,4.4
2020,7,13,17:00,UTC,3,1014.1,76,0,-1,15.8,11.6,50000,7,3.8,2.8
2020,7,13,18:00,UTC,4,1014,76,0,-1,14.7,10.5,50000,25,1.9,1.4
2020,7,13,19:00,UTC,0,1013.9,85,0,-1,13.4,11,50000,51,1.2,0.8
2020,7,13,20:00,UTC,7,1014,93,2.9,-1,12.3,11.2,11780,57,2.2,1.5
2020,7,13,21:00,UTC,7,1014.3,96,5.9,-1,12.1,11.4,5190,215,3.3,2.8
2020,7,13,22:00,UTC,8,1014.1,93,0,-1,11.4,10.4,50000,182,2.2,1.3
2020,7,13,23:00,UTC,1,1014.1,97,0,-1,10.6,10.2,50000,289,1.9,1.4
2020,7,14,00:00,UTC,1,1014.4,97,0,-1,10.2,9.8,50000,276,3.7,2.7
2020,7,14,01:00,UTC,0,1014.6,96,0,-1,9.7,9.2,50000,296,5,4.2
2020,7,14,02:00,UTC,0,1014.8,98,0,-1,9,8.7,50000,291,4,3.2
2020,7,14,03:00,UTC,0,1014.9,95,0,-1,9.4,8.6,50000,294,4.7,3.7
2020,7,14,04:00,UTC,0,1015,89,0,-1,10.8,9.1,50000,283,3.9,3
2020,7,14,05:00,UTC,0,1015.1,81,0,-1,12.8,9.6,50000,274,3.5,2.5
2020,7,14,06:00,UTC,0,1015.2,72,0,-1,14.5,9.4,50000,253,6.1,3.9
2020,7,14,07:00,UTC,0,1015.1,65,0,-1,16.1,9.5,50000,245,5.8,3.6
2020,7,14,08:00,UTC,1,1015,61,0,-1,17,9.4,50000,259,7.5,5.4
2020,7,14,09:00,UTC,7,1015,52,0,-1,18.2,8.1,50000,241,7.5,4.8
2020,7,14,10:00,UTC,7,1015.1,50,0,-1,18,7.5,50000,258,7.1,4.7
2020,7,14,11:00,UTC,6,1015.2,54,0,-1,18.1,8.6,50000,271,5.8,4
2020,7,14,12:00,UTC,5,1015.1,56,0,-1,19.1,10,50000,228,7.8,4.9
2020,7,14,13:00,UTC,7,1015.1,57,0,-1,18.3,9.7,50000,212,8.6,6.1
2020,7,14,14:00,UTC,6,1015,54,0,-1,19.3,9.7,50000,222,7.1,5.1
2020,7,14,15:00,UTC,0,1015,50,0,-1,19.7,9,50000,227,6.5,4.7
2020,7,14,16:00,UTC,0,1015,50,0,-1,19.7,9,50000,242,6.7,5.4
2020,7,14,17:00,UTC,0,1015.1,51,0,-1,19,8.8,50000,243,7,5.4
2020,7,14,18:00,UTC,0,1015.1,57,0,-1,18.1,9.5,50000,245,6.3,4.1
2020,7,14,19:00,UTC,0,1015.5,71,0,-1,16,10.8,50000,234,3.2,2.9
2020,7,14,20:00,UTC,0,1015.6,77,0,-1,14.6,10.7,50000,251,3.7,3.2
2020,7,14,21:00,UTC,0,1015.5,78,0,-1,14.1,10.2,50000,270,1.9,1.2
2020,7,14,22:00,UTC,0,1015.5,86,0,-1,12.2,10,50000,314,2.1,1.3
2020,7,14,23:00,UTC,0,1015.6,86,0,-1,11.3,9.1,50000,358,1.4,0.8
2020,7,15,00:00,UTC,0,1016,90,0,-1,10.6,8.9,50000,43,0.9,0.6
2020,7,15,01:00,UTC,0,1015.4,92,0,-1,9.8,8.6,50000,302,2.6,1.9
2020,7,15,02:00,UTC,0,1015.7,94,0,-1,9.8,8.9,50000,52,1.3,0.7
2020,7,15,03:00,UTC,0,1016.1,89,0,-1,11,9.2,50000,276,1.6,1.3
2020,7,15,04:00,UTC,0,1016.1,80,0,-1,13.3,9.9,50000,317,1.1,0.7
2020,7,15,05:00,UTC,0,1015.9,67,0,-1,16.2,9.9,50000,2,1.9,1.2
2020,7,15,06:00,UTC,0,1015.7,55,0,-1,18.1,8.8,50000,350,2.9,1.8
2020,7,15,07:00,UTC,0,1015.3,55,0,-1,18.7,9.6,50000,287,2.9,1.4
2020,7,15,08:00,UTC,0,1015.3,47,0,-1,19.5,7.7,50000,288,3.5,2
2020,7,15,09:00,UTC,0,1015.3,43,0,-1,20.7,7.5,50000,110,1.8,1
2020,7,15,10:00,UTC,4,1015.3,42,0,-1,20.7,7.4,49940,270,2.9,1.6
2020,7,15,11:00,UTC,1,1015.2,42,0,-1,21.3,7.8,50000,93,3.9,2
2020,7,15,12:00,UTC,7,1015.2,44,0,-1,21.4,8.7,50000,68,3.6,2.3
2020,7,15,13:00,UTC,2,1015.1,45,0,-1,21.5,9,50000,177,5.2,3.4
2020,7,15,14:00,UTC,4,1014.6,42,0,-1,22.1,8.5,50000,222,5.4,3.1
2020,7,15,15:00,UTC,1,1014.3,41,0,-1,21.7,7.8,50000,196,6.2,3.5
2020,7,15,16:00,UTC,0,1014.1,42,0,-1,21.7,8.2,50000,219,4.9,3.7
2020,7,15,17:00,UTC,2,1013.8,47,0,-1,20.7,8.9,50000,226,5.3,3.3
2020,7,15,18:00,UTC,0,1013.8,46,0,-1,20.1,8,50000,240,5,4
2020,7,15,19:00,UTC,0,1013.9,56,0,-1,17.6,8.7,50000,263,3.5,2.8
2020,7,15,20:00,UTC,0,1013.9,60,0,-1,16.7,8.8,50000,278,3.2,2.3
2020,7,15,21:00,UTC,0,1013.8,62,0,-1,15.9,8.7,50000,318,2.2,1.1
2020,7,15,22:00,UTC,0,1013.9,74,0,-1,14,9.4,50000,320,1.6,1.1
2020,7,15,23:00,UTC,0,1013.7,72,0,-1,13.8,8.9,50000,333,2.3,1.5
2020,7,16,00:00,UTC,0,1013.8,73,0,-1,13.6,8.8,50000,341,3.1,2
2020,7,16,01:00,UTC,0,1013.6,81,0,-1,12.8,9.5,50000,329,2.6,1.9
2020,7,16,02:00,UTC,0,1013.9,84,0,-1,12.1,9.5,50000,358,3,2.1
2020,7,16,03:00,UTC,0,1013.9,82,0,-1,12.5,9.6,50000,356,2.9,2.2
2020,7,16,04:00,UTC,0,1013.7,76,0,-1,14.3,10.1,50000,356,2.4,1.6
2020,7,16,05:00,UTC,0,1013.7,66,0,-1,17.1,10.6,50000,17,2.3,1.7
2020,7,16,06:00,UTC,0,1013.4,59,0,-1,19.3,11.1,50000,354,3.5,2.5
2020,7,16,07:00,UTC,0,1013.2,51,0,-1,20.8,10.4,50000,5,4.9,3.2
2020,7,16,08:00,UTC,0,1013.1,43,0,-1,22.4,9.2,50000,345,8.8,6
2020,7,16,09:00,UTC,0,1012.9,43,0,-1,23.4,10,49460,348,9.1,5.7
2020,7,16,10:00,UTC,4,1012.8,41,0,-1,22.7,8.9,50000,329,8,5.8
2020,7,16,11:00,UTC,6,1012.9,40,0,-1,23,8.9,50000,358,6.6,4.6
2020,7,16,12:00,UTC,8,1012.8,41,0,-1,23.6,9.4,50000,5,6,3.9
2020,7,16,13:00,UTC,8,1012.8,43,0,-1,23,9.8,50000,357,5.9,4.2
2020,7,16,14:00,UTC,7,1012.8,39,0,-1,24.1,9.3,50000,359,6.4,4.4
2020,7,16,15:00,UTC,3,1012.8,40,0,-1,23.9,9.5,50000,354,5.6,3.7
2020,7,16,16:00,UTC,6,1012.7,42,0,-1,22.7,9.3,50000,10,4.8,3.4
2020,7,16,17:00,UTC,5,1012.8,43,0,-1,23.1,9.8,50000,22,4.4,3.3
2020,7,16,18:00,UTC,0,1013,47,0,-1,22.6,10.6,50000,358,2.9,2.3
2020,7,16,19:00,UTC,0,1013.2,52,0,-1,21,10.8,50000,314,2.7,2
2020,7,16,20:00,UTC,0,1013.4,58,0,-1,19.5,11.1,50000,337,3.6,3.2
2020,7,16,21:00,UTC,0,1013.7,65,0,-1,18,11.3,50000,331,4,3.4
2020,7,16,22:00,UTC,0,1013.9,67,0,-1,17,11,50000,337,3.4,2.9
2020,7,16,23:00,UTC,0,1014.2,82,0,-1,14.4,11.5,50000,332,2.7,1.8
2020,7,17,00:00,UTC,0,1014.4,84,0,-1,13.9,11.2,50000,286,1.9,1.1
2020,7,17,01:00,UTC,0,1014.5,82,0,-1,14.1,11.1,50000,316,2.1,1.2
2020,7,17,02:00,UTC,0,1014.8,86,0,-1,13.3,10.9,50000,305,3.1,2
2020,7,17,03:00,UTC,2,1014.9,78,0,-1,15.1,11.2,50000,321,4,2.6
2020,7,17,04:00,UTC,0,1015,74,0,-1,16.4,11.7,48670,329,3.7,2.8
2020,7,17,05:00,UTC,0,1015.2,68,0,-1,18.6,12.4,50000,327,1.5,0.9
2020,7,17,06:00,UTC,0,1015.4,63,0,-1,20.6,13.2,38700,291,2.6,1.6
2020,7,17,07:00,UTC,0,1015.6,55,0,-1,22.3,12.8,50000,301,3.6,2
2020,7,17,08:00,UTC,0,1015.8,45,0,-1,23.7,11.2,50000,333,4.3,2
2020,7,17,09:00,UTC,4,1015.8,45,0,-1,24.1,11.5,50000,321,2.9,1.4
2020,7,17,10:00,UTC,2,1015.8,44,0,-1,24.7,11.8,50000,287,5.1,2.8
2020,7,17,11:00,UTC,5,1015.9,42,0,-1,25,11.4,50000,295,5.9,4.2
2020,7,17,12:00,UTC,6,1015.9,39,0,-1,25.8,10.9,50000,306,5,3.3
2020,7,17,13:00,UTC,7,1015.7,40,0,-1,26.4,11.5,49360,261,6.6,4
2020,7,17,14:00,UTC,1,1015.7,38,0,-1,26.4,10.9,50000,275,4.7,3.2
2020,7,17,15:00,UTC,7,1016.2,51,0,-1,23.6,13,50000,339,11.1,6.6
2020,7,17,16:00,UTC,7,1016.1,51,0,-1,23.2,12.7,50000,2,2.2,1.6
2020,7,17,17:00,UTC,0,1016.4,49,0,-1,24.8,13.3,50000,312,2.8,1.9
2020,7,17,18:00,UTC,0,1016.5,53,0,-1,23.9,13.6,50000,278,2.2,1.8
2020,7,17,19:00,UTC,0,1016.9,65,0,-1,21.2,14.3,50000,243,3.4,2.9
2020,7,17,20:00,UTC,0,1017.2,69,0,-1,19.7,13.8,50000,254,4.6,3.4
2020,7,17,21:00,UTC,0,1017.6,72,0,-1,18.8,13.7,50000,266,3,2.7
2020,7,17,22:00,UTC,0,1018,75,0,-1,17.8,13.3,50000,277,2.6,2
2020,7,17,23:00,UTC,0,1018.2,79,0,-1,16.5,12.8,50000,274,2.6,2
2020,7,18,00:00,UTC,0,1018.5,83,0,-1,15.8,12.8,50000,277,1.8,1.4
2020,7,18,01:00,UTC,0,1019,87,0,-1,14.5,12.3,50000,252,2.6,2.4
2020,7,18,02:00,UTC,0,1019.1,86,0,-1,14.6,12.3,50000,245,1.8,1.5
2020,7,18,03:00,UTC,0,1019.2,83,0,-1,15.2,12.3,50000,238,3,2.7
2020,7,18,04:00,UTC,0,1019.1,76,0,-1,17.2,12.9,50000,232,2.8,1.9
2020,7,18,05:00,UTC,0,1019.5,68,0,-1,19,13,50000,232,4.2,3.1
2020,7,18,06:00,UTC,0,1019.5,58,0,-1,20.8,12.3,50000,245,6.2,4.1
2020,7,18,07:00,UTC,0,1019.4,52,0,-1,22.6,12.2,50000,253,7.6,4.3
2020,7,18,08:00,UTC,0,1019.6,49,0,-1,23.4,12,50000,243,7.2,4.6
2020,7,18,09:00,UTC,0,1019.6,47,0,-1,24.1,12,46700,243,8,5.6
2020,7,18,10:00,UTC,0,1019.5,48,0,-1,24.4,12.5,50000,218,7.4,5.3
2020,7,18,11:00,UTC,0,1019.5,45,0,-1,25.1,12.2,47540,217,8.9,6.4
2020,7,18,12:00,UTC,0,1019.4,45,0,-1,25.4,12.5,45940,215,9.6,6.7
2020,7,18,13:00,UTC,0,1019.2,48,0,-1,25.8,14.1,50000,225,8,5.8
2020,7,18,14:00,UTC,0,1019,50,0,-1,25.2,13.9,50000,227,8.6,6.2
2020,7,18,15:00,UTC,0,1018.8,48,0,-1,25.2,13.4,49890,234,8.5,5.6
2020,7,18,16:00,UTC,0,1018.7,51,0,-1,24.7,14,50000,221,6.5,4.7
2020,7,18,17:00,UTC,0,1018.5,55,0,-1,24.1,14.6,50000,230,6.5,4.7
2020,7,18,18:00,UTC,0,1018.6,61,0,-1,22.7,14.7,50000,234,6.4,4
2020,7,18,19:00,UTC,0,1019.1,72,0,-1,20.6,15.3,50000,227,4.3,3.4
2020,7,18,20:00,UTC,0,1019.5,79,0,-1,19,15.3,50000,226,4.2,3.7
2020,7,18,21:00,UTC,0,1019.9,86,0,-1,17.6,15.3,50000,226,3.7,3.1
2020,7,18,22:00,UTC,0,1020.1,92,0,-1,16.9,15.6,50000,247,3.1,2.8
2020,7,18,23:00,UTC,0,1020.3,89,0,-1,16.4,14.6,50000,249,4,3.3
2020,7,19,00:00,UTC,0,1020.4,91,0,-1,15.5,14,50000,246,3.2,3
2020,7,19,01:00,UTC,0,1020.3,91,0,-1,15,13.5,50000,264,2.7,2
2020,7,19,02:00,UTC,0,1020.3,92,0,-1,14.6,13.2,50000,264,1,0.7
2020,7,19,03:00,UTC,0,1020.3,88,0,-1,15.7,13.7,50000,204,1.2,0.9
2020,7,19,04:00,UTC,0,1020.2,81,0,-1,17.5,14.1,50000,243,2.1,1.5
2020,7,19,05:00,UTC,0,1020.1,75,0,-1,18.7,14.1,50000,220,2.7,1.8
2020,7,19,06:00,UTC,0,1019.9,74,0,-1,20.3,15.4,50000,213,2.5,1.3
2020,7,19,07:00,UTC,0,1019.6,64,0,-1,21.9,14.7,48250,224,3.7,2.3
2020,7,19,08:00,UTC,0,1019.4,57,0,-1,23.2,14,50000,229,4.6,2.8
2020,7,19,09:00,UTC,0,1019,52,0,-1,23.8,13.4,50000,240,5,3.4
2020,7,19,10:00,UTC,0,1019.1,51,0,-1,24.2,13.6,48990,238,6.4,4.1
2020,7,19,11:00,UTC,1,1018.9,55,0,-1,24.3,14.6,46740,197,7.2,4.9
2020,7,19,12:00,UTC,0,1018.6,49,0,-1,25,13.5,48210,196,6.1,4.3
2020,7,19,13:00,UTC,2,1018.3,49,0,-1,25.2,13.6,49300,176,6.6,4.8
2020,7,19,14:00,UTC,2,1017.8,47,0,-1,25,13,50000,192,5.8,4.3
2020,7,19,15:00,UTC,0,1017.3,46,0,-1,24.7,12.4,50000,187,6.1,4.2
2020,7,19,16:00,UTC,0,1016.9,50,0,-1,24.4,13.3,47420,191,4.8,3.4
2020,7,19,17:00,UTC,0,1016.5,57,0,-1,23.4,14.4,50000,196,5,2.9
2020,7,19,18:00,UTC,3,1016.4,62,0,-1,22.7,14.9,50000,213,4,3.1
2020,7,19,19:00,UTC,7,1016.5,64,0,-1,21.5,14.4,50000,223,4.4,3.5
2020,7,19,20:00,UTC,7,1016.6,69,0,-1,20.3,14.5,50000,237,3.4,2.1
2020,7,19,21:00,UTC,7,1016.7,75,0,-1,19.2,14.8,50000,244,3.5,3.1
2020,7,19,22:00,UTC,7,1016.7,80,0,-1,18.6,15.1,50000,237,3.2,3
2020,7,19,23:00,UTC,4,1016.4,83,0,-1,17.9,15,50000,253,2.4,2
2020,7,20,00:00,UTC,7,1016.3,85,0,-1,17.7,15.1,50000,263,1.6,1.3
2020,7,20,01:00,UTC,7,1016,87,0,-1,17.3,15.1,50000,251,2.8,2
2020,7,20,02:00,UTC,7,1015.4,87,0,-1,17.3,15.2,50000,278,3.5,2.9
2020,7,20,03:00,UTC,0,1015.5,78,0,-1,18.6,14.7,50000,110,3,1.6
2020,7,20,04:00,UTC,4,1015.1,75,0,-1,19,14.4,50000,12,2.7,2.1
2020,7,20,05:00,UTC,7,1014.9,69,0,-1,20.1,14.2,50000,146,2.4,1.5
2020,7,20,06:00,UTC,8,1014.6,75,0,-1,19.8,15.1,50000,218,2.1,1.2
2020,7,20,07:00,UTC,7,1014.5,73,0,-1,20,15,50000,219,1.6,1.2
2020,7,20,08:00,UTC,7,1014.4,69,0,-1,20.6,14.8,43560,216,2,1.5
2020,7,20,09:00,UTC,0,1014.3,63,0,-1,21.9,14.5,48860,236,3.1,2.3
2020,7,20,10:00,UTC,1,1014,53,0,-1,23.2,13.1,50000,264,3.7,2.2
2020,7,20,11:00,UTC,1,1013.4,51,0,-1,23.6,13,50000,257,3.8,2.7
2020,7,20,12:00,UTC,1,1012.6,49,0,-1,24.8,13.4,50000,253,4.8,2.6
2020,7,20,13:00,UTC,0,1012.2,51,0,-1,24.7,13.9,50000,205,4.8,2.4
2020,7,20,14:00,UTC,0,1011.8,48,0,-1,25.1,13.1,50000,255,3.2,1.9
2020,7,20,15:00,UTC,0,1011.6,51,0,-1,25.8,14.9,47400,233,4.1,2.2
2020,7,20,16:00,UTC,2,1011.4,56,0,-1,23.7,14.4,50000,214,4.1,3.2
2020,7,20,17:00,UTC,1,1011.3,59,0,-1,22.6,14.3,50000,196,5,3.7
2020,7,20,18:00,UTC,5,1011,63,0,-1,20.8,13.7,50000,205,5.3,4.1
2020,7,20,19:00,UTC,0,1010.6,67,0,-1,20.5,14.1,50000,168,3.2,2.5
2020,7,20,20:00,UTC,5,1010.5,76,0,-1,19.5,15.1,50000,188,3.6,2.7
2020,7,20,21:00,UTC,4,1010.4,80,0,-1,18.4,15,50000,199,3.1,2.4
2020,7,20,22:00,UTC,0,1010,82,0,-1,17.9,14.8,50000,182,1.4,0.7
2020,7,20,23:00,UTC,2,1010,87,0,-1,16.6,14.4,50000,134,2.2,1.8
2020,7,21,00:00,UTC,1,1009.6,90,0,-1,16.4,14.7,50000,129,1.7,1.2
2020,7,21,01:00,UTC,1,1009.3,90,0,-1,16.1,14.3,50000,132,2.2,1.7
2020,7,21,02:00,UTC,4,1008.8,91,0,-1,15.4,14,50000,110,2.1,1.7
2020,7,21,03:00,UTC,0,1008.2,93,0,-1,15.4,14.3,31290,90,2.5,2.1
2020,7,21,04:00,UTC,0,1007.7,90,0,-1,17.3,15.6,30480,97,2.3,1.4
2020,7,21,05:00,UTC,0,1007.5,84,0,-1,19,16.3,50000,218,4.4,2.7
2020,7,21,06:00,UTC,0,1007.3,74,0,-1,20.5,15.8,50000,168,3.9,2.5
2020,7,21,07:00,UTC,6,1007.1,75,0,-1,20.9,16.3,50000,202,5.1,3.7
2020,7,21,08:00,UTC,7,1007.1,76,0,-1,21.2,16.8,47280,194,6.9,4.2
2020,7,21,09:00,UTC,5,1007.1,68,0,-1,20.1,14.1,50000,279,5.2,3.7
2020,7,21,10:00,UTC,6,1006.9,60,0,-1,22.1,14.1,50000,250,7.5,5.3
2020,7,21,11:00,UTC,4,1006.7,52,0,-1,23,12.5,50000,254,7.3,4.7
2020,7,21,12:00,UTC,2,1006.4,56,0,-1,22.3,13.2,50000,249,7.6,5.4
2020,7,21,13:00,UTC,2,1006.4,53,0,-1,23.3,13.1,46750,225,8.8,6.5
2020,7,21,14:00,UTC,1,1006.3,52,0,-1,23.1,12.7,48810,230,8.3,6.3
2020,7,21,15:00,UTC,0,1006.1,43,0,-1,22.6,9.5,50000,250,8.5,6.6
2020,7,21,16:00,UTC,1,1006.2,46,0,-1,21.4,9.4,50000,244,9.4,6.7
2020,7,21,17:00,UTC,0,1006.1,53,0,-1,20.5,10.6,50000,243,9.3,6.3
2020,7,21,18:00,UTC,0,1006,58,0,-1,19.1,10.7,50000,247,8.1,5.8
2020,7,21,19:00,UTC,0,1006.2,66,0,-1,17.3,10.9,50000,252,6.5,4.8
2020,7,21,20:00,UTC,0,1006.2,75,0,-1,15.4,10.9,50000,246,5.6,4.2
2020,7,21,21:00,UTC,0,1006.1,82,0,-1,14.3,11.2,50000,246,4.2,3.2
2020,7,21,22:00,UTC,0,1006,86,0,-1,13.8,11.6,50000,262,5,3.9
2020,7,21,23:00,UTC,0,1006,87,0,-1,13.7,11.6,50000,296,5.6,4.5
2020,7,22,00:00,UTC,0,1005.8,89,0,-1,12.9,11.2,50000,291,4.1,3.3
2020,7,22,01:00,UTC,0,1005.7,92,0,-1,12.3,11,50000,282,5.2,4.2
2020,7,22,02:00,UTC,0,1005.3,94,0,-1,11.8,10.9,50000,289,4.5,3.8
2020,7,22,03:00,UTC,0,1004.9,93,0,-1,12.1,10.9,50000,288,5.8,4.1
2020,7,22,04:00,UTC,7,1004.7,90,0,-1,12.8,11.3,50000,293,6.8,5
2020,7,22,05:00,UTC,8,1004.4,86,0,-1,13.6,11.3,50000,291,7,5.3
2020,7,22,06:00,UTC,8,1004,81,0,-1,14.5,11.2,50000,300,7.2,5.3
2020,7,22,07:00,UTC,7,1003.6,70,0,-1,16.1,10.7,50000,304,8.4,5.8
2020,7,22,08:00,UTC,7,1003.5,69,0,-1,16.7,10.9,50000,293,8.3,6.3
2020,7,22,09:00,UTC,7,1003.6,75,0,-1,16.2,11.8,41710,296,11.1,8.3
2020,7,22,10:00,UTC,5,1003.3,55,0,-1,18.6,9.4,48680,295,11.9,9.5
2020,7,22,11:00,UTC,3,1003.1,47,0,-1,19.9,8.2,50000,298,12.7,10.3
2020,7,22,12:00,UTC,7,1003.5,52,0,-1,18.7,8.5,49930,316,12.8,7.9
2020,7,22,13:00,UTC,7,1003.5,43,0,-1,19.4,6.5,50000,295,14.6,11.1
2020,7,22,14:00,UTC,8,1004,46,0,-1,18.5,6.6,50000,299,13.8,10.1
2020,7,22,15:00,UTC,8,1004,46,0,-1,17.9,6,50000,313,12.9,9
2020,7,22,16:00,UTC,5,1004.2,48,0,-1,17.1,6.1,50000,303,15.8,11.5
2020,7,22,17:00,UTC,5,1004.4,57,0,-1,15.6,7.1,50000,277,13,9.3
2020,7,22,18:00,UTC,7,1004.5,61,0,-1,15.1,7.7,50000,283,11.1,7.4
2020,7,22,19:00,UTC,3,1004.6,64,0,-1,13.8,7.2,50000,273,11.1,8
2020,7,22,20:00,UTC,1,1004.3,70,0,-1,12.9,7.6,50000,265,8.9,6.2
2020,7,22,21:00,UTC,5,1004.2,70,0,-1,12.8,7.5,50000,269,8.7,6.2
2020,7,22,22:00,UTC,0,1004,73,0,-1,12.2,7.6,50000,261,8.2,5.7
2020,7,22,23:00,UTC,3,1003.6,74,0,-1,12.1,7.5,50000,256,6.8,4.7
2020,7,23,00:00,UTC,8,1003.3,75,0,-1,12.6,8.1,50000,271,9.9,7
2020,7,23,01:00,UTC,1,1003.1,76,0,-1,11.9,7.8,50000,262,7.1,5.3
2020,7,23,02:00,UTC,7,1002.8,74,0,-1,12.1,7.5,50000,260,7.7,5.6
2020,7,23,03:00,UTC,7,1002.5,75,0,-1,12.3,8,50000,261,7.6,5.2
2020,7,23,04:00,UTC,7,1002.3,75,0,-1,12.7,8.4,50000,257,7.7,5.6
2020,7,23,05:00,UTC,7,1002,73,0,-1,13.5,8.8,50000,265,9.9,6.9
2020,7,23,06:00,UTC,6,1001.9,70,0,-1,14.7,9.2,50000,274,12.4,7.8
2020,7,23,07:00,UTC,6,1001.9,62,0,-1,15.1,7.9,50000,272,11.4,7.8
2020,7,23,08:00,UTC,7,1001.9,54,0,-1,16.5,7.3,49770,283,9.5,6.1
2020,7,23,09:00,UTC,8,1002.4,63,0,-1,14.9,7.9,50000,276,10.1,6.6
2020,7,23,10:00,UTC,7,1002.5,59,0,-1,15.4,7.5,50000,269,9.8,7.4
2020,7,23,11:00,UTC,8,1002.8,56,0,-1,15.6,6.9,48250,280,10.7,8.4
2020,7,23,12:00,UTC,8,1003,60,0,-1,14.8,7.2,50000,258,8.7,6.2
2020,7,23,13:00,UTC,8,1003,54,0,-1,16.1,6.9,50000,273,10.3,7.3
2020,7,23,14:00,UTC,7,1003.1,56,0,-1,15.6,7,50000,251,8.5,5.4
2020,7,23,15:00,UTC,8,1003.6,60,0,-1,15,7.3,50000,271,7.5,5.4
2020,7,23,16:00,UTC,7,1003.8,61,0,-1,14.6,7,50000,268,8.5,6.4
2020,7,23,17:00,UTC,8,1004,65,0,-1,13.7,7.3,50000,249,8.5,5.1
2020,7,23,18:00,UTC,8,1003.9,67,0,-1,13.6,7.7,50000,236,6.9,5
2020,7,23,19:00,UTC,7,1003.9,74,0,-1,12.6,8.1,50000,235,5.6,4.3
2020,7,23,20:00,UTC,4,1003.8,80,0,-1,11.8,8.4,50000,217,5.2,4
2020,7,23,21:00,UTC,1,1003.8,85,0,-1,10.8,8.4,50000,226,5.1,3.9
2020,7,23,22:00,UTC,8,1003.8,81,0,-1,11.5,8.4,50000,214,4.6,3.5
2020,7,23,23:00,UTC,7,1003.7,83,0,-1,11.7,9,50000,212,4.1,3.2
2020,7,24,00:00,UTC,7,1003.4,80,0,-1,12.4,9.1,50000,188,5.1,3.6
2020,7,24,01:00,UTC,8,1003,79,0,-1,12.9,9.4,50000,182,5.3,3.8
2020,7,24,02:00,UTC,8,1002.7,77,0,-1,13.2,9.2,50000,189,5.5,3.6
2020,7,24,03:00,UTC,7,1002.6,75,0,-1,13.3,8.9,50000,190,7.3,4.8
2020,7,24,04:00,UTC,8,1002.4,86,3.9,-1,11.4,9.2,11680,174,4.5,2.5
2020,7,24,05:00,UTC,7,1002.1,82,0,-1,12.2,9.2,50000,157,6.6,4.2
2020,7,24,06:00,UTC,6,1002.2,91,0,-1,14.1,12.5,50000,207,9.4,7.1
2020,7,24,07:00,UTC,7,1002.1,55,0,-1,14.2,5.3,50000,214,8,5.5
2020,7,24,08:00,UTC,5,1002.4,70,0,-1,14.5,9.1,50000,143,6,4.5
2020,7,24,09:00,UTC,6,1002.4,57,0,-1,15.5,7,50000,224,11,7.6
2020,7,24,10:00,UTC,7,1003,65,0,-1,14.9,8.3,50000,220,9.4,5.8
2020,7,24,11:00,UTC,4,1003,68,0,-1,15.1,9.2,50000,195,9.2,6.4
2020,7,24,12:00,UTC,6,1003.2,66,0,-1,15.7,9.4,50000,212,12.8,9.2
2020,7,24,13:00,UTC,5,1003.5,65,0,-1,16,9.4,50000,216,11.5,7.6
2020,7,24,14:00,UTC,7,1003.8,76,0,-1,13.3,9.1,25850,253,12.8,7.4
2020,7,24,15:00,UTC,7,1003.7,74,0,-1,13.7,9.1,50000,297,4.6,3.2
2020,7,24,16:00,UTC,3,1003.7,74,0,-1,14.7,10,50000,93,4.3,3.3
2020,7,24,17:00,UTC,0,1003.7,51,0,-1,16.7,6.6,50000,202,10,7.8
2020,7,24,18:00,UTC,3,1003.8,78,0,-1,15.2,11.4,50000,187,8.6,6
2020,7,24,19:00,UTC,2,1004,86,0,-1,13.8,11.5,50000,184,6.2,4.5
2020,7,24,20:00,UTC,7,1003.9,93,0,-1,13.8,12.6,41640,163,3.8,2.7
2020,7,24,21:00,UTC,8,1004.1,95,0.3,-1,13.2,12.4,42850,186,4.6,3.3
2020,7,24,22:00,UTC,8,1003.7,96,0.3,-1,13.4,12.8,19740,144,5.4,3.9
2020,7,24,23:00,UTC,7,1003.5,96,0,-1,13.4,12.7,50000,154,4.6,3.3
2020,7,25,00:00,UTC,8,1003.4,97,0.4,-1,13.3,12.9,21610,135,4.3,2.9
2020,7,25,01:00,UTC,7,1003.2,98,0,-1,13,12.6,26190,116,3,2.3
2020,7,25,02:00,UTC,8,1003,98,0,-1,12.9,12.7,13310,97,2.4,2
2020,7,25,03:00,UTC,8,1002.9,98,0,-1,13.1,12.9,15730,75,3.2,2.4
2020,7,25,04:00,UTC,8,1002.8,98,0,-1,13.7,13.3,26400,112,4.2,2.9
2020,7,25,05:00,UTC,8,1002.8,95,0,-1,14.1,13.3,47070,132,4,2.6
2020,7,25,06:00,UTC,7,1002.9,93,0,-1,14.5,13.3,33410,130,3,2.3
2020,7,25,07:00,UTC,8,1003.4,94,0,-1,14.6,13.6,50000,91,2.3,1.7
2020,7,25,08:00,UTC,8,1003.9,96,0.7,-1,14,13.3,5970,298,5.6,4.7
2020,7,25,09:00,UTC,7,1004.7,88,0,-1,15,13,50000,322,7.3,5.5
2020,7,25,10:00,UTC,4,1005.3,71,0,-1,16.6,11.4,50000,294,5.2,3.1
2020,7,25,11:00,UTC,5,1005.7,62,0,-1,17.9,10.6,50000,301,4.7,3.2
2020,7,25,12:00,UTC,7,1006.5,66,0,-1,17.6,11.1,50000,275,6.2,4.1
2020,7,25,13:00,UTC,3,1006.9,59,0,-1,18.4,10.2,50000,216,7.9,5.1
2020,7,25,14:00,UTC,2,1007.2,54,0,-1,19.3,9.9,50000,233,6.7,4.7
2020,7,25,15:00,UTC,2,1007.6,56,0,-1,19.4,10.4,50000,259,6.4,3.8
2020,7,25,16:00,UTC,3,1008.3,66,0,-1,17.4,11.1,50000,318,3.3,2.5
2020,7,25,17:00,UTC,3,1008.9,68,0,-1,17.1,11.2,50000,264,2.1,1.3
2020,7,25,18:00,UTC,3,1009.5,69,0,-1,16.4,10.6,50000,218,5.3,4
2020,7,25,19:00,UTC,7,1010.5,82,0,-1,15.1,12,50000,309,3.6,2.3
2020,7,25,20:00,UTC,0,1010.9,88,0,-1,13.7,11.7,50000,247,2.3,1.5
2020,7,25,21:00,UTC,0,1011.8,92,0,-1,12.2,10.9,50000,253,1.8,1.5
2020,7,25,22:00,UTC,0,1012.7,93,0,-1,11.8,10.7,50000,237,2.6,2.1
2020,7,25,23:00,UTC,0,1012.9,94,0,-1,11.4,10.6,50000,220,1.3,1.2
2020,7,26,00:00,UTC,0,1013.6,95,0,-1,10.6,9.8,50000,244,1.9,1.6
2020,7,26,01:00,UTC,0,1014.1,94,0,-1,9.9,8.9,50000,152,1.6,1.1
2020,7,26,02:00,UTC,0,1014.3,96,0,-1,9.6,9,50000,141,1.8,1.4
2020,7,26,03:00,UTC,0,1014.5,92,0,-1,10.4,9.2,50000,122,2.4,1.9
2020,7,26,04:00,UTC,7,1014.7,90,0,-1,14.4,12.8,50000,161,4.2,2.7
2020,7,26,05:00,UTC,0,1014.8,86,0,-1,15.6,13.2,50000,182,4.6,3.2
2020,7,26,06:00,UTC,0,1015.3,74,0,-1,17.8,13.1,50000,216,3.7,2.4
2020,7,26,07:00,UTC,0,1015.6,67,0,-1,19.1,12.8,50000,184,3.8,2.4
2020,7,26,08:00,UTC,1,1016,57,0,-1,20.6,11.7,50000,213,5.3,3.2
2020,7,26,09:00,UTC,1,1016.4,51,0,-1,21.4,11,50000,229,6.1,4.3
2020,7,26,10:00,UTC,0,1016.8,44,0,-1,21.9,9,50000,222,7.5,4.3
2020,7,26,11:00,UTC,0,1017,40,0,-1,22.4,8.1,50000,222,8.1,5.3
2020,7,26,12:00,UTC,0,1017.3,36,0,-1,22.3,6.5,50000,210,9.1,5
2020,7,26,13:00,UTC,0,1017.4,36,0,-1,22.4,6.6,50000,230,6.8,4.4
2020,7,26,14:00,UTC,0,1017.5,41,0,-1,22.4,8.4,50000,196,8.5,5.8
2020,7,26,15:00,UTC,0,1017.5,42,0,-1,22.5,8.8,50000,180,6.5,4.3
2020,7,26,16:00,UTC,0,1017.5,41,0,-1,22.1,8.3,50000,155,6.7,4.7
2020,7,26,17:00,UTC,0,1017.4,40,0,-1,21.4,7.1,50000,145,6.5,4.5
2020,7,26,18:00,UTC,0,1017.5,44,0,-1,19.7,6.9,50000,136,5.6,4.3
2020,7,26,19:00,UTC,0,1018,56,0,-1,17.6,8.8,50000,119,4.5,3.3
2020,7,26,20:00,UTC,0,1018.3,64,0,-1,16.3,9.6,50000,109,4.4,3.4
2020,7,26,21:00,UTC,0,1018.5,73,0,-1,15.7,11,50000,108,4.6,3.7
2020,7,26,22:00,UTC,0,1018.6,76,0,-1,15.6,11.3,50000,113,4.8,3.7
2020,7,26,23:00,UTC,0,1018.8,78,0,-1,15.1,11.2,50000,104,4.2,3.6
2020,7,27,00:00,UTC,0,1018.9,79,0,-1,14.8,11.2,50000,106,4.3,3.7
2020,7,27,01:00,UTC,0,1018.9,80,0,-1,14.6,11.2,50000,107,4.1,3.4
2020,7,27,02:00,UTC,0,1018.8,90,0,-1,13,11.5,50000,106,3.4,2.9
2020,7,27,03:00,UTC,0,1018.7,88,0,-1,14.8,12.8,50000,103,3.5,2.9
2020,7,27,04:00,UTC,0,1018.8,81,0,-1,16.6,13.2,50000,120,4.2,3.1
2020,7,27,05:00,UTC,0,1018.7,68,0,-1,18.4,12.4,50000,121,6.2,3.8
2020,7,27,06:00,UTC,0,1018.7,61,0,-1,19.6,11.9,50000,131,6.2,4.5
2020,7,27,07:00,UTC,0,1018.7,53,0,-1,21,11.2,50000,134,6.8,4.7
2020,7,27,08:00,UTC,0,1018.7,51,0,-1,21.2,10.8,50000,129,7.8,5.8
2020,7,27,09:00,UTC,0,1018.5,51,0,-1,22.2,11.6,50000,129,8.6,6.4
2020,7,27,10:00,UTC,0,1018.4,50,0,-1,22.4,11.4,50000,139,8.6,6.3
2020,7,27,11:00,UTC,0,1018.3,44,0,-1,22.7,9.8,47980,122,8.8,6.8
2020,7,27,12:00,UTC,0,1018.1,45,0,-1,23.6,10.9,34880,130,9.5,6.1
2020,7,27,13:00,UTC,0,1017.9,44,0,-1,23.3,10.5,50000,135,9.3,7.3
2020,7,27,14:00,UTC,0,1017.7,45,0,-1,22.9,10.5,50000,135,9.1,7.3
2020,7,27,15:00,UTC,3,1017.4,47,0,-1,22.4,10.4,50000,135,8.9,7
2020,7,27,16:00,UTC,4,1017.2,52,0,-1,21.7,11.4,50000,124,8.2,6.2
2020,7,27,17:00,UTC,8,1017,57,0,-1,21.1,12.1,50000,112,5.2,4.1
2020,7,27,18:00,UTC,8,1016.9,60,0,-1,20.4,12.3,50000,102,5.7,4.4
2020,7,27,19:00,UTC,7,1016.7,62,0,-1,19.9,12.3,50000,101,5.6,4.1
2020,7,27,20:00,UTC,8,1016.6,65,0,-1,19.4,12.7,50000,104,5.6,4.1
2020,7,27,21:00,UTC,8,1016.2,68,0,-1,19.1,13,50000,117,5.1,3.7
2020,7,27,22:00,UTC,8,1016.1,68,0,-1,19.3,13.3,50000,128,4.8,3.5
2020,7,27,23:00,UTC,8,1015.9,75,0,-1,18.8,14.3,50000,135,4.8,3.3
2020,7,28,00:00,UTC,8,1015.5,88,0.4,-1,17.4,15.4,36450,69,2.9,2.5
2020,7,28,01:00,UTC,8,1015.2,87,0,-1,17.3,15.2,50000,89,3.2,2.4
2020,7,28,02:00,UTC,8,1015,94,3.5,-1,16.7,15.8,7630,105,3.4,2.7
2020,7,28,03:00,UTC,8,1014.3,97,2.3,-1,16.2,15.8,13430,54,4.2,3.4
2020,7,28,04:00,UTC,7,1014.1,96,0,-1,16.7,16.1,20310,95,2.6,2
2020,7,28,05:00,UTC,3,1013.5,95,0,-1,17,16.3,28980,93,3.5,2.7
2020,7,28,06:00,UTC,7,1013.3,93,0,-1,17.5,16.3,43000,122,3,2.1
2020,7,28,07:00,UTC,7,1013,88,0,-1,17.7,15.8,50000,121,4.8,3.1
2020,7,28,08:00,UTC,7,1013.1,89,0,-1,18.1,16.3,50000,169,3.4,2.2
2020,7,28,09:00,UTC,7,1013.3,86,0,-1,18.2,15.9,50000,168,4.7,2.8
2020,7,28,10:00,UTC,8,1012.7,84,0,-1,18.7,16,50000,135,3.5,2.6
2020,7,28,11:00,UTC,7,1012.3,84,0,-1,18.9,16.2,47930,134,4,2.6
2020,7,28,12:00,UTC,7,1011.8,80,0,-1,19.7,16,50000,126,6.3,4.4
2020,7,28,13:00,UTC,8,1011.6,95,4.4,-1,17.2,16.3,6020,122,7.4,5.7
2020,7,28,14:00,UTC,3,1011.3,93,0,-1,17.8,16.7,39180,109,4.2,3.1
2020,7,28,15:00,UTC,7,1011,86,0,-1,19,16.5,47790,148,6.7,4.8
2020,7,28,16:00,UTC,5,1010.6,87,0,-1,18.4,16.2,50000,163,4.7,3.2
2020,7,28,17:00,UTC,7,1010.2,89,0,-1,18.1,16.3,41400,156,4.6,3.4
2020,7,28,18:00,UTC,7,1009.8,92,0,-1,17.8,16.4,42210,135,4.3,3.4
2020,7,28,19:00,UTC,7,1009.6,94,0,-1,17.5,16.5,26660,124,2.8,2.3
2020,7,28,20:00,UTC,7,1009.1,98,0,-1,16.5,16.2,7620,105,4.2,3.4
2020,7,28,21:00,UTC,8,1008.8,98,0,-1,16.4,16,9210,116,3.4,2.4
2020,7,28,22:00,UTC,8,1008.2,97,0,-1,16.5,16.1,7330,111,1.7,1.1
2020,7,28,23:00,UTC,8,1008,97,0,-1,16.4,16,6560,117,4,3.1
2020,7,29,00:00,UTC,9,1007.4,99,0,-1,16,15.9,190,115,3.6,2
2020,7,29,01:00,UTC,9,1006.7,99,0,-1,16.1,16,350,95,3.1,2
2020,7,29,02:00,UTC,9,1006.5,99,0,-1,16.1,16,940,110,3.9,3.1
2020,7,29,03:00,UTC,8,1005.8,99,0,-1,16.1,16,5870,104,4.5,3
2020,7,29,04:00,UTC,7,1005.3,98,0,-1,16.2,15.9,12420,94,3.8,2.9
2020,7,29,05:00,UTC,8,1004.6,97,0,-1,16.8,16.3,12960,75,4.8,3.7
2020,7,29,06:00,UTC,8,1005.2,97,8,-1,16.5,16,3040,164,3.8,2.7
2020,7,29,07:00,UTC,8,1004.4,98,1.5,-1,16.8,16.4,9500,67,5,3.6
2020,7,29,08:00,UTC,7,1004.1,96,0,-1,17.2,16.5,22730,115,2.3,1.6
2020,7,29,09:00,UTC,8,1004.1,93,0,-1,17.5,16.4,23570,157,4.4,3.2
2020,7,29,10:00,UTC,7,1004,97,0.6,-1,16.9,16.4,21290,178,4.1,2.8
2020,7,29,11:00,UTC,7,1003.6,96,0,-1,17.1,16.5,40320,194,4.3,2.8
2020,7,29,12:00,UTC,7,1003.8,90,0,-1,18.1,16.4,36220,215,4.5,3.4
2020,7,29,13:00,UTC,6,1004.4,73,0,-1,18.3,13.4,50000,282,10.1,7.2
2020,7,29,14:00,UTC,1,1004.4,63,0,-1,20.1,12.8,50000,276,9.6,8
2020,7,29,15:00,UTC,3,1004.2,64,0,-1,19.5,12.4,50000,267,7.8,5.4
2020,7,29,16:00,UTC,2,1004.6,56,0,-1,20,11,50000,255,9.7,6.5
2020,7,29,17:00,UTC,1,1004.9,62,0,-1,18.9,11.5,50000,252,9.3,6.5
2020,7,29,18:00,UTC,0,1005,69,0,-1,17,11.2,50000,236,8.3,6.1
2020,7,29,19:00,UTC,2,1005.4,80,0,-1,15.2,11.8,50000,234,5.4,4.1
2020,7,29,20:00,UTC,0,1005.5,82,0,-1,14.2,11.1,50000,235,7,4.7
2020,7,29,21:00,UTC,0,1005.5,87,0,-1,12.9,10.9,50000,234,5,3.3
2020,7,29,22:00,UTC,0,1005.3,90,0,-1,12.5,11,48840,229,4.5,3.2
2020,7,29,23:00,UTC,0,1005.2,93,0,-1,12,10.9,50000,220,3.3,2.6
2020,7,30,00:00,UTC,0,1004.9,95,0,-1,11.7,10.9,46400,209,2.8,2.5
2020,7,30,01:00,UTC,2,1004.7,96,0,-1,12.1,11.4,39810,198,3.7,3
2020,7,30,02:00,UTC,7,1004.3,94,0,-1,12.7,11.6,50000,205,4,3.2
2020,7,30,03:00,UTC,7,1004,89,0,-1,13.3,11.6,50000,215,4,2.9
2020,7,30,04:00,UTC,1,1003.7,89,0,-1,14.4,12.5,50000,196,4.6,3.1
2020,7,30,05:00,UTC,2,1003.4,83,0,-1,15.8,12.9,50000,212,6.2,4.2
2020,7,30,06:00,UTC,3,1003.1,75,0,-1,17.1,12.5,50000,195,6.4,4.7
2020,7,30,07:00,UTC,7,1003,90,0,-1,15.1,13.5,50000,224,3.6,2.2
2020,7,30,08:00,UTC,7,1002.7,84,0.4,-1,16.5,13.8,17100,192,9,6.7
2020,7,30,09:00,UTC,7,1002.6,91,2.3,-1,15.6,14.1,9980,182,6.5,4.3
2020,7,30,10:00,UTC,,,,,,,,,,,
2020,7,30,11:00,UTC,4,1002.4,71,0,-1,,12.5,50000,185,9.6,7.4
2020,7,30,12:00,UTC,6,1002.3,72,0,-1,18.4,13.3,50000,199,10.3,7.1
2020,7,30,13:00,UTC,4,1002.2,69,0,-1,18.7,12.8,50000,194,8.9,6.6
2020,7,30,14:00,UTC,5,1002,68,0,-1,18.7,12.7,50000,197,7,5.2
2020,7,30,15:00,UTC,3,1002,69,0,-1,18.1,12.4,50000,149,5.1,3.7
2020,7,30,16:00,UTC,0,1002.1,66,0,-1,18.5,11.9,50000,216,4.6,3.1
2020,7,30,17:00,UTC,0,1002.3,65,0,-1,18.2,11.4,50000,249,2.8,1.6
2020,7,30,18:00,UTC,7,1002.7,80,0,-1,16.7,13.2,50000,286,4.6,3.2
2020,7,30,19:00,UTC,2,1003,83,0,-1,16,13.1,50000,317,2,1.1
2020,7,30,20:00,UTC,2,1003.2,92,0,-1,14.7,13.4,50000,286,2.4,1.6
2020,7,30,21:00,UTC,6,1003.5,93,0,-1,14.5,13.3,50000,287,3.3,2.7
2020,7,30,22:00,UTC,7,1003.9,95,0,-1,14.4,13.6,50000,284,2.6,2.1
2020,7,30,23:00,UTC,6,1004,94,0,-1,14.3,13.4,50000,304,2.2,1.7
2020,7,31,00:00,UTC,0,1004.1,95,0,-1,13.9,13.2,50000,333,2.8,2
2020,7,31,01:00,UTC,0,1004.3,95,0,-1,13.4,12.6,50000,332,3.5,2.8
2020,7,31,02:00,UTC,0,1004.5,96,0,-1,11.9,11.3,50000,305,2.6,1.7
2020,7,31,03:00,UTC,0,1005,93,0,-1,13.2,12,50000,335,4.5,3.3
2020,7,31,04:00,UTC,3,1005.5,90,0,-1,14,12.3,50000,356,5.2,4.2
2020,7,31,05:00,UTC,7,1006,83,0,-1,15.8,13,50000,17,8.4,6.4
2020,7,31,06:00,UTC,6,1006.6,79,0,-1,16.7,13,50000,10,8.4,6.2
2020,7,31,07:00,UTC,6,1007,74,0,-1,18.1,13.3,50000,351,7.8,5.8
2020,7,31,08:00,UTC,7,1007.6,69,0,-1,18.8,12.9,50000,359,8.7,5.6
2020,7,31,09:00,UTC,5,1008.3,63,0,-1,18.8,11.7,50000,24,10.3,7.5
2020,7,31,10:00,UTC,2,1008.6,56,0,-1,20.3,11.3,50000,16,11,7.5
2020,7,31,11:00,UTC,4,1009,54,0,-1,20.8,11.1,45850,23,9.2,6.7
2020,7,31,12:00,UTC,3,1009.4,45,0,-1,22.6,10,50000,360,9.3,6
2020,7,31,13:00,UTC,1,1009.8,44,0,-1,22.6,9.8,47920,1,8.4,4.9
2020,7,31,14:00,UTC,0,1010.1,41,0,-1,21.9,8,50000,4,10.8,7.4
2020,7,31,15:00,UTC,1,1010.6,46,0,-1,20.9,8.9,50000,5,8.7,6.2
2020,7,31,16:00,UTC,0,1011,44,0,-1,21.3,8.5,50000,359,7.9,5.5
2020,7,31,17:00,UTC,1,1011.6,53,0,-1,20.5,10.6,50000,35,6.4,4.7
2020,7,31,18:00,UTC,0,1012,56,0,-1,19,10,50000,38,6.2,4.4
2020,7,31,19:00,UTC,0,1012.6,68,0,-1,17,11.1,50000,52,2.3,1.6
2020,7,31,20:00,UTC,0,1013.1,70,0,-1,16.2,10.7,50000,8,3.2,2.8
2020,7,31,21:00,UTC,0,1013.7,73,0,-1,14.6,9.8,50000,359,4.5,3.8
2020,7,31,22:00,UTC,0,1014.2,78,0,-1,13.6,9.8,50000,360,4.5,3.7
2020,7,31,23:00,UTC,0,1014.6,78,0,-1,13.4,9.7,50000,23,5.7,4.3
2020,8,1,00:00,UTC,0,1015,83,0,-1,12.3,9.6,50000,359,4.6,4
2020,8,1,01:00,UTC,0,1015.2,87,0,-1,11.6,9.5,50000,349,4.5,3.9
2020,8,1,02:00,UTC,0,1015.5,86,0,-1,10.9,8.7,50000,359,4.8,4.3
2020,8,1,03:00,UTC,0,1015.8,82,0,-1,11.3,8.4,50000,349,5.4,4.3
2020,8,1,04:00,UTC,0,1016.1,79,0,-1,12.4,8.9,50000,354,4.5,3.5
2020,8,1,05:00,UTC,0,1016.2,73,0,-1,14,9.3,50000,2,4.9,3.7
2020,8,1,06:00,UTC,0,1016.3,65,0,-1,15.6,9,50000,7,6.8,4.4
2020,8,1,07:00,UTC,0,1016.2,57,0,-1,16.9,8.3,50000,13,6.9,5.1
2020,8,1,08:00,UTC,3,1016.5,50,0,-1,17.5,6.9,50000,37,9.2,5.1
2020,8,1,09:00,UTC,7,1016.6,48,0,-1,18.7,7.3,50000,9,6.7,4.1
2020,8,1,10:00,UTC,4,1016.6,45,0,-1,19.2,7.1,50000,27,7.4,4.5
2020,8,1,11:00,UTC,2,1016.5,44,0,-1,20.6,7.8,48150,20,7.1,4.1
2020,8,1,12:00,UTC,3,1016.2,43,0,-1,20.1,7.2,50000,351,4.8,2.7
2020,8,1,13:00,UTC,7,1015.9,45,0,-1,20.7,8.4,50000,343,5.5,3.4
2020,8,1,14:00,UTC,4,1015.5,44,0,-1,21.6,8.7,50000,13,4.5,2.4
2020,8,1,15:00,UTC,3,1015.3,46,0,-1,20.9,8.9,50000,28,2.8,1.8
2020,8,1,16:00,UTC,1,1014.8,47,0,-1,22,10.1,50000,22,2.7,1.8
2020,8,1,17:00,UTC,1,1014.6,46,0,-1,21.4,9.4,50000,311,2.5,1.4
2020,8,1,18:00,UTC,0,1014.7,68,0,-1,17.5,11.5,50000,229,4.5,3.4
2020,8,1,19:00,UTC,3,1014.4,73,0,-1,16.5,11.7,50000,225,4,3
2020,8,1,20:00,UTC,0,1014.2,80,0,-1,15.4,11.9,50000,253,3.8,3.3
2020,8,1,21:00,UTC,1,1014.1,84,0,-1,14.6,11.9,50000,252,2.4,2.2
2020,8,1,22:00,UTC,1,1013.9,87,0,-1,14.1,12,50000,265,1.5,1.2
2020,8,1,23:00,UTC,0,1013.7,88,0,-1,13.9,11.9,50000,258,3.1,2.7
2020,8,2,00:00,UTC,0,1013.4,85,0,-1,14.4,12,50000,300,4.6,3.6
2020,8,2,01:00,UTC,7,1013.3,84,0,-1,14.4,11.8,50000,298,4.3,3.5
2020,8,2,02:00,UTC,5,1013.2,89,0,-1,13.3,11.5,50000,281,4.5,3.5
2020,8,2,03:00,UTC,0,1012.8,86,0,-1,13.3,11,50000,285,4.4,3.6
2020,8,2,04:00,UTC,0,1012.7,80,0,-1,14.5,11.1,50000,281,4.1,3.3
2020,8,2,05:00,UTC,0,1012.4,80,0,-1,15.9,12.5,50000,277,3.7,2.7
2020,8,2,06:00,UTC,0,1011.9,72,0,-1,18,12.8,50000,247,3.4,2.2
2020,8,2,07:00,UTC,0,1011.5,62,0,-1,19.5,11.9,50000,254,6,3.8
2020,8,2,08:00,UTC,1,1011.3,58,0,-1,20.5,11.9,50000,254,6.8,4.2
2020,8,2,09:00,UTC,0,1011,50,0,-1,21.4,10.6,50000,228,7.3,4.6
2020,8,2,10:00,UTC,0,1010.5,54,0,-1,21.3,11.7,45610,221,7.7,5.5
2020,8,2,11:00,UTC,7,1010.6,58,0,-1,20.5,11.9,50000,240,9.4,7
2020,8,2,12:00,UTC,7,1010.9,84,2.5,-1,17.1,14.3,24520,236,6.9,4.3
2020,8,2,13:00,UTC,7,1010.9,88,1.8,-1,16.4,14.4,27160,218,5.4,3.6
2020,8,2,14:00,UTC,8,1010.5,89,0,-1,16,14.1,50000,219,8.1,5.4
2020,8,2,15:00,UTC,7,1010,81,0,-1,16.3,13.1,50000,216,6.9,4.8
2020,8,2,16:00,UTC,7,1009.4,80,0,-1,17,13.6,50000,214,8.8,5.6
2020,8,2,17:00,UTC,8,1009.1,74,0,-1,17.2,12.6,50000,220,6.7,4.5
2020,8,2,18:00,UTC,7,1008.8,78,0,-1,16.8,13,50000,223,6.4,3.7
2020,8,2,19:00,UTC,7,1008.6,78,0,-1,16.4,12.6,50000,218,6,4.5
2020,8,2,20:00,UTC,7,1008.3,86,0,-1,16.2,13.8,50000,223,5.8,4.3
2020,8,2,21:00,UTC,7,1008.3,86,0,-1,16.2,13.8,50000,233,7,4.9
2020,8,2,22:00,UTC,7,1008.1,87,0,-1,15.9,13.7,50000,231,4.9,3.8
2020,8,2,23:00,UTC,8,1008,88,0,-1,15.6,13.7,50000,229,4.3,3
2020,8,3,00:00,UTC,7,1007.7,92,0,-1,15,13.7,50000,216,3.8,3.1
2020,8,3,01:00,UTC,6,1007.4,96,0,-1,14.9,14.2,34270,203,3.6,3
2020,8,3,02:00,UTC,2,1007,95,0,-1,14.9,14,43930,191,3.9,2.9
2020,8,3,03:00,UTC,7,1006.8,95,0,-1,15.2,14.5,35370,190,5.2,3.3
2020,8,3,04:00,UTC,7,1006.4,90,0,-1,16,14.3,50000,188,3.8,2.7
2020,8,3,05:00,UTC,7,1006,88,0,-1,16.4,14.4,50000,197,4.7,3.7
2020,8,3,06:00,UTC,7,1005.9,86,0,-1,16.7,14.3,50000,202,6.6,4.8
2020,8,3,07:00,UTC,8,1005.9,96,1.4,-1,15.6,15,11200,211,4.2,2.8
2020,8,3,08:00,UTC,7,1005.6,97,1.9,-1,16,15.5,16510,185,8.1,5.2
2020,8,3,09:00,UTC,8,1005.9,96,0,-1,15.6,15,5770,196,6.1,4.2
2020,8,3,10:00,UTC,8,1005.8,97,0.3,-1,16.1,15.6,10260,195,5.1,4
2020,8,3,11:00,UTC,8,1005.9,93,0,-1,17.7,16.5,48690,219,4.7,3.3
2020,8,3,12:00,UTC,5,1005.8,78,0,-1,20.4,16.5,47410,217,4.9,3.4
2020,8,3,13:00,UTC,4,1005.6,75,0,-1,21.5,17,46500,209,7.1,5
2020,8,3,14:00,UTC,2,1005.8,69,0,-1,21.4,15.5,48560,215,9.3,6.3
2020,8,3,15:00,UTC,0,1005.9,68,0,-1,20.8,14.7,50000,223,8.7,6.4
2020,8,3,16:00,UTC,0,1006,66,0,-1,20,13.4,50000,222,8.7,6.6
2020,8,3,17:00,UTC,0,1006.6,74,0,-1,18.1,13.4,50000,217,9.1,6.5
2020,8,3,18:00,UTC,0,1007.1,79,0,-1,16.8,13.2,50000,234,8.3,5.6
2020,8,3,19:00,UTC,0,1007.7,84,0,-1,15.6,12.9,50000,227,6.2,4.6
2020,8,3,20:00,UTC,0,1008,87,0,-1,14.5,12.4,50000,233,5.4,4.2
2020,8,3,21:00,UTC,0,1008.2,91,0,-1,13.5,12.1,50000,237,4.4,3.1
2020,8,3,22:00,UTC,0,1008.6,94,0,-1,12.8,11.9,45290,221,3.1,2.5
2020,8,3,23:00,UTC,0,1008.8,95,0,-1,12.9,12,46280,219,4.1,3.5
2020,8,4,00:00,UTC,0,1008.8,95,0,-1,12.7,12,40840,200,3.3,3
2020,8,4,01:00,UTC,0,1008.8,96,0,-1,12.4,11.8,33520,191,3.2,2.6
2020,8,4,02:00,UTC,0,1008.9,96,0,-1,12.8,12.2,27170,196,3.2,2.5
2020,8,4,03:00,UTC,0,1008.8,96,0,-1,13.4,12.9,24950,190,3.4,2.7
2020,8,4,04:00,UTC,0,1009,95,0,-1,14.6,13.7,35610,182,3.7,2.6
2020,8,4,05:00,UTC,0,1008.9,94,0,-1,15.7,14.7,35850,183,3.9,2.9
2020,8,4,06:00,UTC,1,1009.1,91,0,-1,16.4,14.9,42730,194,5.4,3.8
2020,8,4,07:00,UTC,0,1009.3,78,0,-1,17.2,13.4,50000,198,5.8,4.6
2020,8,4,08:00,UTC,5,1009.5,77,0,-1,17.6,13.5,50000,196,4.5,3.5
2020,8,4,09:00,UTC,8,1009.7,76,0,-1,17.6,13.4,50000,194,6,4.4
2020,8,4,10:00,UTC,8,1009.6,76,0,-1,17.8,13.5,50000,182,4.4,2.9
2020,8,4,11:00,UTC,8,1009.6,77,0,-1,18.1,14,50000,202,4.6,2.6
2020,8,4,12:00,UTC,8,1009.6,70,0,-1,18.8,13.2,48050,185,4.6,3
2020,8,4,13:00,UTC,8,1009.6,76,0,-1,18.3,14,50000,152,5.7,4.4
2020,8,4,14:00,UTC,8,1009.7,90,0,-1,16.9,15.3,30140,165,5.8,4.2
2020,8,4,15:00,UTC,8,1009.6,92,0.3,-1,16.6,15.2,25520,149,4.6,3.5
2020,8,4,16:00,UTC,7,1009.6,92,0,-1,16.3,15.1,39490,157,3,2.4
2020,8,4,17:00,UTC,7,1009.6,92,0,-1,16.2,14.9,43490,157,3.1,2.5
2020,8,4,18:00,UTC,7,1009.8,92,0,-1,16.1,14.7,50000,170,2.3,1.6
2020,8,4,19:00,UTC,8,1009.5,94,0,-1,15.7,14.9,37700,175,1.9,1.5
2020,8,4,20:00,UTC,5,1009.5,98,0,-1,15,14.6,9880,203,2,1.9
2020,8,4,21:00,UTC,7,1009.2,98,0,-1,14.8,14.5,4430,253,1.1,0.9
2020,8,4,22:00,UTC,7,1009.4,99,0,-1,15,14.8,6060,275,3.1,2.1
2020,8,4,23:00,UTC,8,1009.3,98,0,-1,14.8,14.6,4940,281,2.9,2.3
2020,8,5,00:00,UTC,6,1009.5,99,0,-1,14.4,14.2,7570,305,3.3,2.7
2020,8,5,01:00,UTC,3,1009.7,95,0,-1,14.1,13.3,47720,306,4.5,3.5
2020,8,5,02:00,UTC,0,1010.2,96,0,-1,12.9,12.2,50000,291,5,4.1
2020,8,5,03:00,UTC,0,1010.8,96,0,-1,12.3,11.6,50000,292,4.6,3.7
2020,8,5,04:00,UTC,0,1011.6,94,0,-1,12.3,11.4,50000,294,5.4,4
2020,8,5,05:00,UTC,0,1012,90,0,-1,13.1,11.6,50000,307,3.3,2.5
2020,8,5,06:00,UTC,0,1012.5,82,0,-1,15.1,11.9,50000,300,4.5,3.6
2020,8,5,07:00,UTC,0,1012.9,72,0,-1,16.6,11.6,50000,290,5.3,3.9
2020,8,5,08:00,UTC,1,1013.4,63,0,-1,17.6,10.5,50000,295,5.8,4.1
2020,8,5,09:00,UTC,0,1013.8,59,0,-1,19.1,11,50000,310,5.7,3.5
2020,8,5,10:00,UTC,0,1014.3,53,0,-1,19.5,9.8,50000,283,5.9,4
2020,8,5,11:00,UTC,2,1014.8,51,0,-1,19.9,9.6,50000,271,6.8,4.6
2020,8,5,12:00,UTC,5,1015,45,0,-1,21.8,9.5,50000,260,8.7,5.2
2020,8,5,13:00,UTC,1,1015.1,48,0,-1,22,10.3,50000,238,7.9,5.7
2020,8,5,14:00,UTC,7,1015.5,57,0,-1,20.1,11.4,50000,233,8.7,6.6
2020,8,5,15:00,UTC,7,1015.9,51,0,-1,20.3,9.8,50000,219,7.5,5.1
2020,8,5,16:00,UTC,0,1016.1,56,0,-1,20,10.8,50000,215,6.5,4.4
2020,8,5,17:00,UTC,0,1016.4,68,0,-1,18.9,12.9,50000,222,5.2,4
2020,8,5,18:00,UTC,3,1016.9,74,0,-1,17.8,13.2,50000,226,6.5,4.1
2020,8,5,19:00,UTC,8,1017.5,72,0,-1,16.8,11.7,50000,232,6.3,4.8
2020,8,5,20:00,UTC,5,1018.1,70,0,-1,15.6,10.1,50000,228,5.8,4.3
2020,8,5,21:00,UTC,4,1018.3,78,0,-1,14.4,10.6,50000,230,4.4,3.3
2020,8,5,22:00,UTC,3,1018.8,83,0,-1,13.9,11.1,50000,219,4.2,3.6
2020,8,5,23:00,UTC,6,1019,85,0,-1,13.7,11.2,50000,204,4.3,3.4
2020,8,6,00:00,UTC,0,1019.2,86,0,-1,13.6,11.4,50000,194,3.8,3.3
2020,8,6,01:00,UTC,6,1019.4,87,0,-1,14,11.9,50000,195,4.9,3.8
2020,8,6,02:00,UTC,7,1019.6,87,0,-1,14.5,12.4,50000,182,4.6,3
2020,8,6,03:00,UTC,7,1019.7,89,0,-1,14.9,13,50000,190,5.7,4.4
2020,8,6,04:00,UTC,8,1019.8,90,0,-1,15.7,14,50000,197,5.6,3.9
2020,8,6,05:00,UTC,8,1020,81,0,-1,17.5,14.2,50000,211,6.2,4.6
2020,8,6,06:00,UTC,8,1020.4,87,0,-1,17.1,14.9,50000,201,6.7,4.9
2020,8,6,07:00,UTC,8,1020.8,88,0,-1,17.2,15.1,50000,208,6.2,4.4
2020,8,6,08:00,UTC,8,1021.1,92,0,-1,17.1,15.8,15870,208,7.4,4.9
2020,8,6,09:00,UTC,8,1021.4,83,0,-1,18.1,15.2,49120,195,8.4,5.1
2020,8,6,10:00,UTC,8,1021.6,83,0,-1,18.6,15.6,50000,195,7.7,6.1
2020,8,6,11:00,UTC,8,1021.8,82,0,-1,18.9,15.7,50000,196,7.5,5.7
2020,8,6,12:00,UTC,7,1021.8,77,0,-1,19.4,15.3,50000,215,7.9,5.2
2020,8,6,13:00,UTC,8,1022.2,78,0,-1,19,15,50000,216,8.3,5.4
2020,8,6,14:00,UTC,8,1022.4,79,0,-1,18.9,15.2,50000,216,8.1,5.9
2020,8,6,15:00,UTC,8,1022.6,87,0,-1,18.3,16.1,12660,207,2.5,1.6
2020,8,6,16:00,UTC,8,1022.7,92,0,-1,18,16.6,9770,244,4.7,3.3
2020,8,6,17:00,UTC,8,1023.1,90,0,-1,18.1,16.4,50000,235,2.6,1.9
2020,8,6,18:00,UTC,8,1023.2,91,0,-1,18.1,16.6,50000,242,1.9,1.5
2020,8,6,19:00,UTC,8,1023.6,92,0,-1,17.6,16.4,42230,228,2.2,1.9
2020,8,6,20:00,UTC,6,1024,95,0,-1,16.4,15.6,29160,234,3.2,2.7
2020,8,6,21:00,UTC,0,1024.5,97,0,-1,15.6,15.1,16010,253,2.8,2.5
2020,8,6,22:00,UTC,0,1024.8,98,0,-1,14.9,14.6,12850,264,2.7,2.2
2020,8,6,23:00,UTC,0,1025.2,98,0,-1,14.1,13.8,19100,258,0.8,0.6
2020,8,7,00:00,UTC,1,1025.5,99,0,-1,13.3,13.1,240,267,1.3,1
2020,8,7,01:00,UTC,9,1025.9,99,0,-1,13.3,13.1,180,239,1.6,1.5
2020,8,7,02:00,UTC,9,1026.1,99,0,-1,13.3,13.2,200,253,1.6,1.3
2020,8,7,03:00,UTC,9,1026.5,99,0,-1,13.6,13.5,380,256,1.2,1.1
2020,8,7,04:00,UTC,8,1026.7,99,0,-1,14.8,14.8,9610,323,1.1,0.7
2020,8,7,05:00,UTC,8,1027.3,98,0,-1,15.9,15.7,19850,272,1,0.6
2020,8,7,06:00,UTC,8,1027.3,96,0,-1,16.8,16.2,28480,217,2,1.2
2020,8,7,07:00,UTC,8,1027.4,86,0,-1,19,16.6,39340,203,2,1.4
2020,8,7,08:00,UTC,6,1027.3,76,0,-1,20.5,16.2,50000,213,3.6,2.5
2020,8,7,09:00,UTC,1,1027,67,0,-1,21.9,15.6,43430,178,5.4,2.9
2020,8,7,10:00,UTC,7,1026.9,68,0,-1,22.1,15.8,50000,188,6.3,3.4
2020,8,7,11:00,UTC,7,1026.9,69,0,-1,22.5,16.5,48610,197,5.6,3.7
2020,8,7,12:00,UTC,7,1027,71,0,-1,22.4,16.8,32990,191,6.3,4.3
2020,8,7,13:00,UTC,5,1026.7,70,0,-1,23.7,18,46540,188,5.2,3.6
2020,8,7,14:00,UTC,0,1026.4,72,0,-1,22.7,17.4,50000,194,6.1,4.2
2020,8,7,15:00,UTC,6,1026.3,74,0,-1,22.5,17.6,50000,210,4.4,3.2
2020,8,7,16:00,UTC,8,1026,72,0,-1,23.4,18,50000,206,4.6,3
2020,8,7,17:00,UTC,0,1025.7,70,0,-1,23.3,17.4,47510,236,3.6,2.6
2020,8,7,18:00,UTC,0,1025.8,77,0,-1,21.7,17.4,50000,221,4.6,3
2020,8,7,19:00,UTC,0,1025.9,85,0,-1,19.9,17.2,50000,216,3.1,2.7
2020,8,7,20:00,UTC,0,1025.9,87,0,-1,18.9,16.8,50000,197,2.8,2.5
2020,8,7,21:00,UTC,0,1026,91,0,-1,18,16.5,50000,223,2.7,2.2
2020,8,7,22:00,UTC,0,1026.1,95,0,-1,17.3,16.5,43350,243,2.6,2.3
2020,8,7,23:00,UTC,0,1026.2,97,0,-1,16.5,16,27410,279,1.9,1.3
2020,8,8,00:00,UTC,0,1026.2,98,0,-1,16.5,16.1,17490,295,1.5,1
2020,8,8,01:00,UTC,0,1026.2,98,0,-1,16.1,15.8,13400,309,1.9,1.3
2020,8,8,02:00,UTC,0,1026.2,97,0,-1,15.5,15,29530,310,2.2,1.3
2020,8,8,03:00,UTC,0,1026.1,95,0,-1,15.1,14.3,50000,329,0.9,0.7
2020,8,8,04:00,UTC,0,1026.2,96,0,-1,16.3,15.6,33160,278,2.1,1.5
2020,8,8,05:00,UTC,0,1026,87,0,-1,18.9,16.7,50000,244,1.2,0.6
2020,8,8,06:00,UTC,0,1025.9,62,0,-1,21.2,13.7,50000,272,3.2,1.7
2020,8,8,07:00,UTC,0,1025.5,53,0,-1,22.9,12.7,50000,273,2.8,1.8
2020,8,8,08:00,UTC,0,1025.2,44,0,-1,24.6,11.3,47220,253,4.1,2.7
2020,8,8,09:00,UTC,0,1024.8,44,0,-1,25.7,12.5,50000,265,4.3,2.5
2020,8,8,10:00,UTC,0,1024.5,46,0,-1,26.4,13.9,47540,250,6.1,3.7
2020,8,8,11:00,UTC,0,1024.1,45,0,-1,26.6,13.8,49520,235,7.5,3.9
2020,8,8,12:00,UTC,0,1023.6,45,0,-1,27.6,14.6,46830,276,6.8,3.7
2020,8,8,13:00,UTC,0,1023.1,46,0,-1,27.3,14.7,39800,235,6,4
2020,8,8,14:00,UTC,0,1022.6,45,0,-1,27.5,14.6,50000,232,8.3,5.6
2020,8,8,15:00,UTC,0,1022.2,44,0,-1,27.2,13.9,50000,231,5.7,4.3
2020,8,8,16:00,UTC,0,1021.8,40,0,-1,26.7,12,49420,263,6.6,5
2020,8,8,17:00,UTC,0,1021.6,45,0,-1,25.6,12.9,50000,252,6.2,4.4
2020,8,8,18:00,UTC,0,1021.4,57,0,-1,23.2,14.1,46990,249,3.6,3.1
2020,8,8,19:00,UTC,0,1021.5,64,0,-1,21,14,50000,252,4.4,3.8
2020,8,8,20:00,UTC,0,1021.3,73,0,-1,19.4,14.4,50000,278,2.3,1.7
2020,8,8,21:00,UTC,0,1021.2,77,0,-1,18.1,14.1,50000,265,2.7,2.4
2020,8,8,22:00,UTC,0,1021.3,77,0,-1,17.8,13.7,50000,271,1.7,1.3
2020,8,8,23:00,UTC,0,1021.2,83,0,-1,16.6,13.7,50000,275,1.9,1.6
2020,8,9,00:00,UTC,0,1021.2,86,0,-1,15.7,13.4,50000,240,1.4,1.2
2020,8,9,01:00,UTC,0,1021,89,0,-1,14.9,13.1,50000,242,1.5,1.4
2020,8,9,02:00,UTC,0,1021,90,0,-1,14.7,13,50000,232,1.6,1.5
2020,8,9,03:00,UTC,0,1020.7,86,0,-1,14.8,12.5,50000,226,2.4,2.2
2020,8,9,04:00,UTC,0,1020.6,78,0,-1,16.4,12.7,50000,232,2.7,2.2
2020,8,9,05:00,UTC,0,1020.3,67,0,-1,19.2,12.9,50000,230,5.1,3.6
2020,8,9,06:00,UTC,0,1020,60,0,-1,21.5,13.4,50000,243,5.5,4.2
2020,8,9,07:00,UTC,0,1019.8,53,0,-1,23.3,13.1,50000,257,6.8,5
2020,8,9,08:00,UTC,0,1019.6,50,0,-1,24.8,13.5,45640,256,8.3,6.1
2020,8,9,09:00,UTC,3,1019.5,50,0,-1,25.8,14.8,48900,259,8.6,6.3
2020,8,9,10:00,UTC,2,1019.3,49,0,-1,26.7,15.2,48390,251,8.3,5.7
2020,8,9,11:00,UTC,0,1019,46,0,-1,27.3,14.6,48800,239,7,4.8
2020,8,9,12:00,UTC,0,1018.7,45,0,-1,27.3,14.2,45870,256,6.6,4.2
2020,8,9,13:00,UTC,0,1018.2,49,0,-1,27.6,15.9,50000,285,8.3,5.3
2020,8,9,14:00,UTC,1,1017.6,48,0,-1,27.9,15.9,40850,300,5.1,3.3
2020,8,9,15:00,UTC,6,1017.8,74,24.2,-1,20.7,16,3190,309,15.8,6.7
2020,8,9,16:00,UTC,1,1017.6,67,0,-1,25.4,18.9,50000,295,3.9,2.6
2020,8,9,17:00,UTC,1,1017.4,68,0,-1,25,18.6,50000,281,3.2,2.5
2020,8,9,18:00,UTC,2,1017.5,74,0,-1,24.1,19,50000,349,2.3,1.7
2020,8,9,19:00,UTC,0,1017.9,78,0,-1,22.7,18.7,24300,344,2.8,2.4
2020,8,9,20:00,UTC,3,1018.3,81,0,-1,21.6,18.1,50000,315,4.4,3.2
2020,8,9,21:00,UTC,0,1018.7,82,0,-1,19.9,16.6,50000,302,4.9,3.8
2020,8,9,22:00,UTC,4,1018.9,74,0,-1,19.3,14.5,50000,317,6.4,4.9
2020,8,9,23:00,UTC,1,1019.2,76,0,-1,17.8,13.4,50000,353,5.5,4.1
2020,8,10,00:00,UTC,0,1019.4,78,0,-1,16.7,12.8,50000,342,5,3.5
2020,8,10,01:00,UTC,2,1019.7,77,0,-1,15.9,11.9,50000,341,5.8,4.3
2020,8,10,02:00,UTC,0,1020,76,0,-1,14.9,10.7,50000,348,6.5,5
2020,8,10,03:00,UTC,0,1020.4,77,0,-1,14.1,10.1,50000,338,5.6,4.4
2020,8,10,04:00,UTC,0,1020.7,73,0,-1,14.6,9.8,50000,337,5.8,4.6
2020,8,10,05:00,UTC,0,1020.7,68,0,-1,15.7,9.8,50000,347,4.6,3.5
2020,8,10,06:00,UTC,0,1020.9,64,0,-1,17.3,10.4,50000,348,6.4,4.9
2020,8,10,07:00,UTC,0,1021.1,61,0,-1,18.6,10.8,50000,11,7.9,5.1
2020,8,10,08:00,UTC,0,1021.1,53,0,-1,20.2,10.3,50000,21,7.4,5.4
2020,8,10,09:00,UTC,2,1021.3,45,0,-1,20.9,8.5,43980,7,10.5,6.1
2020,8,10,10:00,UTC,3,1021.2,40,0,-1,21.5,7.4,50000,357,10.7,6.5
2020,8,10,11:00,UTC,4,1021.2,43,0,-1,21.9,8.7,50000,360,9.3,6.3
2020,8,10,12:00,UTC,2,1021.1,39,0,-1,22.2,7.6,50000,360,8.6,5.6
2020,8,10,13:00,UTC,4,1021,40,0,-1,22,7.9,48640,356,9.8,6.2
2020,8,10,14:00,UTC,4,1021,38,0,-1,22.5,7.5,50000,358,9.9,7.1
2020,8,10,15:00,UTC,4,1021.1,43,0,-1,21.7,8.5,50000,355,10,7.1
2020,8,10,16:00,UTC,1,1020.9,42,0,-1,21.6,8.2,50000,351,6.2,4.4
2020,8,10,17:00,UTC,1,1021.2,46,0,-1,20.4,8.4,50000,360,5.7,4.3
2020,8,10,18:00,UTC,0,1021.5,52,0,-1,19.3,9.2,50000,360,2.8,2.3
2020,8,10,19:00,UTC,0,1021.8,59,0,-1,17.2,9.1,50000,19,5.1,3.3
2020,8,10,20:00,UTC,0,1022.4,64,0,-1,15.9,9.1,50000,7,3.6,3
2020,8,10,21:00,UTC,0,1023,68,0,-1,15,9.1,50000,11,4,3.4
2020,8,10,22:00,UTC,0,1023.5,72,0,-1,13.9,9,50000,347,3.5,2.8
2020,8,10,23:00,UTC,0,1023.7,75,0,-1,13.2,8.8,50000,351,4.4,4.1
2020,8,11,00:00,UTC,0,1023.9,76,0,-1,12.3,8.2,50000,353,4.4,3.9
2020,8,11,01:00,UTC,0,1024.1,78,0,-1,11.6,8,50000,350,4.6,3.9
2020,8,11,02:00,UTC,0,1024.4,81,0,-1,11,7.8,50000,340,5.2,4.3
2020,8,11,03:00,UTC,0,1024.5,82,0,-1,10.5,7.7,50000,352,4.8,4.1
2020,8,11,04:00,UTC,0,1024.5,79,0,-1,11.6,8.1,50000,355,5.5,4.5
2020,8,11,05:00,UTC,0,1024.5,76,0,-1,13.2,9,50000,356,6.4,4.5
2020,8,11,06:00,UTC,4,1024.7,71,0,-1,14.8,9.7,50000,348,5.7,3.9
2020,8,11,07:00,UTC,0,1024.5,59,0,-1,16.6,8.6,50000,357,7.9,5.8
2020,8,11,08:00,UTC,3,1024.5,50,0,-1,17.3,6.8,50000,5,9.9,6.7
2020,8,11,09:00,UTC,6,1024.4,46,0,-1,18.3,6.4,50000,1,9.3,6.6
2020,8,11,10:00,UTC,3,1024.5,42,0,-1,18.6,5.4,50000,11,8.2,6.3
2020,8,11,11:00,UTC,4,1024.4,41,0,-1,19,5.3,50000,15,8.9,5.8
2020,8,11,12:00,UTC,6,1024.5,41,0,-1,18.8,5.4,50000,25,9,5.7
2020,8,11,13:00,UTC,4,1024.4,41,0,-1,19.5,5.8,50000,5,10.3,7
2020,8,11,14:00,UTC,7,1024.6,44,0,-1,18.4,5.9,50000,18,7,4.4
2020,8,11,15:00,UTC,8,1024.6,46,0,-1,18.1,6.3,50000,20,7.2,4.9
2020,8,11,16:00,UTC,7,1024.7,49,0,-1,17.7,6.8,50000,8,5.7,3.8
2020,8,11,17:00,UTC,8,1024.8,48,0,-1,17,6,50000,17,7.1,4.6
2020,8,11,18:00,UTC,6,1024.7,52,0,-1,15.9,6,50000,31,4.3,3.2
2020,8,11,19:00,UTC,0,1024.8,59,0,-1,14.3,6.4,50000,14,2.9,2.2
2020,8,11,20:00,UTC,6,1024.9,62,0,-1,13.8,6.8,50000,350,4,3.2
2020,8,11,21:00,UTC,0,1025,67,0,-1,12.8,6.9,50000,348,4.1,3.5
2020,8,11,22:00,UTC,0,1025.2,75,0,-1,11.2,6.9,50000,31,4.2,3.3
2020,8,11,23:00,UTC,0,1025.4,76,0,-1,10.9,6.8,50000,349,4,3.1
2020,8,12,00:00,UTC,4,1025.1,84,0,-1,9.5,6.9,50000,101,1.2,0.9
2020,8,12,01:00,UTC,7,1025.4,85,0,-1,9.3,6.9,50000,354,3,2.3
2020,8,12,02:00,UTC,7,1025.4,81,0,-1,10.1,7,50000,335,3.8,2.7
2020,8,12,03:00,UTC,8,1025.4,78,0,-1,10.8,7.1,50000,357,2.7,2
2020,8,12,04:00,UTC,8,1025.3,77,0,-1,11.5,7.7,50000,356,3.3,2.1
2020,8,12,05:00,UTC,8,1025.2,74,0,-1,12.4,7.9,50000,355,2.1,1.4
2020,8,12,06:00,UTC,8,1025,71,0,-1,13.6,8.4,50000,11,2.6,1.6
2020,8,12,07:00,UTC,8,1024.7,60,0,-1,15.5,7.7,50000,54,2.6,1.4
2020,8,12,08:00,UTC,8,1024.5,50,0,-1,16.6,6.1,50000,141,2.2,1.3
2020,8,12,09:00,UTC,8,1024.1,47,0,-1,17.4,6,49690,42,3.4,1.4
2020,8,12,10:00,UTC,7,1023.9,47,0,-1,17.9,6.5,50000,353,3.8,1.7
2020,8,12,11:00,UTC,8,1023.6,49,0,-1,17.7,6.8,50000,60,2.9,1
2020,8,12,12:00,UTC,8,1023.3,52,0,-1,17.8,7.7,50000,280,2.3,1.1
2020,8,12,13:00,UTC,8,1022.8,48,0,-1,18.2,7,50000,348,4.4,2.7
2020,8,12,14:00,UTC,8,1022.2,48,0,-1,18.6,7.5,50000,345,2.3,1.4
2020,8,12,15:00,UTC,8,1021.9,54,0,-1,18,8.7,50000,208,6.7,4.6
2020,8,12,16:00,UTC,8,1021.5,58,0,-1,17.5,9.2,50000,177,5.3,3.7
2020,8,12,17:00,UTC,7,1021.1,63,0,-1,16.7,9.6,50000,200,5.6,3.9
2020,8,12,18:00,UTC,7,1020.8,70,0,-1,15.8,10.3,50000,205,4.1,2.7
2020,8,12,19:00,UTC,8,1020.5,75,0,-1,15.6,11.1,37830,188,4.9,3.2
2020,8,12,20:00,UTC,8,1020.4,90,2.3,-1,14.4,12.7,8520,127,3.7,2.9
2020,8,12,21:00,UTC,8,1020.2,96,2.9,-1,13.4,12.8,9040,99,5.7,3.9
2020,8,12,22:00,UTC,8,1020,97,0.4,-1,13.3,12.8,19740,115,6.3,4.6
2020,8,12,23:00,UTC,8,1019.8,97,2.6,-1,13.1,12.7,5350,96,5.3,3.8
2020,8,13,00:00,UTC,8,1019.5,98,3,-1,13.1,12.8,3850,89,2.8,2
2020,8,13,01:00,UTC,8,1019.1,98,1.1,-1,13.3,13,6220,133,4.3,3.3
2020,8,13,02:00,UTC,8,1018.7,97,1.1,-1,13.1,12.6,7610,114,5.3,3.4
2020,8,13,03:00,UTC,8,1018.4,97,0.5,-1,13,12.5,15630,109,4.1,3.2
2020,8,13,04:00,UTC,8,1018.3,97,0,-1,13.5,13,40970,95,4.1,2.8
2020,8,13,05:00,UTC,8,1018.3,94,0,-1,13.7,12.8,50000,96,4.5,3.3
2020,8,13,06:00,UTC,8,1018.2,92,0,-1,13.9,12.7,50000,90,5.7,4
2020,8,13,07:00,UTC,8,1018.1,89,0,-1,14.4,12.5,50000,93,6.1,4.2
2020,8,13,08:00,UTC,7,1018.3,78,0,-1,15.3,11.5,50000,112,8.8,5.6
2020,8,13,09:00,UTC,8,1018.2,79,0,-1,15.4,11.8,50000,104,6.3,4.7
2020,8,13,10:00,UTC,7,1018.2,78,0,-1,15.9,12.1,50000,99,6.6,4.5
2020,8,13,11:00,UTC,8,1018.2,72,0,-1,16.5,11.5,50000,104,7.8,5.6
2020,8,13,12:00,UTC,5,1018.1,68,0,-1,16.9,10.9,50000,113,6.5,4.9
2020,8,13,13:00,UTC,6,1017.9,65,0,-1,17.6,10.9,50000,127,5.5,3.5
2020,8,13,14:00,UTC,5,1018,63,0,-1,17.5,10.4,50000,133,7.2,4.7
2020,8,13,15:00,UTC,0,1018,65,0,-1,17,10.4,50000,131,8.3,5.3
2020,8,13,16:00,UTC,0,1018,66,0,-1,16.7,10.3,50000,114,6.4,5.1
2020,8,13,17:00,UTC,0,1018,63,0,-1,16.3,9.2,50000,118,4.9,3.8
2020,8,13,18:00,UTC,0,1018.2,74,0,-1,15.1,10.4,50000,105,2.7,2.3
2020,8,13,19:00,UTC,0,1018.3,83,0,-1,13.3,10.5,50000,85,2.5,2
2020,8,13,20:00,UTC,0,1018.3,88,0,-1,12.3,10.4,50000,73,1.7,1.1
2020,8,13,21:00,UTC,0,1018.2,91,0,-1,11,9.5,50000,48,2.8,2.2
2020,8,13,22:00,UTC,0,1018.3,93,0,-1,9.7,8.6,50000,58,3.2,2.4
2020,8,13,23:00,UTC,4,1018.3,91,0,-1,11,9.6,50000,50,2,1.5
2020,8,14,00:00,UTC,8,1017.8,90,0,-1,11.9,10.3,50000,54,3.9,3
2020,8,14,01:00,UTC,8,1017.5,90,0,-1,11.8,10.3,50000,54,3.6,3
2020,8,14,02:00,UTC,8,1017.2,91,0,-1,12,10.5,50000,33,1.8,1.2
2020,8,14,03:00,UTC,8,1017.3,91,0,-1,12,10.7,50000,44,2.8,2.5
2020,8,14,04:00,UTC,8,1017.2,89,0,-1,12.5,10.8,45860,9,2.1,1.4
2020,8,14,05:00,UTC,7,1016.8,87,0,-1,13.6,11.4,40370,64,2.5,1.6
2020,8,14,06:00,UTC,7,1016.6,86,0,-1,14.7,12.4,50000,82,1.8,1.1
2020,8,14,07:00,UTC,7,1016.4,82,0,-1,16.5,13.3,50000,152,1.6,0.9
2020,8,14,08:00,UTC,7,1016.2,78,0,-1,17.2,13.3,50000,124,3.1,1.9
2020,8,14,09:00,UTC,8,1016.1,77,0,-1,17.9,13.8,50000,127,3.6,2.1
2020,8,14,10:00,UTC,7,1015.7,69,0,-1,19.5,13.5,43710,148,4,2.5
2020,8,14,11:00,UTC,8,1015.5,73,0,-1,18.8,13.8,50000,181,5,3
2020,8,14,12:00,UTC,3,1015.2,71,0,-1,19.6,14.2,45410,177,8,4.6
2020,8,14,13:00,UTC,4,1015.1,66,0,-1,19.8,13.3,47930,204,5.7,4.2
2020,8,14,14:00,UTC,2,1014.7,69,0,-1,19.9,14,50000,200,5.5,4
2020,8,14,15:00,UTC,3,1014.5,71,0,-1,19.7,14.4,50000,175,5.3,3.7
2020,8,14,16:00,UTC,1,1014.1,67,0,-1,20.4,14.1,50000,213,5.7,3.7
2020,8,14,17:00,UTC,,,,,,,,,,,
2020,8,14,18:00,UTC,7,1014.3,74,0,-1,18.1,13.5,50000,218,4.6,3.5
2020,8,14,19:00,UTC,8,1014.5,76,0,-1,17.7,13.4,50000,221,4.5,3.3
2020,8,14,20:00,UTC,6,1014.5,82,0,-1,16.6,13.6,50000,236,4,3.1
2020,8,14,21:00,UTC,7,1014.7,81,0,-1,16.4,13.2,50000,239,3.4,2.6
2020,8,14,22:00,UTC,2,1014.8,85,0,-1,14.9,12.4,50000,245,3.5,2.7
2020,8,14,23:00,UTC,0,1014.8,87,0,-1,14.3,12.2,50000,255,3.3,2.8
2020,8,15,00:00,UTC,6,1014.8,91,0,-1,14.7,13.1,50000,251,3.9,3.3
2020,8,15,01:00,UTC,0,1014.7,95,0,-1,13.9,13,41370,240,2.1,2
2020,8,15,02:00,UTC,8,1014.4,93,0,-1,14.6,13.5,35710,249,2.5,2
2020,8,15,03:00,UTC,8,1014.3,94,0,-1,15.1,14.1,30570,241,2.7,2.2
2020,8,15,04:00,UTC,8,1014.3,93,0,-1,16,14.9,46200,274,2.6,1.9
2020,8,15,05:00,UTC,8,1014.5,92,0,-1,16.2,14.9,36240,313,3.6,2.2
2020,8,15,06:00,UTC,8,1014.6,92,0,-1,16.6,15.2,26950,292,2.8,1.9
2020,8,15,07:00,UTC,8,1014.5,88,0,-1,16.9,14.9,50000,309,3.3,1.6
2020,8,15,08:00,UTC,7,1014.6,82,0,-1,18,14.9,48810,319,3.4,1.4
2020,8,15,09:00,UTC,0,1014.4,75,0,-1,20.1,15.6,49740,216,2.7,1.1
2020,8,15,10:00,UTC,0,1014.4,66,0,-1,22.7,16.1,45810,219,2.7,1.1
2020,8,15,11:00,UTC,0,1014.3,58,0,-1,24.1,15.2,46820,280,4,2
2020,8,15,12:00,UTC,2,1013.8,51,0,-1,24.7,13.9,49610,258,4.8,2.7
2020,8,15,13:00,UTC,1,1013.6,49,0,-1,25.4,13.9,50000,290,6.2,3.8
2020,8,15,14:00,UTC,1,1013.4,47,0,-1,25.7,13.5,46030,267,7,4.3
2020,8,15,15:00,UTC,0,1013.2,50,0,-1,25.9,14.8,48390,285,6.1,4.3
2020,8,15,16:00,UTC,0,1012.9,50,0,-1,25.2,14.1,50000,280,6,4.8
2020,8,15,17:00,UTC,0,1012.9,56,0,-1,24.2,14.9,50000,257,4.7,3.5
2020,8,15,18:00,UTC,0,1013,77,0,-1,21.5,17.3,50000,237,4.6,3.7
2020,8,15,19:00,UTC,0,1013.1,87,0,-1,19.7,17.5,50000,246,3.9,3.4
2020,8,15,20:00,UTC,0,1013,89,0,-1,19.1,17.3,47920,253,4.5,3.6
2020,8,15,21:00,UTC,0,1013,90,0,-1,18.8,17,42570,268,4.2,3.3
2020,8,15,22:00,UTC,0,1013.1,90,0,-1,18.1,16.5,46860,284,4,3.2
2020,8,15,23:00,UTC,0,1013.1,92,0,-1,17.6,16.4,37810,278,3.4,2.9
2020,8,16,00:00,UTC,0,1013.1,95,0,-1,16.7,16,19340,273,2.7,2.3
2020,8,16,01:00,UTC,8,1012.9,93,0,-1,17.6,16.4,32010,296,3.9,2.7
2020,8,16,02:00,UTC,7,1012.7,95,0,-1,16.8,16,19890,276,3,2.3
2020,8,16,03:00,UTC,0,1012.5,96,0,-1,16.3,15.6,14890,277,2.6,2.2
2020,8,16,04:00,UTC,0,1012.6,87,0,-1,17.9,15.8,45530,308,4.7,3.7
2020,8,16,05:00,UTC,0,1012.6,78,0,-1,18.9,14.9,50000,315,6.4,4.2
2020,8,16,06:00,UTC,0,1012.3,71,0,-1,19.9,14.5,50000,316,5.5,3.9
2020,8,16,07:00,UTC,0,1012.2,62,0,-1,21.6,14,50000,304,6.5,4.5
2020,8,16,08:00,UTC,0,1012.1,57,0,-1,22.8,13.8,50000,301,8.2,5.6
2020,8,16,09:00,UTC,0,1012,55,0,-1,23.9,14.4,50000,311,7.2,4.4
2020,8,16,10:00,UTC,0,1012.1,50,0,-1,24.6,13.6,47130,304,9.3,5.5
2020,8,16,11:00,UTC,0,1011.8,49,0,-1,25,13.6,50000,294,7.8,5.1
2020,8,16,12:00,UTC,0,1011.5,48,0,-1,26,14.2,50000,297,8.8,5.9
2020,8,16,13:00,UTC,0,1011.6,46,0,-1,25.8,13.3,50000,296,10.1,8
2020,8,16,14:00,UTC,0,1011.4,44,0,-1,25.6,12.5,50000,307,9.5,6.3
2020,8,16,15:00,UTC,0,1011.4,36,0,-1,25.4,9.1,50000,309,9,6.5
2020,8,16,16:00,UTC,0,1011.4,26,0,-1,24.7,3.9,50000,314,8,5.5
2020,8,16,17:00,UTC,0,1011.5,32,0,-1,23.2,5.6,50000,307,6.1,4.3
2020,8,16,18:00,UTC,0,1011.8,37,0,-1,20.8,5.5,50000,304,6,4.7
2020,8,16,19:00,UTC,0,1012.5,38,0,-1,19.3,4.5,50000,311,8.3,5.5
2020,8,16,20:00,UTC,0,1013.1,42,0,-1,17.4,4.3,50000,313,5.7,4.2
2020,8,16,21:00,UTC,0,1013.4,50,0,-1,15.7,5.3,50000,307,5.5,4.1
2020,8,16,22:00,UTC,0,1013.8,52,0,-1,14.7,5.1,50000,323,5.5,4.1
2020,8,16,23:00,UTC,0,1014.2,58,0,-1,13.5,5.3,50000,334,5.6,4.6
2020,8,17,00:00,UTC,0,1014.7,64,0,-1,12.5,5.9,50000,346,4.6,3.5
2020,8,17,01:00,UTC,0,1015.1,67,0,-1,12,6,50000,345,4,3.3
2020,8,17,02:00,UTC,0,1015.3,73,0,-1,10.9,6.2,50000,332,3.7,3.2
2020,8,17,03:00,UTC,0,1015.3,76,0,-1,10.2,6.3,50000,330,3.9,3.3
2020,8,17,04:00,UTC,0,1015.4,76,0,-1,10.8,6.7,50000,326,2.1,1.5
2020,8,17,05:00,UTC,0,1015.5,75,0,-1,12.2,7.9,50000,299,3.4,2.6
2020,8,17,06:00,UTC,0,1015.2,62,0,-1,15,7.9,50000,293,2.9,2.2
2020,8,17,07:00,UTC,0,1015.1,52,0,-1,17.3,7.3,50000,288,4.3,2.8
2020,8,17,08:00,UTC,0,1015,48,0,-1,18.6,7.2,47810,308,7.7,5.5
2020,8,17,09:00,UTC,0,1014.6,47,0,-1,19.8,8.1,50000,297,7.8,5.3
2020,8,17,10:00,UTC,1,1014.4,44,0,-1,20.5,7.8,49040,278,8.6,4.4
2020,8,17,11:00,UTC,2,1014.2,46,0,-1,21.5,9.3,50000,287,8.8,5.6
2020,8,17,12:00,UTC,2,1013.9,43,0,-1,21.8,8.8,50000,296,8.7,6.2
2020,8,17,13:00,UTC,1,1013.4,39,0,-1,22.6,8.1,46790,293,9.6,6
2020,8,17,14:00,UTC,0,1013.1,37,0,-1,22.9,7.6,47610,316,8.7,5.8
2020,8,17,15:00,UTC,0,1013.1,35,0,-1,23.3,6.8,50000,343,6.6,5.1
2020,8,17,16:00,UTC,0,1013,36,0,-1,22.5,6.5,50000,332,6.5,5
2020,8,17,17:00,UTC,0,1013,37,0,-1,21.5,6.3,50000,327,4.6,3.3
2020,8,17,18:00,UTC,0,1013.2,44,0,-1,19.9,7.2,50000,352,2.5,2.1
2020,8,17,19:00,UTC,0,1013.7,62,0,-1,16.1,8.9,50000,19,3,2.3
2020,8,17,20:00,UTC,0,1013.6,68,0,-1,15,9.2,50000,334,1.4,0.9
2020,8,17,21:00,UTC,0,1013.9,78,0,-1,13.1,9.4,50000,340,1.3,1.1
2020,8,17,22:00,UTC,0,1014.3,86,0,-1,11.1,8.9,50000,301,1.3,0.9
2020,8,17,23:00,UTC,0,1014.2,82,0,-1,11.9,8.9,50000,347,1.9,1.4
2020,8,18,00:00,UTC,0,1014.1,85,0,-1,10.9,8.4,50000,346,1.6,1.3
2020,8,18,01:00,UTC,0,1013.9,92,0,-1,9,7.7,50000,344,1.2,0.9
2020,8,18,02:00,UTC,0,1013.8,89,0,-1,9.4,7.7,50000,17,2.5,1.9
2020,8,18,03:00,UTC,0,1013.6,90,0,-1,8.5,7,50000,13,0.8,0.6
2020,8,18,04:00,UTC,0,1013.5,85,0,-1,10.3,7.8,50000,0,0.8,0
2020,8,18,05:00,UTC,0,1013.3,70,0,-1,13.8,8.5,20280,28,1.1,0.7
2020,8,18,06:00,UTC,0,1012.8,66,0,-1,16.4,10,48030,124,1.6,1
2020,8,18,07:00,UTC,0,1012.5,54,0,-1,18.6,9.2,45180,168,1.8,1
2020,8,18,08:00,UTC,0,1012.6,50,0,-1,19.9,9.1,43880,258,3.5,1.9
2020,8,18,09:00,UTC,0,1012.3,46,0,-1,21,8.7,45620,240,3.4,2
2020,8,18,10:00,UTC,0,1012.1,37,0,-1,22,6.7,50000,196,3.5,1.6
2020,8,18,11:00,UTC,3,1011.8,41,0,-1,22.3,8.6,49220,178,5.1,2.6
2020,8,18,12:00,UTC,1,1011.5,41,0,-1,22.9,9,49680,218,5.3,2.9
2020,8,18,13:00,UTC,0,1011.2,49,0,-1,22.6,11.4,50000,174,6,4.6
2020,8,18,14:00,UTC,0,1010.9,52,0,-1,23.1,12.7,50000,201,4.7,3.2
2020,8,18,15:00,UTC,0,1010.6,56,0,-1,22.6,13.4,50000,173,6.3,3.9
2020,8,18,16:00,UTC,0,1010.4,59,0,-1,22,13.6,50000,170,5.9,3.5
2020,8,18,17:00,UTC,0,1010.4,65,0,-1,20.8,14,50000,150,4.5,3.5
2020,8,18,18:00,UTC,0,1010.7,69,0,-1,19.3,13.5,50000,151,4.7,3.8
2020,8,18,19:00,UTC,0,1010.9,80,0,-1,18.2,14.7,50000,150,4.5,3.2
2020,8,18,20:00,UTC,3,1011.1,87,0,-1,17.7,15.4,50000,160,3.9,2.7
2020,8,18,21:00,UTC,3,1011.4,89,0,-1,17.4,15.5,50000,163,3.7,2.6
2020,8,18,22:00,UTC,7,1011.6,89,0,-1,17.4,15.5,50000,169,3.3,2.3
2020,8,18,23:00,UTC,2,1011.6,90,0,-1,16.7,15.1,50000,147,2.2,1.5
2020,8,19,00:00,UTC,0,1011.4,93,0,-1,15.7,14.5,50000,198,2.5,2
2020,8,19,01:00,UTC,0,1011.6,94,0,-1,15.1,14.2,49780,141,1,0.6
2020,8,19,02:00,UTC,1,1011.6,95,0,-1,14.4,13.6,47150,128,1.2,0.9
2020,8,19,03:00,UTC,5,1011.5,94,0,-1,14.3,13.3,50000,121,2,1.6
2020,8,19,04:00,UTC,0,1011.7,86,0,-1,16.2,13.8,50000,141,2.5,1.7
2020,8,19,05:00,UTC,0,1011.7,86,0,-1,18,15.7,39730,141,3.8,2.7
2020,8,19,06:00,UTC,0,1011.8,76,0,-1,19.3,14.9,50000,161,4.4,2.9
2020,8,19,07:00,UTC,1,1011.9,66,0,-1,20.7,14.1,50000,184,3.5,2.1
2020,8,19,08:00,UTC,1,1012.1,58,0,-1,21.5,13,50000,156,3.7,2.5
2020,8,19,09:00,UTC,0,1012.1,51,0,-1,22.5,11.8,50000,138,4.9,3.6
2020,8,19,10:00,UTC,0,1012.3,38,0,-1,23.2,8.1,41860,141,5.6,3.5
2020,8,19,11:00,UTC,0,1012.4,44,0,-1,23,10,46200,167,5.2,3.8
2020,8,19,12:00,UTC,0,1012.3,42,0,-1,23,9.5,50000,139,6.3,4.7
2020,8,19,13:00,UTC,0,1012.1,43,0,-1,22.8,9.5,49170,139,5.1,3.5
2020,8,19,14:00,UTC,0,1012,47,0,-1,22.6,10.8,50000,129,6,4.4
2020,8,19,15:00,UTC,0,1012.2,54,0,-1,21.7,12.2,50000,142,4.3,2.7
2020,8,19,16:00,UTC,0,1012.4,51,0,-1,21.4,10.9,50000,125,4.1,3
2020,8,19,17:00,UTC,0,1012.4,50,0,-1,20.4,9.8,50000,121,6,4.5
2020,8,19,18:00,UTC,0,1012.6,55,0,-1,19.1,9.9,50000,124,3.4,2.4
2020,8,19,19:00,UTC,0,1012.7,67,0,-1,17,10.8,50000,113,3,2.2
2020,8,19,20:00,UTC,0,1012.8,71,0,-1,16.1,10.8,50000,98,2.3,1.8
2020,8,19,21:00,UTC,0,1013.2,78,0,-1,15.2,11.3,50000,72,2.2,1.6
2020,8,19,22:00,UTC,0,1013.2,84,0,-1,14.2,11.5,50000,52,2.5,1.9
2020,8,19,23:00,UTC,0,1013,89,0,-1,13.2,11.5,50000,81,3,2.7
2020,8,20,00:00,UTC,0,1013.1,91,0,-1,13.3,12,50000,79,2.7,2.4
2020,8,20,01:00,UTC,0,1013.3,93,0,-1,13.3,12.2,50000,65,2.9,2.4
2020,8,20,02:00,UTC,0,1013.4,95,0,-1,12.7,12,39780,78,3,2.7
2020,8,20,03:00,UTC,0,1013.4,97,0,-1,12.9,12.4,20610,80,2.2,1.9
2020,8,20,04:00,UTC,0,1013.7,93,0,-1,13.9,12.9,21580,78,2.6,2
2020,8,20,05:00,UTC,0,1013.8,88,0,-1,16.4,14.3,50000,101,1.9,1.3
2020,8,20,06:00,UTC,0,1013.7,78,0,-1,19,15,50000,131,2.9,2.3
2020,8,20,07:00,UTC,0,1013.8,56,0,-1,21.3,12.3,50000,156,3.1,2
2020,8,20,08:00,UTC,0,1014,49,0,-1,22.5,11.3,44560,153,4.5,2.8
2020,8,20,09:00,UTC,0,1014.2,49,0,-1,23.1,11.9,50000,188,5.6,3.5
2020,8,20,10:00,UTC,2,1014.4,49,0,-1,23.6,12.1,49210,155,6.4,3.6
2020,8,20,11:00,UTC,0,1014.6,44,0,-1,24.2,11.1,43180,149,7.6,4
2020,8,20,12:00,UTC,0,1014.6,45,0,-1,23.9,11.2,48850,140,7.7,5.1
2020,8,20,13:00,UTC,1,1014.4,43,0,-1,23.9,10.7,50000,132,5.9,4.2
2020,8,20,14:00,UTC,0,1014.5,42,0,-1,24.1,10.5,48080,178,6.1,4
2020,8,20,15:00,UTC,0,1014.4,46,0,-1,23.5,11.3,48320,138,5.7,4.2
2020,8,20,16:00,UTC,0,1014.4,54,0,-1,22.2,12.4,50000,133,5.6,4.5
2020,8,20,17:00,UTC,0,1014.7,57,0,-1,21.2,12.3,50000,138,5.5,4.1
2020,8,20,18:00,UTC,0,1014.9,67,0,-1,20,13.6,50000,128,4.6,3.2
2020,8,20,19:00,UTC,0,1015.1,74,0,-1,18.6,13.8,50000,123,3.7,2.4
2020,8,20,20:00,UTC,0,1015.1,85,0,-1,16.4,14,50000,102,3.1,2.7
2020,8,20,21:00,UTC,2,1015.6,88,0,-1,16.1,14.1,50000,106,2.7,2.2
2020,8,20,22:00,UTC,0,1015.8,90,0,-1,15.5,14,50000,105,2.7,2.1
2020,8,20,23:00,UTC,3,1015.8,94,0,-1,15.1,14.1,48530,94,2.6,2.3
2020,8,21,00:00,UTC,1,1016,95,0,-1,14.9,14.1,42210,113,2.9,2.6
2020,8,21,01:00,UTC,0,1016.1,96,0,-1,14.6,13.9,36650,109,2.7,2.3
2020,8,21,02:00,UTC,3,1016.3,97,0,-1,14.3,13.8,32800,99,2.4,2.2
2020,8,21,03:00,UTC,,,,,,,,,,,
2020,8,21,04:00,UTC,0,1016.5,94,0,-1,15,14,32050,98,2.6,2
2020,8,21,05:00,UTC,0,1016.6,85,0,-1,18.1,15.6,50000,124,3.7,2.7
2020,8,21,06:00,UTC,0,1016.7,72,0,-1,20,14.9,50000,142,5.8,4.8
2020,8,21,07:00,UTC,0,1017,62,0,-1,21.6,14.1,50000,150,4.9,3.8
2020,8,21,08:00,UTC,0,1017.2,50,0,-1,23,12.1,50000,145,6.8,4.6
2020,8,21,09:00,UTC,0,1017.2,46,0,-1,23.7,11.3,50000,157,6.4,4.5
2020,8,21,10:00,UTC,0,1017.2,43,0,-1,23.8,10.4,50000,154,7.8,5
2020,8,21,11:00,UTC,0,1017.2,41,0,-1,23.9,10,49630,145,7.6,5.8
2020,8,21,12:00,UTC,0,1017,44,0,-1,24.3,11.4,48760,139,7.4,5.5
2020,8,21,13:00,UTC,0,1017.2,48,0,-1,24,12.3,41950,172,7.1,4.7
2020,8,21,14:00,UTC,0,1016.9,50,0,-1,24.2,13,46530,157,5.6,3.6
2020,8,21,15:00,UTC,0,1016.7,52,0,-1,23.5,13,50000,140,6.9,5.3
2020,8,21,16:00,UTC,0,1016.6,52,0,-1,23,12.6,50000,129,6.8,5.3
2020,8,21,17:00,UTC,0,1016.6,61,0,-1,21.6,13.7,50000,119,4.7,3.7
2020,8,21,18:00,UTC,0,1016.4,71,0,-1,20.1,14.6,50000,115,4.2,3.1
2020,8,21,19:00,UTC,2,1016.4,77,0,-1,19.4,15.2,50000,119,3.7,3
2020,8,21,20:00,UTC,2,1016.3,81,0,-1,18.9,15.6,50000,120,3.6,3
2020,8,21,21:00,UTC,0,1016.4,76,0,-1,19.5,15.2,50000,154,5.3,4.3
2020,8,21,22:00,UTC,4,1016.1,75,0,-1,19.5,15.1,50000,155,6.1,4.5
2020,8,21,23:00,UTC,4,1016,75,0,-1,19.4,14.7,50000,166,5.2,3.9
2020,8,22,00:00,UTC,5,1015.9,74,0,-1,19.2,14.5,50000,160,5.6,3.7
2020,8,22,01:00,UTC,5,1015.9,71,0,-1,19.2,13.9,50000,182,6.9,4.7
2020,8,22,02:00,UTC,7,1015.2,71,0,-1,19,13.7,50000,172,7.3,4.8
2020,8,22,03:00,UTC,4,1014.9,73,0,-1,18.6,13.7,50000,166,8.3,5.6
2020,8,22,04:00,UTC,7,1014.6,78,0,-1,18.4,14.5,50000,165,8,5.6
2020,8,22,05:00,UTC,8,1014.2,91,2.2,-1,17.2,15.7,17840,152,7.2,5.3
2020,8,22,06:00,UTC,8,1013.9,90,0,-1,16.9,15.2,22280,157,7.4,5.7
2020,8,22,07:00,UTC,7,1013.7,88,0.7,-1,17.5,15.4,50000,158,7.3,5.1
2020,8,22,08:00,UTC,7,1013.3,88,0,-1,17.5,15.6,21260,169,6.8,4.8
2020,8,22,09:00,UTC,8,1012.9,92,0,-1,17.1,15.8,10920,158,6.1,4.8
2020,8,22,10:00,UTC,8,1012.6,95,0,-1,17.2,16.3,24580,158,7.2,5.3
2020,8,22,11:00,UTC,8,1012.1,90,0,-1,17.8,16.2,38990,151,8.2,5.6
2020,8,22,12:00,UTC,8,1011.6,87,0,-1,18.2,16,49820,156,7.6,5.2
2020,8,22,13:00,UTC,8,1010.8,88,0,-1,18.5,16.5,42830,155,7.8,5.8
2020,8,22,14:00,UTC,7,1010.5,96,2.6,-1,17.6,16.8,8980,158,8,5.6
2020,8,22,15:00,UTC,7,1009.7,94,0,-1,18.1,17,22160,156,7,5.3
2020,8,22,16:00,UTC,8,1008.8,94,0.8,-1,17.8,16.9,16650,151,7.6,5.5
2020,8,22,17:00,UTC,8,1008.1,94,0.6,-1,17.6,16.7,10690,160,8.5,6.1
2020,8,22,18:00,UTC,8,1007.2,96,3.7,-1,17.5,16.9,10140,177,10,6.7
2020,8,22,19:00,UTC,8,1006.4,96,1.7,-1,17.5,16.9,9480,182,9.9,7.3
2020,8,22,20:00,UTC,8,1005.6,97,1.9,-1,17.6,17,4890,191,10.8,7.6
2020,8,22,21:00,UTC,8,1005,97,0,-1,17.7,17.1,13170,196,8.2,5.8
2020,8,22,22:00,UTC,8,1004.5,98,0,-1,18,17.6,8430,201,6.9,5.1
2020,8,22,23:00,UTC,8,1003.9,97,0,-1,18.3,17.8,7830,205,5.3,3.8
2020,8,23,00:00,UTC,7,1003.8,97,0,-1,18.5,18,8230,213,5.9,3.9
2020,8,23,01:00,UTC,5,1003.4,96,0,-1,18.3,17.6,9920,221,5,3.3
2020,8,23,02:00,UTC,7,1003.1,97,0,-1,18,17.6,5980,208,4.1,3.3
2020,8,23,03:00,UTC,7,1002.9,96,0,-1,18.2,17.6,9780,191,5.2,4
2020,8,23,04:00,UTC,6,1003,97,0,-1,18.2,17.7,9430,207,4.7,3.2
2020,8,23,05:00,UTC,5,1003.1,94,0,-1,18.8,17.7,21780,227,5.7,4.4
2020,8,23,06:00,UTC,2,1003.4,80,0,-1,19.7,16.2,50000,240,9.5,6.5
2020,8,23,07:00,UTC,0,1003.5,76,0,-1,20.2,15.8,49110,227,9.3,6.5
2020,8,23,08:00,UTC,0,1003.5,62,0,-1,21.1,13.4,50000,237,11.5,7.9
2020,8,23,09:00,UTC,0,1003.7,57,0,-1,21.4,12.5,49460,244,10.3,7.7
2020,8,23,10:00,UTC,3,1003.7,56,0,-1,21.5,12.3,46780,254,9.5,7.1
2020,8,23,11:00,UTC,0,1003.8,50,0,-1,22,11.1,43860,232,11.6,7.3
2020,8,23,12:00,UTC,1,1004,60,0,-1,20.7,12.6,46240,227,10.3,6.7
2020,8,23,13:00,UTC,1,1003.9,67,0,-1,20.7,14.4,50000,231,7.2,5.1
2020,8,23,14:00,UTC,6,1003.6,82,0,-1,17.9,14.9,50000,230,5.7,3.9
2020,8,23,15:00,UTC,6,1003.4,70,0,-1,19.6,14,50000,224,10.2,6.6
2020,8,23,16:00,UTC,2,1003.3,73,0,-1,18.9,14,48060,219,9.3,6.7
2020,8,23,17:00,UTC,0,1003.3,76,0,-1,18.8,14.6,50000,216,11.1,6.5
2020,8,23,18:00,UTC,4,1003.3,77,0,-1,18.2,14,50000,221,6.8,5
2020,8,23,19:00,UTC,7,1003.3,87,1.5,-1,16.9,14.7,33660,214,7.1,4.6
2020,8,23,20:00,UTC,7,1002.9,95,17,-1,16.5,15.7,2570,220,5,2.2
2020,8,23,21:00,UTC,8,1002.5,90,5,-1,14.9,13.3,9660,222,10,5.9
2020,8,23,22:00,UTC,7,1002.2,94,0,-1,15.3,14.4,39430,212,5.7,3.3
2020,8,23,23:00,UTC,8,1002.2,93,0.4,-1,15,13.9,30630,195,6.5,4.6
2020,8,24,00:00,UTC,7,1002,94,0,-1,14.7,13.8,50000,219,2.9,1.8
2020,8,24,01:00,UTC,8,1002,96,5.8,-1,13.9,13.3,7820,243,3.5,2.4
2020,8,24,02:00,UTC,7,1001.6,95,0.7,-1,13.8,13,50000,183,4,2.7
2020,8,24,03:00,UTC,3,1001.2,95,0,-1,14,13.2,50000,189,5.8,4
2020,8,24,04:00,UTC,1,1001,95,0,-1,14.6,13.8,49020,197,6.1,4.1
2020,8,24,05:00,UTC,2,1000.8,92,0,-1,16.2,14.9,50000,201,6.5,4.8
2020,8,24,06:00,UTC,2,1000.8,89,0,-1,16.7,14.9,50000,230,10.6,6.3
2020,8,24,07:00,UTC,1,1001,79,0,-1,17.8,14.2,50000,225,7.6,5.4
2020,8,24,08:00,UTC,1,1000.9,74,0,-1,18.9,14.3,50000,227,9.8,6.6
2020,8,24,09:00,UTC,3,1001.3,67,0,-1,18.2,12,50000,246,12.8,9.1
2020,8,24,10:00,UTC,2,1001.6,72,0,-1,18.3,13.1,50000,245,9.9,6.7
2020,8,24,11:00,UTC,4,1002.1,66,0,-1,18.4,11.9,50000,252,10.8,8.4
2020,8,24,12:00,UTC,7,1002.4,72,0,-1,18.5,13.4,26550,243,11.2,7.1
2020,8,24,13:00,UTC,4,1002.6,70,0,-1,18.7,13.1,50000,245,10.3,7.1
2020,8,24,14:00,UTC,2,1002.9,64,0,-1,20.1,13.2,50000,233,8.9,5.8
2020,8,24,15:00,UTC,6,1003.3,74,0,-1,17.5,12.8,33530,306,8.3,6
2020,8,24,16:00,UTC,4,1003.5,81,0,-1,16.8,13.6,24200,294,7.8,4.3
2020,8,24,17:00,UTC,7,1004,83,0,-1,16.1,13.1,46370,274,3.9,2.5
2020,8,24,18:00,UTC,4,1004.6,91,0,-1,15,13.5,50000,245,2.6,2
2020,8,24,19:00,UTC,1,1005.1,93,0,-1,13.8,12.6,50000,232,3.2,2.7
2020,8,24,20:00,UTC,6,1005.2,93,0,-1,13.6,12.4,50000,267,3.3,3
2020,8,24,21:00,UTC,5,1005.5,96,0,-1,13,12.4,50000,285,3.5,2.8
2020,8,24,22:00,UTC,6,1005.8,91,0,-1,13.2,11.8,50000,308,3.1,2.2
2020,8,24,23:00,UTC,6,1006.1,96,0,-1,12.2,11.6,50000,264,1.2,0.9
2020,8,25,00:00,UTC,8,1006.1,95,0,-1,12.4,11.7,50000,328,2.1,1.2
2020,8,25,01:00,UTC,8,1006.2,92,0,-1,12.5,11.3,50000,63,1.1,0.6
2020,8,25,02:00,UTC,7,1006.3,96,0,-1,11.9,11.3,50000,0,0.6,0
2020,8,25,03:00,UTC,7,1006.3,98,0,-1,10.8,10.5,50000,106,1.3,0.9
2020,8,25,04:00,UTC,0,1006.4,92,0,-1,11.3,10.1,50000,3,3,2.3
2020,8,25,05:00,UTC,7,1006.2,83,0,-1,13.3,10.5,50000,51,3.7,2.3
2020,8,25,06:00,UTC,5,1006.1,80,0,-1,13.9,10.4,50000,78,3.3,2.4
2020,8,25,07:00,UTC,6,1006,81,0,-1,14.5,11.2,50000,98,3.2,2.4
2020,8,25,08:00,UTC,0,1005.8,75,0,-1,16.3,11.9,50000,122,4.2,2.8
2020,8,25,09:00,UTC,7,1005.7,72,0,-1,17.2,12.1,50000,179,3.7,2.2
2020,8,25,10:00,UTC,7,1005.4,69,0,-1,17.7,11.9,50000,211,4.1,2.8
2020,8,25,11:00,UTC,7,1005.4,70,0,-1,17.5,12,50000,198,5.6,4.2
2020,8,25,12:00,UTC,7,1005.1,67,0,-1,18.6,12.3,49690,194,7.3,5
2020,8,25,13:00,UTC,1,1004.5,48,0,-1,19.1,8,50000,199,7.5,5
2020,8,25,14:00,UTC,3,1004.4,58,0,-1,18.2,9.7,50000,186,7.7,4.5
2020,8,25,15:00,UTC,8,1004.1,59,0,-1,17.7,9.6,50000,235,6.9,5.2
2020,8,25,16:00,UTC,7,1004,63,0,-1,16.8,9.6,50000,215,5.5,4.1
2020,8,25,17:00,UTC,7,1003.9,64,0,-1,16.6,9.7,50000,218,5.5,4.2
2020,8,25,18:00,UTC,6,1003.9,70,0,-1,15.2,9.7,50000,217,4.7,3.9
2020,8,25,19:00,UTC,3,1003.9,77,0,-1,13.9,9.8,50000,220,4.7,4
2020,8,25,20:00,UTC,0,1003.6,84,0,-1,12.2,9.7,50000,269,2.4,1.9
2020,8,25,21:00,UTC,0,1003.6,87,0,-1,11.4,9.3,50000,244,2.7,2
2020,8,25,22:00,UTC,0,1003.5,88,0,-1,10.8,8.9,50000,259,2.9,2.2
2020,8,25,23:00,UTC,0,1003.5,92,0,-1,9.7,8.5,50000,268,2.8,1.8
2020,8,26,00:00,UTC,0,1003.5,93,0,-1,9.4,8.3,50000,274,2.2,1.6
2020,8,26,01:00,UTC,0,1003.4,95,0,-1,8.3,7.5,50000,283,3,2.5
2020,8,26,02:00,UTC,0,1003.3,96,0,-1,7.4,6.8,50000,285,2.1,1.6
2020,8,26,03:00,UTC,0,1003.1,94,0,-1,7.1,6.1,50000,323,0.9,0.5
2020,8,26,04:00,UTC,1,1002.8,90,0,-1,8.5,6.9,50000,245,1.4,0.9
2020,8,26,05:00,UTC,7,1002.7,83,0,-1,11.2,8.4,40540,333,1.1,0.6
2020,8,26,06:00,UTC,3,1002.6,80,0,-1,12.7,9.3,50000,269,1.9,1
2020,8,26,07:00,UTC,0,1002.6,64,0,-1,15.5,8.6,50000,282,3.6,2.4
2020,8,26,08:00,UTC,0,1002.4,52,0,-1,17.1,7.1,50000,255,4.3,2.7
2020,8,26,09:00,UTC,1,1002.2,46,0,-1,17.6,5.8,45310,245,4.8,3.1
2020,8,26,10:00,UTC,4,1001.9,40,0,-1,18.3,4.5,50000,258,4.5,3.3
2020,8,26,11:00,UTC,1,1002,60,0,-1,17.1,9.3,50000,197,6.2,3.6
2020,8,26,12:00,UTC,7,1001.9,60,0,-1,18.6,10.7,50000,182,7.8,5.8
2020,8,26,13:00,UTC,2,1001.8,52,0,-1,18.4,8.5,50000,197,7,3.9
2020,8,26,14:00,UTC,3,1001.7,42,0,-1,19,5.8,50000,242,7.9,5.2
2020,8,26,15:00,UTC,2,1001.7,44,0,-1,18.7,6.1,50000,234,6.4,4.8
2020,8,26,16:00,UTC,2,1001.9,45,0,-1,18.2,6.1,50000,305,5.6,3.5
2020,8,26,17:00,UTC,3,1002.1,56,0,-1,16.4,7.6,50000,267,2.4,1.8
2020,8,26,18:00,UTC,0,1002.5,70,0,-1,14.6,9.2,50000,302,1.2,0.8
2020,8,26,19:00,UTC,0,1002.7,80,0,-1,12.9,9.4,50000,284,2.2,1.8
2020,8,26,20:00,UTC,0,1002.9,82,0,-1,12,9,50000,234,1.2,0.7
2020,8,26,21:00,UTC,5,1002.8,75,0,-1,12.9,8.6,50000,315,2.8,1.9
2020,8,26,22:00,UTC,4,1003,83,0,-1,11.6,8.8,50000,331,2.4,1.5
2020,8,26,23:00,UTC,7,1003.1,81,0,-1,11.5,8.3,50000,343,4.4,3.6
2020,8,27,00:00,UTC,7,1003.5,81,0,-1,11,7.8,50000,346,3.6,2.6
2020,8,27,01:00,UTC,7,1003.6,82,0,-1,10.8,7.8,50000,333,2.8,1.9
2020,8,27,02:00,UTC,7,1003.7,83,0,-1,10.3,7.5,50000,358,4.7,3.9
2020,8,27,03:00,UTC,7,1003.9,84,0,-1,10.1,7.6,50000,353,4.3,3.2
2020,8,27,04:00,UTC,3,1004.4,87,0,-1,9.7,7.6,50000,342,3.1,1.8
2020,8,27,05:00,UTC,1,1004.6,86,0,-1,9.7,7.5,50000,346,3.6,2.7
2020,8,27,06:00,UTC,0,1004.7,87,0,-1,10.2,8.1,49150,294,2.9,2
2020,8,27,07:00,UTC,0,1004.9,79,0,-1,11.6,8.2,50000,358,2.2,1.5
2020,8,27,08:00,UTC,0,1004.8,70,0,-1,13.5,8.2,50000,347,4.1,2.9
2020,8,27,09:00,UTC,0,1004.8,52,0,-1,16.1,6.3,50000,32,5.9,4
2020,8,27,10:00,UTC,1,1004.7,53,0,-1,16.8,7.1,50000,26,5.1,2.3
2020,8,27,11:00,UTC,5,1005,49,0,-1,17.1,6.3,50000,23,5.9,4.2
2020,8,27,12:00,UTC,3,1005.3,47,0,-1,17.5,6,49850,19,5.9,3.8
2020,8,27,13:00,UTC,2,1005.7,48,0,-1,17,5.9,50000,350,6,4.2
2020,8,27,14:00,UTC,3,1006.1,41,0,-1,17.7,4.4,50000,359,7.6,5.3
2020,8,27,15:00,UTC,6,1006.1,43,0,-1,18.1,5.3,50000,350,7,4.8
2020,8,27,16:00,UTC,0,1006.5,51,0,-1,17,6.6,50000,20,5.1,3.3
2020,8,27,17:00,UTC,0,1006.7,55,0,-1,16.4,7.3,50000,349,2.9,2.2
2020,8,27,18:00,UTC,0,1007.3,65,0,-1,14.1,7.6,50000,353,2.5,2.2
2020,8,27,19:00,UTC,0,1007.7,73,0,-1,12.5,7.8,50000,348,3.7,3.3
2020,8,27,20:00,UTC,0,1008,75,0,-1,11.7,7.5,46580,352,4.1,3.7
2020,8,27,21:00,UTC,0,1008.2,78,0,-1,11.2,7.4,50000,355,4.8,4.3
2020,8,27,22:00,UTC,0,1008.5,83,0,-1,,7.2,50000,356,4.4,3.8
2020,8,27,23:00,UTC,1,1008.5,87,0,-1,9.1,7.1,50000,360,5,4.4
2020,8,28,00:00,UTC,0,1008.7,87,0,-1,9.1,7.2,50000,5,4.6,4.3
2020,8,28,01:00,UTC,0,1008.9,89,0,-1,8.8,7,50000,5,4.6,4.2
2020,8,28,02:00,UTC,0,1009.1,91,0,-1,8.1,6.8,50000,3,4.1,3.9
2020,8,28,03:00,UTC,0,1009.3,92,0,-1,7.8,6.6,50000,7,3.5,2.4
2020,8,28,04:00,UTC,0,1009.5,92,0,-1,7.8,6.5,50000,337,2.9,2
2020,8,28,05:00,UTC,0,1009.7,86,0,-1,9.8,7.6,50000,360,3.5,2.5
2020,8,28,06:00,UTC,0,1009.7,78,0,-1,12.2,8.4,50000,22,5.2,3.3
2020,8,28,07:00,UTC,0,1009.7,69,0,-1,14.4,8.7,50000,7,4.1,2.8
2020,8,28,08:00,UTC,0,1009.7,56,0,-1,16.1,7.2,50000,29,6.9,3.9
2020,8,28,09:00,UTC,2,1009.6,51,0,-1,16.8,6.6,50000,41,6.3,3.8
2020,8,28,10:00,UTC,6,1009.6,46,0,-1,17,5.4,50000,66,5.3,3.6
2020,8,28,11:00,UTC,3,1009.6,50,0,-1,17.1,6.6,50000,15,3.1,1.6
2020,8,28,12:00,UTC,7,1009.5,50,0,-1,17.5,6.9,50000,34,6.1,5
2020,8,28,13:00,UTC,7,1009.7,48,0,-1,17.6,6.3,50000,36,3.9,3
2020,8,28,14:00,UTC,7,1009.6,43,0,-1,18.5,5.9,50000,19,6.2,2.6
2020,8,28,15:00,UTC,1,1009.7,52,0,-1,17,7.1,50000,13,2.4,1.7
2020,8,28,16:00,UTC,5,1009.9,66,0,-1,15.6,9.2,50000,28,2.9,2
2020,8,28,17:00,UTC,8,1010.1,61,0,-1,15.5,8,50000,71,1.8,1.3
2020,8,28,18:00,UTC,4,1010.5,73,0,-1,13.5,8.7,50000,320,2.6,1.8
2020,8,28,19:00,UTC,2,1010.7,82,0,-1,12.1,9.1,50000,291,3.5,2.6
2020,8,28,20:00,UTC,0,1010.8,80,0,-1,12,8.6,50000,326,1.9,1.4
2020,8,28,21:00,UTC,0,1010.8,84,0,-1,11.2,8.5,50000,359,4.5,3.5
2020,8,28,22:00,UTC,0,1011,83,0,-1,10.8,8,50000,5,3.7,3
2020,8,28,23:00,UTC,1,1011.3,87,0,-1,9.7,7.7,50000,353,2.6,2.1
2020,8,29,00:00,UTC,0,1011.3,90,0,-1,9.2,7.6,50000,22,3,2.4
2020,8,29,01:00,UTC,0,1011.2,92,0,-1,9,7.7,50000,37,1.7,1.4
2020,8,29,02:00,UTC,0,1011.5,93,0,-1,8.2,7.1,50000,16,1.4,1
2020,8,29,03:00,UTC,0,1011.6,95,0,-1,7.7,6.9,50000,33,1.2,0.9
2020,8,29,04:00,UTC,0,1011.5,91,0,-1,8.2,6.8,50000,0,1,0
2020,8,29,05:00,UTC,0,1011.6,85,0,-1,11.2,8.8,50000,46,2.4,1.6
2020,8,29,06:00,UTC,0,1011.6,78,0,-1,14,10.1,50000,82,3.2,2
2020,8,29,07:00,UTC,0,1011.4,69,0,-1,16.1,10.5,50000,98,5.1,3.4
2020,8,29,08:00,UTC,0,1011.2,56,0,-1,16.4,7.6,50000,115,5.4,3.8
2020,8,29,09:00,UTC,7,1011.5,56,0,-1,16.9,8,50000,116,6.2,4.2
2020,8,29,10:00,UTC,6,1011.6,54,0,-1,17.5,8,50000,150,7.2,4.9
2020,8,29,11:00,UTC,4,1011,51,0,-1,17.9,7.7,48630,132,6.2,4
2020,8,29,12:00,UTC,5,1011,51,0,-1,18.1,7.8,50000,134,8.8,5.9
2020,8,29,13:00,UTC,0,1010.6,49,0,-1,17.7,6.8,50000,140,7.4,5.6
2020,8,29,14:00,UTC,0,1010.1,58,0,-1,17.4,9,50000,117,7.2,5.4
2020,8,29,15:00,UTC,0,1009.6,66,0,-1,16.5,10,50000,113,5.9,3.9
2020,8,29,16:00,UTC,0,1009.5,69,0,-1,15.9,10.1,50000,116,4.6,3.5
2020,8,29,17:00,UTC,6,1009.1,76,0,-1,15.1,10.9,50000,91,4.3,3.2
2020,8,29,18:00,UTC,6,1008.6,80,0,-1,14.3,11,50000,83,4.6,3.3
2020,8,29,19:00,UTC,7,1007.7,81,0,-1,14.2,11,50000,80,5.7,4.1
2020,8,29,20:00,UTC,8,1007.5,89,1.8,-1,13.4,11.6,10800,144,6.9,4.1
2020,8,29,21:00,UTC,8,1007.2,87,1.6,-1,12.6,10.6,18830,72,1.9,1.2
2020,8,29,22:00,UTC,8,1006.8,96,1.3,-1,12.2,11.5,8190,51,3.4,2.5
2020,8,29,23:00,UTC,8,1005.8,96,2.9,-1,12,11.4,9810,29,5.1,4
2020,8,30,00:00,UTC,8,1005.6,95,1.4,-1,,11,13540,62,5.4,3.7
2020,8,30,01:00,UTC,8,1004.9,97,0.5,-1,11.2,10.7,15780,43,6.4,4.4
2020,8,30,02:00,UTC,8,1004.3,95,0.5,-1,11.4,10.6,10420,48,8.9,6.2
2020,8,30,03:00,UTC,8,1003.9,96,0,-1,11.3,10.8,6570,42,7.8,5.8
2020,8,30,04:00,UTC,8,1003.9,96,0,-1,11.3,10.8,7080,31,8.6,6.2
2020,8,30,05:00,UTC,8,1003.8,97,0,-1,11.5,11,5340,39,8.3,5.9
2020,8,30,06:00,UTC,8,1003.6,96,0,-1,11.9,11.3,9810,42,8.2,6
2020,8,30,07:00,UTC,8,1004.2,96,0.5,-1,12.2,11.6,5490,52,7.9,5.3
2020,8,30,08:00,UTC,8,1004.4,95,0,-1,12.6,11.9,50000,59,7.9,5.8
2020,8,30,09:00,UTC,8,1004.6,96,0,-1,12.8,12.2,50000,53,8.1,5.8
2020,8,30,10:00,UTC,8,1005.1,94,0,-1,13.3,12.4,50000,67,7.5,5.8
2020,8,30,11:00,UTC,8,1005.1,94,0,-1,13.7,12.7,50000,59,7.3,5.5
2020,8,30,12:00,UTC,8,1005.6,93,0,-1,13.8,12.7,50000,50,6.4,4.8
2020,8,30,13:00,UTC,8,1005.8,94,0,-1,13.7,12.7,50000,31,7,4.8
2020,8,30,14:00,UTC,8,1006.2,92,0,-1,14,12.7,50000,30,6.3,4.5
2020,8,30,15:00,UTC,8,1006.5,93,0,-1,13.9,12.8,50000,4,5.8,4.1
2020,8,30,16:00,UTC,8,1006.7,96,0,-1,13.7,13,15350,349,5.7,4.5
2020,8,30,17:00,UTC,8,1006.9,96,0.4,-1,13.4,12.9,50000,350,5.6,4.1
2020,8,30,18:00,UTC,8,1007,96,0,-1,13.3,12.6,50000,331,5.4,4.1
2020,8,30,19:00,UTC,8,1007.3,97,0,-1,13.2,12.7,13130,327,5.4,3.9
2020,8,30,20:00,UTC,8,1007.4,97,0,-1,13.1,12.7,6280,317,4.7,3.5
2020,8,30,21:00,UTC,8,1007.4,97,0,-1,13.1,12.7,4220,321,5.9,3.2
2020,8,30,22:00,UTC,8,1007.5,97,0,-1,13.1,12.7,14080,328,4.2,3.2
2020,8,30,23:00,UTC,8,1007.6,98,0,-1,13,12.7,11470,337,4,3
2020,8,31,00:00,UTC,8,1007.5,98,0,-1,12.9,12.6,10420,324,3.9,2.9
2020,8,31,01:00,UTC,8,1007.3,97,0,-1,12.9,12.4,24420,325,5.1,3.2
2020,8,31,02:00,UTC,8,1006.9,96,0,-1,12.8,12.2,50000,333,4.5,3
2020,8,31,03:00,UTC,8,1007,97,0,-1,12.6,12.2,7550,324,4.4,3.3
2020,8,31,04:00,UTC,8,1007,97,0,-1,12.5,12.1,39110,315,5,3.8
2020,8,31,05:00,UTC,8,1007,95,0,-1,12.8,12,50000,328,4.4,3.5
2020,8,31,06:00,UTC,8,1006.8,92,0,-1,13.5,12.3,50000,2,4.7,3.1
2020,8,31,07:00,UTC,8,1006.8,95,0,-1,13.5,12.7,5130,346,4.4,3.2
2020,8,31,08:00,UTC,7,1007,92,0,-1,14,12.7,9560,12,4.3,2.7
2020,8,31,09:00,UTC,8,1007.2,91,0,-1,14,12.5,30130,31,5.3,3.7
2020,8,31,10:00,UTC,8,1007.5,86,0,-1,14.6,12.2,50000,13,5.2,4
2020,8,31,11:00,UTC,8,1007.8,85,0,-1,14.3,11.9,50000,12,5.7,4
2020,8,31,12:00,UTC,8,1008.2,88,0,-1,13.9,12,9790,5,5.2,3.5
2020,8,31,13:00,UTC,8,1008.5,97,3.6,-1,13.2,12.7,3290,5,5,3.3
2020,8,31,14:00,UTC,8,1008.9,94,0.6,-1,13.2,12.2,7750,12,6.5,4.7
2020,8,31,15:00,UTC,8,1009.5,95,1.3,-1,13,12.2,11050,10,5.9,4.3
2020,8,31,16:00,UTC,8,1009.9,93,0,-1,12.9,11.7,50000,22,4.8,3.3
2020,8,31,17:00,UTC,8,1010.5,92,0,-1,12.8,11.5,50000,5,5.2,3.8
2020,8,31,18:00,UTC,8,1011.3,90,0,-1,12.6,11,50000,1,5.2,4
2020,8,31,19:00,UTC,7,1011.8,85,0,-1,12.3,9.9,50000,18,6.9,4.8
2020,8,31,20:00,UTC,0,1012.2,89,0,-1,10.9,9.2,50000,359,4.6,3.6
2020,8,31,21:00,UTC,0,1012.7,88,0,-1,10.5,8.6,50000,348,5.2,3.9
2020,8,31,22:00,UTC,0,1013.2,90,0,-1,10,8.4,50000,338,4.2,3.6
2020,8,31,23:00,UTC,0,1013.9,91,0,-1,9.3,7.9,50000,358,5.1,4.2
2020,9,1,00:00,UTC,0,1014.6,90,0,-1,9,7.5,50000,359,5.5,4.5
2020,9,1,01:00,UTC,0,1015.1,90,0,-1,8.8,7.3,50000,351,6.2,5
2020,9,1,02:00,UTC,0,1016,92,0,-1,8.2,6.9,50000,354,5.5,4.3
2020,9,1,03:00,UTC,0,1016.8,91,0,-1,8,6.7,50000,352,6.3,4.7
2020,9,1,04:00,UTC,0,1017.9,91,0,-1,8.1,6.6,50000,351,5.1,4.4
2020,9,1,05:00,UTC,0,1018.5,87,0,-1,9.6,7.5,50000,357,5.2,4.1
2020,9,1,06:00,UTC,0,1019.1,80,0,-1,11.3,8.1,50000,360,6,4.5
2020,9,1,07:00,UTC,0,1019.7,73,0,-1,13.2,8.5,50000,8,7,4.1
2020,9,1,08:00,UTC,0,1020.1,59,0,-1,14.7,6.8,50000,13,6.7,5.2
2020,9,1,09:00,UTC,0,1020.5,57,0,-1,16.2,7.6,50000,35,7.9,5.5
2020,9,1,10:00,UTC,0,1020.8,52,0,-1,17.3,7.3,50000,20,7.9,4.8
2020,9,1,11:00,UTC,2,1021.3,50,0,-1,17.7,7,50000,19,8.4,5.3
2020,9,1,12:00,UTC,0,1021.7,43,0,-1,18.8,6,50000,34,7.1,4
2020,9,1,13:00,UTC,0,1021.8,43,0,-1,19.3,6.4,50000,42,6.8,4.3
2020,9,1,14:00,UTC,2,1022,46,0,-1,19.1,7.1,50000,39,6.1,3.7
2020,9,1,15:00,UTC,2,1022.2,49,0,-1,18.2,7.3,50000,30,7.3,5.1
2020,9,1,16:00,UTC,0,1022.5,51,0,-1,18,7.6,50000,51,5.3,3.8
2020,9,1,17:00,UTC,0,1022.9,58,0,-1,16.7,8.5,30220,39,2.6,2.2
2020,9,1,18:00,UTC,0,1023.6,77,0,-1,13.9,9.9,50000,108,2.4,1.8
2020,9,1,19:00,UTC,0,1024.3,82,0,-1,12.1,9.2,50000,29,1,0.7
2020,9,1,20:00,UTC,2,1024.8,87,0,-1,10.9,8.8,50000,93,2.7,1.8
2020,9,1,21:00,UTC,0,1025.3,87,0,-1,10.8,8.8,50000,34,1.5,1.2
2020,9,1,22:00,UTC,0,1025.8,90,0,-1,9.6,8,50000,22,2.5,2.1
2020,9,1,23:00,UTC,0,1026.1,93,0,-1,8.8,7.7,50000,37,2.4,1.9
2020,9,2,00:00,UTC,0,1026.1,92,0,-1,8.9,7.6,50000,28,2.1,1.7
2020,9,2,01:00,UTC,0,1026.2,92,0,-1,7.9,6.7,50000,37,2.2,1.6
2020,9,2,02:00,UTC,2,1026.3,90,0,-1,8.2,6.7,50000,54,4.1,2.8
2020,9,2,03:00,UTC,0,1026.4,91,0,-1,8.1,6.7,50000,59,4.4,4
2020,9,2,04:00,UTC,0,1026.6,92,0,-1,8.4,7.1,38750,52,4.1,3.2
2020,9,2,05:00,UTC,0,1026.9,88,0,-1,10.3,8.3,48600,67,4.9,4.5
2020,9,2,06:00,UTC,0,1026.8,77,0,-1,13.3,9.4,50000,71,4.2,3.2
2020,9,2,07:00,UTC,3,1026.7,71,0,-1,15,9.8,50000,82,6.6,4.2
2020,9,2,08:00,UTC,2,1026.6,65,0,-1,16,9.5,49680,100,9.9,6.2
2020,9,2,09:00,UTC,7,1026.5,67,0,-1,15.8,9.6,50000,74,10.6,7.7
2020,9,2,10:00,UTC,7,1026.3,66,0,-1,16,9.8,50000,80,9.2,6.3
2020,9,2,11:00,UTC,8,1026,65,0,-1,16.4,9.8,50000,66,9.2,6.5
2020,9,2,12:00,UTC,7,1025.4,64,0,-1,16.7,9.8,50000,84,9.4,6.7
2020,9,2,13:00,UTC,6,1024.6,67,0,-1,16.5,10.2,50000,72,10.3,7.4
2020,9,2,14:00,UTC,8,1024.6,73,0,-1,15.9,11,50000,81,7.4,5.2
2020,9,2,15:00,UTC,7,1023.8,74,0,-1,15.6,11,50000,66,9.8,7.1
2020,9,2,16:00,UTC,7,1023.3,76,0,-1,15.2,10.9,50000,71,11,6.9
2020,9,2,17:00,UTC,7,1023.5,77,0,-1,14.6,10.6,50000,70,7.6,5.9
2020,9,2,18:00,UTC,7,1023.4,78,0,-1,14.1,10.4,50000,69,7.5,5.3
2020,9,2,19:00,UTC,8,1023.4,80,0,-1,13.9,10.6,50000,59,7.4,4.8
2020,9,2,20:00,UTC,8,1023.1,82,0,-1,13.8,10.8,50000,71,6.1,4.8
2020,9,2,21:00,UTC,8,1022.5,85,0,-1,13.7,11.1,50000,56,5.8,4.8
2020,9,2,22:00,UTC,8,1021.9,86,0,-1,13.8,11.6,50000,61,6.4,5.1
2020,9,2,23:00,UTC,8,1021.1,88,0,-1,14,11.9,50000,63,6.6,5
2020,9,3,00:00,UTC,8,1020.8,88,0,-1,14.1,12.2,50000,70,6.3,4.6
2020,9,3,01:00,UTC,8,1020.4,90,0,-1,14.2,12.5,50000,70,5.4,4.3
2020,9,3,02:00,UTC,8,1019.7,90,0,-1,14.4,12.8,50000,70,6.3,4.7
2020,9,3,03:00,UTC,8,1018.9,91,0,-1,14.4,13,50000,70,6.4,5
2020,9,3,04:00,UTC,8,1019,92,0,-1,14.6,13.3,50000,82,5.6,4
2020,9,3,05:00,UTC,8,1018.8,91,0,-1,15,13.6,50000,80,4.7,3.5
2020,9,3,06:00,UTC,8,1017.7,91,0,-1,15.1,13.7,50000,54,5.2,3.9
2020,9,3,07:00,UTC,8,1017.8,90,0,-1,15.5,13.8,50000,80,6.2,4.6
2020,9,3,08:00,UTC,7,1017.9,87,0,-1,16.4,14.2,50000,98,4.8,3.5
2020,9,3,09:00,UTC,8,1017.6,83,0,-1,17.2,14.3,50000,119,6.7,5.3
2020,9,3,10:00,UTC,8,1017.3,88,0,-1,16.3,14.3,49600,113,7.8,5.6
2020,9,3,11:00,UTC,8,1016.9,86,0,-1,16.8,14.5,50000,94,8.9,5.9
2020,9,3,12:00,UTC,7,1015.9,82,0,-1,17.5,14.4,50000,91,8.1,5.7
2020,9,3,13:00,UTC,7,1016.7,87,0,-1,16.8,14.7,50000,123,8.2,5.7
2020,9,3,14:00,UTC,8,1016.1,90,0,-1,16.8,15.2,46180,105,6.6,4.7
2020,9,3,15:00,UTC,8,1015.7,90,0,-1,16.9,15.2,46080,108,8.5,5.8
2020,9,3,16:00,UTC,8,1015.5,92,0,-1,16.7,15.3,44380,127,7.1,5.2
2020,9,3,17:00,UTC,8,1015.4,92,0,-1,16.9,15.6,44750,138,6.3,4.8
2020,9,3,18:00,UTC,8,1015.2,92,0,-1,16.5,15.2,50000,151,6.5,4.8
2020,9,3,19:00,UTC,8,1015.3,92,0,-1,16.5,15.2,48670,153,6.6,4.6
2020,9,3,20:00,UTC,8,1015.2,96,0,-1,16.4,15.7,17280,188,4.7,3.7
2020,9,3,21:00,UTC,8,1014.8,96,2.2,-1,16.5,15.8,7180,153,4.2,3.2
2020,9,3,22:00,UTC,8,1015.1,95,0,-1,16.2,15.3,16360,199,6.2,4.9
2020,9,3,23:00,UTC,7,1014.8,96,0,-1,15.6,14.9,16210,187,4.9,3.5
2020,9,4,00:00,UTC,7,1014.7,95,0,-1,15.4,14.7,16980,179,4.3,3
2020,9,4,01:00,UTC,1,1014.4,93,0,-1,15,13.9,30010,166,4.9,3.6
2020,9,4,02:00,UTC,0,1014.1,96,0,-1,14.2,13.6,24420,149,4.8,3.3
2020,9,4,03:00,UTC,7,1013.6,98,0,-1,13.9,13.6,13000,145,5.1,3.9
2020,9,4,04:00,UTC,7,1013.3,94,0,-1,14.7,13.8,18470,159,5.4,4.2
2020,9,4,05:00,UTC,6,1013,93,0,-1,14.7,13.5,39130,156,6.4,4.8
2020,9,4,06:00,UTC,8,1012.8,93,0,-1,14.9,13.9,35860,167,6.3,4.3
2020,9,4,07:00,UTC,8,1012.9,92,0,-1,15.2,13.9,49530,182,6.5,4.5
2020,9,4,08:00,UTC,8,1013.1,90,0,-1,15.4,13.7,45990,187,9,5.9
2020,9,4,09:00,UTC,8,1013.1,87,0,-1,16.5,14.2,47720,185,8.4,6.2
2020,9,4,10:00,UTC,7,1013,83,0,-1,16.9,14,50000,174,8.6,6.3
2020,9,4,11:00,UTC,7,1013,83,0,-1,16.9,14.1,50000,198,9.2,6.4
2020,9,4,12:00,UTC,8,1013.1,96,13.9,-1,15.7,15.2,3210,222,7.4,5.1
2020,9,4,13:00,UTC,4,1012.8,82,0,-1,17.9,14.7,47680,223,10.5,7.3
2020,9,4,14:00,UTC,5,1012.8,70,0,-1,18.2,12.7,50000,214,8.2,5.7
2020,9,4,15:00,UTC,7,1012.6,78,0,-1,17.5,13.5,50000,196,8.7,6.4
2020,9,4,16:00,UTC,0,1012.3,77,0,-1,16.8,12.7,50000,190,8.9,6.6
2020,9,4,17:00,UTC,8,1012.3,92,0,-1,14.8,13.4,5330,183,8.9,5.5
2020,9,4,18:00,UTC,8,1011.7,86,0,-1,15.4,13,50000,175,8.9,6.3
2020,9,4,19:00,UTC,8,1011.5,95,0.5,-1,15,14.2,8360,189,11.7,7.2
2020,9,4,20:00,UTC,8,1011.3,94,0,-1,15.4,14.4,31940,187,9.9,7.1
2020,9,4,21:00,UTC,7,1010.9,93,0,-1,15.4,14.3,44500,195,9.5,6.5
2020,9,4,22:00,UTC,7,1010.6,92,0,-1,15.7,14.4,50000,198,7.7,5.9
2020,9,4,23:00,UTC,7,1010.5,92,0,-1,15.4,14.2,50000,197,8,5.9
2020,9,5,00:00,UTC,2,1010.2,93,0,-1,15.3,14.1,50000,192,7.1,5.5
2020,9,5,01:00,UTC,7,1009.9,94,0,-1,15.5,14.5,35090,185,7.1,5.2
2020,9,5,02:00,UTC,7,1009.4,94,0,-1,15.7,14.7,43800,196,8.4,6
2020,9,5,03:00,UTC,7,1009,93,0,-1,15.6,14.5,39670,190,9,6
2020,9,5,04:00,UTC,7,1008.9,92,0,-1,15.6,14.3,48880,199,9.5,6.5
2020,9,5,05:00,UTC,7,1008.7,89,0,-1,15.7,13.9,48420,202,9.8,7.1
2020,9,5,06:00,UTC,7,1008.8,91,5.3,-1,14.8,13.4,6350,198,11.3,8.2
2020,9,5,07:00,UTC,7,1008.8,94,0,-1,15.2,14.2,32320,205,6.6,4.3
2020,9,5,08:00,UTC,6,1008.9,91,0,-1,15.4,13.9,40300,205,6.3,4.8
2020,9,5,09:00,UTC,1,1008.9,82,0,-1,16.9,13.8,41740,201,7,5.1
2020,9,5,10:00,UTC,2,1008.9,78,0,-1,17,13.2,36610,197,9.5,6.8
2020,9,5,11:00,UTC,4,1008.7,66,0,-1,18,11.5,40010,200,11.1,7.7
2020,9,5,12:00,UTC,7,1008.2,62,0,-1,17.9,10.6,39650,199,12.6,9.7
2020,9,5,13:00,UTC,7,1007.9,69,0,-1,16.9,11.2,50000,192,9,6.3
2020,9,5,14:00,UTC,7,1007.8,94,0.4,-1,13.7,12.8,14060,239,4.6,2.9
2020,9,5,15:00,UTC,8,1007.5,95,0,-1,13.3,12.5,31320,193,5.1,4.1
2020,9,5,16:00,UTC,8,1007.4,95,0.8,-1,13.5,12.7,15970,206,5.4,3.8
2020,9,5,17:00,UTC,8,1006.9,94,1.1,-1,13.9,12.9,19440,193,6.9,4.5
2020,9,5,18:00,UTC,8,1007.1,91,4.2,-1,13.1,11.7,9260,223,9.2,7
2020,9,5,19:00,UTC,8,1007.3,95,0,-1,12.4,11.6,50000,203,6.9,4.8
2020,9,5,20:00,UTC,8,1007.3,92,0,-1,12.5,11.1,50000,211,5.9,4
2020,9,5,21:00,UTC,7,1007.2,95,0,-1,12.6,11.9,19990,202,6.4,4.5
2020,9,5,22:00,UTC,6,1007.3,96,0,-1,12.7,12,15600,204,5.8,4
2020,9,5,23:00,UTC,6,1007.2,92,0,-1,12.8,11.6,42280,202,5.8,4.6
2020,9,6,00:00,UTC,2,1007.3,92,0,-1,12.1,10.9,46860,200,5.2,3.9
2020,9,6,01:00,UTC,0,1007.4,94,0,-1,12.3,11.3,50000,195,5.4,3.8
2020,9,6,02:00,UTC,2,1007.3,97,0,-1,12.8,12.4,23080,205,5.1,3.7
2020,9,6,03:00,UTC,8,1007.4,89,0.5,-1,12.1,10.3,50000,196,6.9,5
2020,9,6,04:00,UTC,7,1007.4,94,0,-1,11.8,10.9,50000,183,4.9,3.4
2020,9,6,05:00,UTC,2,1007.4,92,0,-1,12.8,11.6,50000,186,4.4,3.1
2020,9,6,06:00,UTC,2,1007.7,94,0,-1,14.2,13.3,43390,205,5.1,4
2020,9,6,07:00,UTC,0,1007.9,89,0,-1,14.6,12.9,50000,205,6.4,4.1
2020,9,6,08:00,UTC,5,1007.9,77,0,-1,16.2,12.2,50000,204,7.2,5.2
2020,9,6,09:00,UTC,7,1008.1,89,0,-1,13.2,11.3,14360,212,6.2,4.5
2020,9,6,10:00,UTC,8,1008.2,84,0,-1,14.4,11.7,50000,217,6.9,5.1
2020,9,6,11:00,UTC,4,1008.2,82,0,-1,15.8,12.7,46700,203,5,3.8
2020,9,6,12:00,UTC,7,1008.2,75,0,-1,16.3,11.9,50000,233,3.6,2.4
2020,9,6,13:00,UTC,7,1008.8,87,0,-1,14.1,11.9,40060,235,6.2,4.3
2020,9,6,14:00,UTC,5,1008.8,70,0,-1,16.1,10.6,50000,224,7.4,5.6
2020,9,6,15:00,UTC,2,1008.9,68,0,-1,16,10.1,50000,218,6,3.7
2020,9,6,16:00,UTC,4,1009.3,80,0,-1,14.5,11,50000,211,5.2,4
2020,9,6,17:00,UTC,1,1009.6,81,0,-1,13.4,10.2,50000,209,5.3,3.6
2020,9,6,18:00,UTC,2,1010.1,84,0,-1,12.5,9.8,50000,217,5.3,3.8
2020,9,6,19:00,UTC,7,1010.3,89,0,-1,11.4,9.7,50000,206,3.9,3.2
2020,9,6,20:00,UTC,7,1010.4,90,2.2,-1,11.1,9.5,11690,234,6.8,3.2
2020,9,6,21:00,UTC,1,1010.6,89,0,-1,10.6,8.8,50000,172,3.3,2.6
2020,9,6,22:00,UTC,3,1010.8,92,0,-1,10,8.7,50000,180,2.8,1.8
2020,9,6,23:00,UTC,1,1011,93,0,-1,10.2,9.2,50000,174,3.6,2.9
2020,9,7,00:00,UTC,0,1011,90,0,-1,10.1,8.6,50000,187,4.3,2.8
2020,9,7,01:00,UTC,7,1011.4,91,0,-1,10.9,9.4,50000,212,6,4.8
2020,9,7,02:00,UTC,5,1011.4,90,0,-1,10.1,8.6,50000,231,3.7,2.8
2020,9,7,03:00,UTC,4,1011.6,93,0,-1,9,8,50000,223,2.1,1.7
2020,9,7,04:00,UTC,4,1011.9,91,0,-1,9.5,8.1,50000,205,2.4,2.1
2020,9,7,05:00,UTC,6,1012.2,93,0,-1,10.7,9.6,50000,210,1.4,1
2020,9,7,06:00,UTC,5,1012.4,86,0,-1,13.5,11.3,50000,231,4.1,3
2020,9,7,07:00,UTC,0,1012.6,79,0,-1,14.7,11.1,50000,238,5.1,3.7
2020,9,7,08:00,UTC,0,1013.1,71,0,-1,15.8,10.6,49070,247,6.5,4
2020,9,7,09:00,UTC,5,1013.3,68,0,-1,16,10.1,50000,234,5.6,3.8
2020,9,7,10:00,UTC,8,1013.6,85,0,-1,13.4,10.9,44400,187,2.6,1.6
2020,9,7,11:00,UTC,1,1013.9,67,0,-1,16,9.9,48000,178,5.2,2.9
2020,9,7,12:00,UTC,6,1013.8,66,0,-1,16.6,10.3,50000,223,6.6,4.1
2020,9,7,13:00,UTC,6,1013.6,58,0,-1,17.4,9.2,50000,235,5.7,3.9
2020,9,7,14:00,UTC,1,1013.8,54,0,-1,17.2,7.9,47520,209,6.9,4.8
2020,9,7,15:00,UTC,0,1013.8,65,0,-1,15.4,8.8,50000,216,5.6,4.3
2020,9,7,16:00,UTC,0,1013.7,67,0,-1,15.3,9.2,50000,204,5.6,4.3
2020,9,7,17:00,UTC,0,1014,74,0,-1,13.6,9,50000,223,5.1,3.9
2020,9,7,18:00,UTC,0,1014.2,82,0,-1,12.3,9.3,50000,209,4.7,4
2020,9,7,19:00,UTC,0,1014.3,90,0,-1,10.8,9.3,50000,221,3.2,2.9
2020,9,7,20:00,UTC,0,1014.1,92,0,-1,10.5,9.3,50000,215,3.2,2.9
2020,9,7,21:00,UTC,0,1014,95,0,-1,9.2,8.4,50000,165,1.1,0.6
2020,9,7,22:00,UTC,0,1013.8,95,0,-1,8.9,8.1,50000,209,1,0.6
2020,9,7,23:00,UTC,0,1013.4,95,0,-1,8.8,8,50000,234,1.7,1.4
2020,9,8,00:00,UTC,0,1013,95,0,-1,7.7,6.9,50000,222,1.8,1.7
2020,9,8,01:00,UTC,0,1012.8,96,0,-1,7.1,6.5,50000,214,1.7,1.3
2020,9,8,02:00,UTC,0,1012.3,96,0,-1,5.9,5.3,50000,141,2.5,2
2020,9,8,03:00,UTC,0,1011.7,97,0,-1,6.1,5.8,50000,144,2.8,2.5
2020,9,8,04:00,UTC,1,1010.9,97,0,-1,6.9,6.4,44500,130,2.8,1.8
2020,9,8,05:00,UTC,0,1010.3,88,0,-1,12,10.1,50000,170,4.6,3.1
2020,9,8,06:00,UTC,2,1009.6,86,0,-1,12.9,10.7,50000,196,5.3,3.9
2020,9,8,07:00,UTC,7,1008.8,82,0,-1,14.4,11.4,50000,193,8.7,6
2020,9,8,08:00,UTC,7,1008,83,0,-1,14.7,11.8,50000,192,9.4,6.4
2020,9,8,09:00,UTC,8,1007.2,88,6.3,-1,12.2,10.2,8190,212,6.5,5
2020,9,8,10:00,UTC,6,1006.2,85,0,-1,14.3,11.8,50000,193,9.3,6.3
2020,9,8,11:00,UTC,7,1005.2,83,0,-1,14.8,12,50000,185,11.9,8.5
2020,9,8,12:00,UTC,8,1004.8,93,0.4,-1,12,10.9,17150,208,8.3,6
2020,9,8,13:00,UTC,8,1003.5,92,0,-1,12.8,11.5,34110,192,8.3,5
2020,9,8,14:00,UTC,8,1002.5,95,0.9,-1,12.6,11.9,6830,194,7.9,6.1
2020,9,8,15:00,UTC,8,1001.6,96,2.2,-1,12.7,12,14370,180,6.3,4.6
2020,9,8,16:00,UTC,7,1001.8,96,0,-1,12.9,12.3,46740,218,3.6,2.6
2020,9,8,17:00,UTC,7,1001.7,96,0,-1,12.9,12.2,50000,249,5.2,2.9
2020,9,8,18:00,UTC,5,1002.4,96,0,-1,12,11.4,50000,279,5.1,4.2
2020,9,8,19:00,UTC,0,1003.2,97,0,-1,11.4,11,50000,288,5.7,4.5
2020,9,8,20:00,UTC,1,1003.7,97,0,-1,11.3,10.8,50000,306,6.3,4.9
2020,9,8,21:00,UTC,2,1004.7,97,0,-1,11.2,10.7,50000,304,6.6,4.8
2020,9,8,22:00,UTC,4,1005.4,97,0,-1,10.8,10.3,50000,292,5.5,3.8
2020,9,8,23:00,UTC,0,1006.2,98,0,-1,10,9.6,50000,284,4,3.3
2020,9,9,00:00,UTC,4,1007.1,98,0,-1,9.8,9.5,46370,274,4.5,3.2
2020,9,9,01:00,UTC,0,1007.4,98,0,-1,9.3,9,28020,300,3.6,2.8
2020,9,9,02:00,UTC,0,1007.7,99,0,-1,9,8.8,48560,283,4.1,3.4
2020,9,9,03:00,UTC,0,1008.1,99,0,-1,8.2,8,31440,256,3.5,2.9
2020,9,9,04:00,UTC,0,1008.4,99,0,-1,8.6,8.4,50000,273,3.7,3
2020,9,9,05:00,UTC,0,1008.8,98,0,-1,10.2,9.8,50000,252,3.1,2.5
2020,9,9,06:00,UTC,0,1008.4,93,0,-1,12.1,11.1,50000,272,2,1.4
2020,9,9,07:00,UTC,1,1008.3,90,0,-1,13.8,12.2,50000,229,2.2,1.1
2020,9,9,08:00,UTC,0,1008.5,81,,-1,15.3,12,50000,196,3,1.9
2020,9,9,09:00,UTC,0,1008.1,79,0,-1,15.6,11.9,50000,196,7.1,4.7
2020,9,9,10:00,UTC,0,1007.6,81,0,-1,15.5,12.2,50000,200,6.5,4.5
2020,9,9,11:00,UTC,4,1007.1,80,0,-1,16.1,12.6,50000,217,7.1,4.8
2020,9,9,12:00,UTC,7,1006.5,80,0,-1,15.6,12.2,48410,212,11.5,7.4
2020,9,9,13:00,UTC,7,1005.7,89,0,-1,15,13.2,21500,184,6.5,4.7
2020,9,9,14:00,UTC,8,1004.7,90,0,-1,13.9,12.2,50000,194,4.8,3.3
2020,9,9,15:00,UTC,8,1003.6,90,0,-1,12.8,11.2,26710,218,4.8,3.6
2020,9,9,16:00,UTC,8,1002.2,97,2.9,-1,12.4,12,4160,233,4.9,3.1
2020,9,9,17:00,UTC,8,1000.6,97,0.7,-1,12.5,12.1,8120,203,5.9,3.7
2020,9,9,18:00,UTC,8,998.8,95,0,-1,13.1,12.3,33730,183,8.4,6.3
2020,9,9,19:00,UTC,8,996.6,96,0,-1,13.3,12.7,20860,165,8,5.2
2020,9,9,20:00,UTC,8,994.7,97,0.7,-1,13.5,13,15060,166,8.3,5.3
2020,9,9,21:00,UTC,7,993,98,0.7,-1,14.6,14.3,13820,193,7.2,5.1
2020,9,9,22:00,UTC,6,991.8,96,0,-1,14.9,14.2,42650,221,7.1,5.1
2020,9,9,23:00,UTC,7,991.1,93,0,-1,14.5,13.5,50000,226,10.7,7.2
2020,9,10,00:00,UTC,7,990.8,93,0,-1,14.1,13,50000,244,9.5,6.8
2020,9,10,01:00,UTC,4,991,92,0,-1,12.6,11.3,50000,263,9.4,6.2
2020,9,10,02:00,UTC,0,990.9,92,0,-1,11.6,10.4,50000,256,7.4,5.6
2020,9,10,03:00,UTC,5,990.7,89,0,-1,11.3,9.6,50000,256,9.4,6.9
2020,9,10,04:00,UTC,7,990.4,86,0,-1,11.2,9,50000,265,11.1,7.5
2020,9,10,05:00,UTC,7,991.1,84,0,-1,10.4,7.9,50000,282,13.8,9.9
2020,9,10,06:00,UTC,7,991.5,83,0,-1,10.9,8.2,50000,274,10.2,7.5
2020,9,10,07:00,UTC,7,992,76,0,-1,12,7.9,50000,286,13.2,9.2
2020,9,10,08:00,UTC,8,993.2,74,0,-1,12.4,7.9,50000,291,16.4,10.5
2020,9,10,09:00,UTC,7,994.3,71,0,-1,13,7.7,50000,292,15.7,10.8
2020,9,10,10:00,UTC,7,995.2,59,0,-1,14.6,6.6,50000,303,17.5,10.3
2020,9,10,11:00,UTC,7,996.3,55,,-1,14.6,5.7,50000,280,18,12.7
2020,9,10,12:00,UTC,1,997.4,53,0,-1,14.4,4.8,50000,293,21,13.9
2020,9,10,13:00,UTC,3,998.4,55,0,-1,14.3,5.2,50000,288,18.8,13.2
2020,9,10,14:00,UTC,1,999.6,53,0,-1,14.8,5.2,50000,297,15.9,11.1
2020,9,10,15:00,UTC,4,1000.9,58,0,-1,13.8,5.7,50000,286,12.2,8.4
2020,9,10,16:00,UTC,3,1001.9,60,0,-1,13.3,5.8,50000,287,13.9,10
2020,9,10,17:00,UTC,3,1003.3,65,0,-1,12.2,5.7,50000,290,13.8,10.4
2020,9,10,18:00,UTC,2,1004.6,70,0,-1,11,5.8,50000,281,8.8,6.6
2020,9,10,19:00,UTC,0,1005.4,75,0,-1,10.3,6,50000,275,7.7,6.2
2020,9,10,20:00,UTC,0,1006.2,77,0,-1,9.9,6.1,50000,277,9,6.7
2020,9,10,21:00,UTC,0,1007.1,81,0,-1,9.6,6.4,50000,280,8,6.1
2020,9,10,22:00,UTC,0,1007.7,85,0,-1,9.3,6.9,50000,276,7.8,5.4
2020,9,10,23:00,UTC,0,1008.2,86,0,-1,9.4,7.1,50000,286,7.5,5.5
2020,9,11,00:00,UTC,0,1008.9,87,0,-1,9.2,7.2,50000,281,7.8,5.3
2020,9,11,01:00,UTC,0,1009.6,87,0,-1,8.9,6.8,50000,275,6.8,5
2020,9,11,02:00,UTC,0,1010,89,0,-1,8.4,6.6,50000,269,5.6,4.3
2020,9,11,03:00,UTC,0,1010.9,92,0,-1,7.4,6.1,50000,255,4.5,3.7
2020,9,11,04:00,UTC,0,1011.2,93,0,-1,7.2,6.2,50000,257,3.2,2.6
2020,9,11,05:00,UTC,0,1011.5,90,0,-1,8.6,7,50000,257,3.6,2.8
2020,9,11,06:00,UTC,0,1011.8,87,0,-1,9.2,7.2,50000,252,3.2,2.2
2020,9,11,07:00,UTC,0,1012.1,80,0,-1,10.6,7.3,50000,250,4.4,3.2
2020,9,11,08:00,UTC,0,1012.2,75,0,-1,11.9,7.5,50000,250,5.3,3.6
2020,9,11,09:00,UTC,5,1012.2,68,0,-1,13.7,7.8,50000,249,5.7,4.2
2020,9,11,10:00,UTC,5,1012.3,57,0,-1,14,5.5,50000,279,8.5,6.3
2020,9,11,11:00,UTC,7,1012.4,49,0,-1,14.9,4.4,50000,253,8,5.4
2020,9,11,12:00,UTC,3,1012.4,44,0,-1,15.8,3.7,50000,246,10.2,6.6
2020,9,11,13:00,UTC,7,1012.4,43,0,-1,15.9,3.3,50000,240,9,6.3
2020,9,11,14:00,UTC,3,1012.6,46,0,-1,15.6,4,50000,243,8.9,6.3
2020,9,11,15:00,UTC,1,1012.5,48,0,-1,15.4,4.4,50000,252,7.7,5.3
2020,9,11,16:00,UTC,0,1012.7,55,0,-1,14,5.1,50000,230,5.5,3.9
2020,9,11,17:00,UTC,0,1012.7,71,0,-1,11.5,6.4,50000,217,5.2,4.2
2020,9,11,18:00,UTC,0,1012.7,76,0,-1,10.7,6.7,50000,214,5.2,4.2
2020,9,11,19:00,UTC,3,1012.6,80,0,-1,10.4,7.2,50000,194,3.6,3.2
2020,9,11,20:00,UTC,4,1012.5,85,0,-1,10.9,8.4,50000,218,4.4,3.3
2020,9,11,21:00,UTC,8,1012.4,82,0,-1,10.8,7.8,50000,217,4.5,3.5
2020,9,11,22:00,UTC,7,1012.1,80,0,-1,11.2,8,50000,198,4.8,3.9
2020,9,11,23:00,UTC,7,1011.5,80,0,-1,11.6,8.2,50000,192,4.7,3.8
2020,9,12,00:00,UTC,8,1011.3,81,0,-1,12.1,9,50000,199,6.2,4.8
2020,9,12,01:00,UTC,8,1010.8,80,0,-1,12.6,9.2,50000,191,6.1,4.5
2020,9,12,02:00,UTC,7,1011.1,88,0,-1,12.6,10.6,50000,202,5.3,4.2
2020,9,12,03:00,UTC,7,1010.7,92,0,-1,12.4,11.2,50000,188,5.9,4.1
2020,9,12,04:00,UTC,7,1010.4,94,1.2,-1,12.8,11.8,10290,198,9.7,7
2020,9,12,05:00,UTC,7,1010.1,95,0,-1,12.7,11.9,35840,194,8,6.2
2020,9,12,06:00,UTC,7,1009.7,92,0,-1,13.4,12,39630,198,10.8,8
2020,9,12,07:00,UTC,7,1009.5,92,0.1,-1,13.1,11.9,14360,211,11,8
2020,9,12,08:00,UTC,7,1009.5,92,0,-1,13.5,12.2,13520,204,11.1,7.5
2020,9,12,09:00,UTC,7,1009.2,86,0,-1,14.7,12.4,32420,213,12.4,8.3
2020,9,12,10:00,UTC,8,1009.3,82,0,-1,14.9,11.9,25670,225,14.5,9.2
2020,9,12,11:00,UTC,7,1008.9,81,0,-1,15.3,12,20520,219,14.8,9.5
2020,9,12,12:00,UTC,7,1008.9,89,0.4,-1,14.1,12.3,12820,223,13.9,9
2020,9,12,13:00,UTC,8,1008.4,91,0,-1,13.4,12,15500,220,12,8.2
2020,9,12,14:00,UTC,8,1007.8,92,0.8,-1,13,11.8,11080,224,12.8,7
2020,9,12,15:00,UTC,8,1006.7,95,3.2,-1,13.2,12.4,10540,200,13.2,6.6
2020,9,12,16:00,UTC,8,1005.9,94,3.4,-1,13.5,12.6,10650,203,12.7,8.1
2020,9,12,17:00,UTC,8,1005.1,94,1.2,-1,13.5,12.4,10890,205,11.9,8
2020,9,12,18:00,UTC,8,1003.7,92,0.6,-1,13.5,12.3,17560,197,11.4,7.8
2020,9,12,19:00,UTC,8,1002.2,95,2.5,-1,13.6,12.8,5660,202,12.3,8.1
2020,9,12,20:00,UTC,8,1001.1,96,5.2,-1,13.4,12.7,4600,218,8.7,6.1
2020,9,12,21:00,UTC,8,1000.1,96,8.2,-1,12.9,12.2,4430,232,8.8,5.6
2020,9,12,22:00,UTC,7,1000.6,92,0,-1,12.6,11.4,50000,250,11.2,7.3
2020,9,12,23:00,UTC,7,1000.6,92,0,-1,12,10.8,50000,234,9.5,6.5
2020,9,13,00:00,UTC,5,1001,93,0,-1,11.4,10.3,50000,240,10.3,6.5
2020,9,13,01:00,UTC,1,1001.4,94,0,-1,10.9,10,50000,233,8.4,6.3
2020,9,13,02:00,UTC,0,1001.8,92,0,-1,10.8,9.5,50000,238,9.8,6.8
2020,9,13,03:00,UTC,0,1001.9,89,0,-1,10.5,8.9,50000,240,9,6.2
2020,9,13,04:00,UTC,1,1002.6,89,0,-1,10.4,8.7,49190,241,9.2,6.6
2020,9,13,05:00,UTC,0,1003.1,85,0,-1,10.8,8.4,50000,246,9,6
2020,9,13,06:00,UTC,0,1003.8,79,0,-1,11.6,8.1,50000,251,10.6,7.4
2020,9,13,07:00,UTC,2,1004.5,75,0,-1,12.4,8.2,50000,253,11.9,8.1
2020,9,13,08:00,UTC,5,1005.3,70,0,-1,13,7.8,50000,262,10.9,7.8
2020,9,13,09:00,UTC,4,1005.8,64,0,-1,14,7.4,50000,263,12.2,8.9
2020,9,13,10:00,UTC,4,1006.6,58,0,-1,14.7,6.5,50000,251,12.3,8.3
2020,9,13,11:00,UTC,,,,,,,,,,,
2020,9,13,12:00,UTC,0,1007.6,53,0,-1,15.9,6.2,50000,257,11.1,8.1
2020,9,13,13:00,UTC,0,1008,50,0,-1,15.9,5.5,46990,253,12.5,8.7
2020,9,13,14:00,UTC,3,1008.5,54,0,-1,15.7,6.4,50000,249,11.3,7.2
2020,9,13,15:00,UTC,1,1008.9,58,0,-1,14.8,6.6,50000,245,12.5,8.7
2020,9,13,16:00,UTC,0,1009.3,63,0,-1,13.7,6.9,50000,248,9.2,6.5
2020,9,13,17:00,UTC,0,1010,72,0,-1,12,7,49750,243,6.2,4.5
2020,9,13,18:00,UTC,0,1010.3,81,0,-1,10.7,7.5,50000,232,5.5,4.2
2020,9,13,19:00,UTC,0,1010.5,87,0,-1,10.1,8,49320,223,4.6,3.6
2020,9,13,20:00,UTC,0,1010.6,92,0,-1,9.3,8.1,39360,236,4.9,3.5
2020,9,13,21:00,UTC,0,1010.8,96,0,-1,9,8.4,25340,243,2.9,2.2
2020,9,13,22:00,UTC,0,1010.8,97,0,-1,8.9,8.4,21290,253,3.8,2.9
2020,9,13,23:00,UTC,0,1011,97,0,-1,9,8.6,21000,268,2,1.2
2020,9,14,00:00,UTC,0,1011.2,98,0,-1,8.1,7.8,13600,237,2.6,2.3
2020,9,14,01:00,UTC,2,1011.4,99,0,-1,7.9,7.7,2220,256,2.7,2.3
2020,9,14,02:00,UTC,0,1011.8,99,0,-1,7.2,7,4730,251,3.1,2.9
2020,9,14,03:00,UTC,0,1012.3,100,0,-1,7.6,7.5,19800,270,3.5,2.9
2020,9,14,04:00,UTC,0,1012.5,99,0,-1,7.3,7.2,18950,279,2.7,2.4
2020,9,14,05:00,UTC,0,1013,99,0,-1,9,8.9,18770,266,3.4,3
2020,9,14,06:00,UTC,0,1013.3,94,0,-1,11.1,10.2,40540,258,4.8,3.3
2020,9,14,07:00,UTC,0,1013.7,85,0,-1,13.1,10.6,50000,271,6.1,3.9
2020,9,14,08:00,UTC,0,1014.3,70,0,-1,14.9,9.5,50000,279,6.8,5.4
2020,9,14,09:00,UTC,0,1015,60,0,-1,16.2,8.5,44880,286,9.4,6.7
2020,9,14,10:00,UTC,0,1015.4,60,0,-1,16.9,9.2,50000,272,8.4,6.3
2020,9,14,11:00,UTC,0,1015.9,57,0,-1,17.5,8.9,49320,265,8.9,6.6
2020,9,14,12:00,UTC,1,1015.9,55,0,-1,17.6,8.5,50000,269,9.2,6.7
2020,9,14,13:00,UTC,1,1015.8,54,0,-1,17.9,8.5,47210,265,7.5,5
2020,9,14,14:00,UTC,0,1016,59,0,-1,16.9,8.9,50000,263,4,2.8
2020,9,14,15:00,UTC,0,1015.9,57,0,-1,17,8.3,50000,254,6.3,4.1
2020,9,14,16:00,UTC,1,1016.1,67,0,-1,15.9,9.9,39390,248,7.1,5.1
2020,9,14,17:00,UTC,0,1016.3,74,0,-1,14.4,9.9,50000,259,5.5,4.2
2020,9,14,18:00,UTC,0,1016.9,81,0,-1,12.8,9.6,50000,270,3.9,3
2020,9,14,19:00,UTC,0,1017.4,86,0,-1,11.9,9.6,50000,276,4,3.2
2020,9,14,20:00,UTC,,,,,,,,,,,
2020,9,14,21:00,UTC,0,1018.5,91,0,-1,10.5,9.1,50000,293,4.6,3.9
2020,9,14,22:00,UTC,0,1018.7,95,0,-1,9.4,8.6,49980,270,3.9,3.6
2020,9,14,23:00,UTC,0,1019.1,97,0,-1,8.6,8.1,50000,275,3.5,3
2020,9,15,00:00,UTC,0,1019.7,98,0,-1,8,7.7,33550,268,3.4,3.1
2020,9,15,01:00,UTC,0,1019.9,98,0,-1,7.6,7.3,43140,270,3.2,2.8
2020,9,15,02:00,UTC,8,1019.8,99,0,-1,8.1,7.9,37680,264,3,2.8
2020,9,15,03:00,UTC,8,1019.9,97,0,-1,9,8.6,47270,285,3.8,2.9
2020,9,15,04:00,UTC,7,1020.2,95,0,-1,9.4,8.6,50000,286,3.3,2.5
2020,9,15,05:00,UTC,8,1020.5,95,0,-1,9.7,8.9,50000,258,2.8,2.2
2020,9,15,06:00,UTC,7,1020.7,87,0,-1,10.9,8.9,50000,262,3.5,2.5
2020,9,15,07:00,UTC,2,1020.8,74,0,-1,12.4,7.9,50000,279,4.2,3.1
2020,9,15,08:00,UTC,5,1021.3,70,0,-1,13.2,7.9,50000,299,4.4,3
2020,9,15,09:00,UTC,0,1021.9,71,0,-1,14.3,9.2,50000,297,4.3,3
2020,9,15,10:00,UTC,0,1021.8,67,0,-1,15.3,9.2,50000,291,4.7,3.3
2020,9,15,11:00,UTC,0,1021.9,57,0,-1,17,8.5,50000,289,6.9,4.9
2020,9,15,12:00,UTC,0,1021.6,47,0,-1,17.6,6.1,41710,315,8.6,5.6
2020,9,15,13:00,UTC,0,1021.6,45,0,-1,17.4,5.3,48910,330,5.4,3.8
2020,9,15,14:00,UTC,0,1021.7,46,0,-1,17.2,5.3,50000,320,3.8,2.5
2020,9,15,15:00,UTC,0,1021.9,49,0,-1,16.6,5.9,50000,19,3.3,2.5
2020,9,15,16:00,UTC,5,1021.8,54,0,-1,15.3,6.1,46180,10,2.7,2.4
2020,9,15,17:00,UTC,2,1021.8,80,0,-1,12.9,9.5,38990,56,1.8,1.6
2020,9,15,18:00,UTC,6,1021.9,75,0,-1,13.3,8.9,50000,141,1.2,0.9
2020,9,15,19:00,UTC,7,1021.8,81,0,-1,12.5,9.2,50000,116,1.4,1
2020,9,15,20:00,UTC,8,1021.3,88,0,-1,11.8,9.9,45880,100,2.1,1.8
2020,9,15,21:00,UTC,6,1021.4,91,0,-1,12.3,11,50000,198,1.5,0.7
2020,9,15,22:00,UTC,7,1020.7,91,0,-1,11.8,10.3,50000,149,2.9,1.1
2020,9,15,23:00,UTC,7,1020.3,96,0,-1,11.2,10.6,47770,93,2.9,2.6
2020,9,16,00:00,UTC,7,1019.7,96,0,-1,11.5,10.8,50000,122,3,2.4
2020,9,16,01:00,UTC,7,1018.8,98,0,-1,11.9,11.7,15400,108,4,3.2
2020,9,16,02:00,UTC,8,1018.1,97,0,-1,12.6,12.1,45910,123,4.9,3.2
2020,9,16,03:00,UTC,8,1016.6,92,0,-1,12.9,11.6,33090,128,7.2,5.2
2020,9,16,04:00,UTC,8,1015.6,97,0.8,-1,12.5,12.1,3260,142,6.4,5
2020,9,16,05:00,UTC,9,1014.2,99,0,-1,12.9,12.7,670,157,5.6,4.3
2020,9,16,06:00,UTC,8,1013.3,99,0,-1,13.1,13,3600,156,7.5,4.8
2020,9,16,07:00,UTC,8,1012.2,98,0,-1,13.6,13.3,11050,159,7.5,5.6
2020,9,16,08:00,UTC,8,1011.2,98,0,-1,13.8,13.5,4170,169,6.4,4.8
2020,9,16,09:00,UTC,9,1010,99,0,-1,13.9,13.7,780,165,7.7,5.5
2020,9,16,10:00,UTC,8,1009.2,99,0,-1,14.1,14,2660,174,5.1,3.4
2020,9,16,11:00,UTC,8,1007.8,95,0,-1,15.1,14.3,8660,177,5.2,3.6
2020,9,16,12:00,UTC,8,1007,93,0,-1,15.7,14.6,12660,188,4.7,3.3
2020,9,16,13:00,UTC,7,1005.8,88,0,-1,17.2,15.1,18140,187,7.4,5.2
2020,9,16,14:00,UTC,7,1005.1,87,0,-1,17.2,15,27750,196,7.4,4.6
2020,9,16,15:00,UTC,7,1004.5,88,0,-1,16.4,14.4,14850,220,10,6.2
2020,9,16,16:00,UTC,7,1004,91,0,-1,15.7,14.2,15170,212,5.2,3.5
2020,9,16,17:00,UTC,8,1003.9,91,1.2,-1,15.1,13.6,11370,269,8.1,6.1
2020,9,16,18:00,UTC,8,1004.4,90,0,-1,13.1,11.5,50000,283,11.2,7.7
2020,9,16,19:00,UTC,7,1004.6,85,0,-1,11.8,9.2,50000,282,9.3,6.3
2020,9,16,20:00,UTC,6,1004.5,84,0,-1,10.8,8.1,50000,282,10.6,7.6
2020,9,16,21:00,UTC,7,1004.6,79,0,-1,9.9,6.4,50000,292,13.4,10
2020,9,16,22:00,UTC,7,1004.5,83,0,-1,9.2,6.5,48500,290,11.2,8.4
2020,9,16,23:00,UTC,8,1004.2,83,0,-1,8.9,6.2,40570,287,11,7.7
2020,9,17,00:00,UTC,8,1003.7,76,0,-1,8.6,4.6,50000,289,12.1,8.9
2020,9,17,01:00,UTC,8,1003,76,0,-1,8.4,4.4,50000,273,10.9,7.8
2020,9,17,02:00,UTC,8,1002.2,80,0,-1,8.2,5,50000,277,11.8,7.9
2020,9,17,03:00,UTC,8,1001.7,87,0,-1,7.9,5.8,8700,298,13.8,9.4
2020,9,17,04:00,UTC,8,1001.5,84,0,-1,7.4,4.9,50000,309,13.8,8.9
2020,9,17,05:00,UTC,8,1001.7,89,0,-1,7.1,5.4,14000,309,14.1,8.7
2020,9,17,06:00,UTC,8,1001.8,87,0,-1,7.5,5.5,12060,317,14.2,9.5
2020,9,17,07:00,UTC,8,1002.5,88,0,-1,7.6,5.7,11070,319,15.4,10.5
2020,9,17,08:00,UTC,8,1003.2,83,0,-1,8.3,5.5,11830,328,15.1,10
2020,9,17,09:00,UTC,8,1003.6,79,0,-1,9.1,5.6,28810,328,17.3,12.5
2020,9,17,10:00,UTC,8,1004.3,79,0,-1,9.2,5.8,29460,337,18,12.3
2020,9,17,11:00,UTC,8,1005.4,79,0,-1,9.4,5.9,21400,334,18.3,13.2
2020,9,17,12:00,UTC,8,1006.6,87,0,-1,9,7,11680,340,16.2,10.9
2020,9,17,13:00,UTC,8,1007.7,87,0,-1,8.7,6.6,12460,337,15.3,11.2
2020,9,17,14:00,UTC,7,1009.1,84,0,-1,9,6.5,39790,340,17.2,11.6
2020,9,17,15:00,UTC,8,1010.2,80,0,-1,9,5.7,42390,349,15.8,11.3
2020,9,17,16:00,UTC,8,1011.6,80,0,-1,9.1,5.7,50000,348,16.3,11.3
2020,9,17,17:00,UTC,7,1012.4,71,0,-1,9.3,4.4,50000,344,15.3,10.6
2020,9,17,18:00,UTC,8,1013.7,65,0,-1,9.6,3.4,50000,345,17.8,12.1
2020,9,17,19:00,UTC,7,1014.7,66,0,-1,9.2,3.2,50000,349,15.6,10.8
2020,9,17,20:00,UTC,2,1015.4,69,0,-1,8.6,3.2,50000,342,11.5,8.4
2020,9,17,21:00,UTC,7,1016.1,67,0,-1,8.8,3.1,50000,331,12.1,8.3
2020,9,17,22:00,UTC,7,1016.6,67,0,-1,8.7,2.9,50000,342,12.7,8.8
2020,9,17,23:00,UTC,7,1017.1,70,0,-1,8.2,3,50000,335,10.5,7.1
2020,9,18,00:00,UTC,0,1017.6,73,0,-1,7.4,2.9,50000,331,10.1,7.1
2020,9,18,01:00,UTC,0,1017.8,76,0,-1,6.9,2.9,50000,335,8.6,6.3
2020,9,18,02:00,UTC,0,1018,82,0,-1,6.2,3.4,50000,321,8.2,5.8
2020,9,18,03:00,UTC,0,1018.2,87,0,-1,5.7,3.6,50000,323,7.5,5.3
2020,9,18,04:00,UTC,0,1018.3,88,0,-1,5.5,3.7,50000,314,7,5.3
2020,9,18,05:00,UTC,0,1018.7,86,0,-1,5.9,3.7,48090,321,7,5.2
2020,9,18,06:00,UTC,0,1018.9,82,0,-1,6.6,3.7,50000,325,6.3,4.7
2020,9,18,07:00,UTC,0,1019,76,0,-1,7.6,3.6,50000,324,5.4,3.8
2020,9,18,08:00,UTC,0,1019.1,66,0,-1,9.5,3.5,50000,314,5.9,4.5
2020,9,18,09:00,UTC,6,1018.7,62,0,-1,10.7,3.7,50000,296,7.3,5.3
2020,9,18,10:00,UTC,2,1018,56,0,-1,12.2,3.8,50000,268,7.6,5.7
2020,9,18,11:00,UTC,5,1017.4,42,0,-1,14.1,1.5,50000,263,8.2,6
2020,9,18,12:00,UTC,3,1016.5,45,0,-1,14.7,2.9,50000,237,7.2,5.3
2020,9,18,13:00,UTC,0,1015.7,44,0,-1,15.5,3.4,50000,247,8.9,6.4
2020,9,18,14:00,UTC,7,1015.2,48,0,-1,15.5,4.4,50000,260,10.1,6.3
2020,9,18,15:00,UTC,1,1014.6,53,0,-1,15.1,5.4,50000,252,8,6
2020,9,18,16:00,UTC,0,1014.4,64,0,-1,13.7,7,50000,250,6.3,4.7
2020,9,18,17:00,UTC,0,1014.5,73,0,-1,12.4,7.7,50000,260,6.7,5
2020,9,18,18:00,UTC,4,1014.7,75,0,-1,12,7.8,50000,272,7.7,5.5
2020,9,18,19:00,UTC,4,1015.1,77,0,-1,11.8,7.8,50000,284,7.9,5.5
2020,9,18,20:00,UTC,0,1015.5,82,0,-1,10.7,7.7,49810,293,7.9,5.8
2020,9,18,21:00,UTC,0,1016,85,0,-1,10.2,7.7,50000,295,6,5
2020,9,18,22:00,UTC,0,1016.3,87,0,-1,9.1,7.2,50000,285,4.8,4
2020,9,18,23:00,UTC,0,1016.8,87,0,-1,8.5,6.5,50000,284,5,4.2
2020,9,19,00:00,UTC,0,1017,88,0,-1,7.8,6,50000,282,4.9,4
2020,9,19,01:00,UTC,0,1017.1,90,0,-1,7.3,5.7,50000,284,5.2,4.3
2020,9,19,02:00,UTC,0,1017.2,90,0,-1,6.9,5.4,50000,285,7,4.5
2020,9,19,03:00,UTC,0,1017.2,91,0,-1,6.4,5,50000,289,5.9,4
2020,9,19,04:00,UTC,0,1017.5,93,0,-1,6,4.9,50000,284,6,4.5
2020,9,19,05:00,UTC,0,1017.6,90,0,-1,6.8,5.3,50000,288,6.6,5
2020,9,19,06:00,UTC,0,1017.7,85,0,-1,8.1,5.7,45470,298,9.3,6.6
2020,9,19,07:00,UTC,0,1017.7,80,0,-1,9.5,6.2,50000,302,9.1,6.4
2020,9,19,08:00,UTC,0,1017.7,69,0,-1,11.6,6.2,46840,308,10,6.8
2020,9,19,09:00,UTC,3,1017.7,61,0,-1,12.5,5.3,50000,306,9.4,6.9
2020,9,19,10:00,UTC,4,1017.5,56,0,-1,13.8,5,50000,305,10.3,6.4
2020,9,19,11:00,UTC,4,1017.5,53,0,-1,13.9,4.4,50000,310,9.1,6.4
2020,9,19,12:00,UTC,5,1017.6,49,0,-1,14.8,4.2,50000,304,10.5,6.6
2020,9,19,13:00,UTC,3,1017.7,53,0,-1,13.9,4.5,50000,298,8.5,5.8
2020,9,19,14:00,UTC,1,1017.8,49,0,-1,15,4.4,50000,305,10.5,5.8
2020,9,19,15:00,UTC,2,1018.2,53,0,-1,14.1,4.6,50000,300,9.1,6.5
2020,9,19,16:00,UTC,7,1018.6,55,0,-1,13.6,4.8,49620,307,8.2,5.7
2020,9,19,17:00,UTC,0,1019.3,69,0,-1,10.5,5.2,50000,282,4.6,3.2
2020,9,19,18:00,UTC,0,1019.6,73,0,-1,9.7,5.1,50000,289,7,5.3
2020,9,19,19:00,UTC,0,1020.1,74,0,-1,9.8,5.3,50000,314,8.1,5.6
2020,9,19,20:00,UTC,0,1020.2,79,0,-1,9.1,5.6,50000,319,6.6,4.8
2020,9,19,21:00,UTC,0,1020.4,85,0,-1,7.6,5.2,50000,309,4.6,3.6
2020,9,19,22:00,UTC,0,1020.6,92,0,-1,6.2,5,50000,281,3.7,3.3
2020,9,19,23:00,UTC,0,1020.8,94,0,-1,6.1,5.1,48620,283,5,4.2
2020,9,20,00:00,UTC,0,1020.7,96,0,-1,5.4,4.9,47340,272,3.6,3.2
2020,9,20,01:00,UTC,0,1020.8,97,0,-1,4.4,4.1,41300,278,2.6,1.6
2020,9,20,02:00,UTC,0,1020.9,99,0,-1,4.2,4,33220,260,4.3,3.8
2020,9,20,03:00,UTC,0,1021,98,0,-1,3.9,3.6,37940,284,3.4,2.7
2020,9,20,04:00,UTC,0,1021.2,99,0,-1,4.4,4.2,44810,283,4.4,3.2
2020,9,20,05:00,UTC,0,1021.2,99,0,-1,5.3,5.1,48670,273,3.4,3
2020,9,20,06:00,UTC,0,1020.5,94,0,-1,7.4,6.6,50000,255,3.4,2.5
2020,9,20,07:00,UTC,0,1020.1,85,0,-1,10.2,7.7,50000,255,4.8,3.5
2020,9,20,08:00,UTC,0,1019.9,67,0,-1,12.7,6.8,50000,267,6.6,4.8
2020,9,20,09:00,UTC,0,1019.4,61,0,-1,13.9,6.4,46390,255,8.6,5.9
2020,9,20,10:00,UTC,0,1018.9,56,0,-1,14.9,6.1,50000,262,9.1,6
2020,9,20,11:00,UTC,3,1017.7,51,0,-1,15.5,5.5,50000,246,10,7.5
2020,9,20,12:00,UTC,0,1017,50,0,-1,15.5,5.2,50000,242,10.9,8
2020,9,20,13:00,UTC,0,1016.4,56,0,-1,14.9,6.1,50000,257,9.5,7.1
2020,9,20,14:00,UTC,0,1016,61,0,-1,14.3,6.9,50000,244,8.8,5.8
2020,9,20,15:00,UTC,0,1015.4,65,0,-1,13.8,7.3,50000,243,9.7,6.4
2020,9,20,16:00,UTC,4,1015,75,0,-1,12.9,8.7,50000,235,7.8,5.7
2020,9,20,17:00,UTC,5,1014.5,81,0,-1,12,8.9,50000,236,7,5.3
2020,9,20,18:00,UTC,0,1014.1,89,0,-1,,,50000,226,6.5,5
2020,9,20,19:00,UTC,4,1013.8,91,0,-1,11.4,10,50000,224,6.5,4.4
2020,9,20,20:00,UTC,7,1013.1,93,0,-1,11.4,10.3,50000,231,6.1,4.3
2020,9,20,21:00,UTC,7,1013,94,0,-1,11.2,10.3,50000,244,4.3,3.2
2020,9,20,22:00,UTC,8,1012.9,91,0,-1,11.9,10.5,50000,260,4.7,3.3
2020,9,20,23:00,UTC,7,1012.6,91,0,-1,11.8,10.4,50000,248,4.9,3.5
2020,9,21,00:00,UTC,7,1012.9,90,0,-1,11.8,10.2,50000,282,5.4,3.8
2020,9,21,01:00,UTC,5,1012.7,91,0,-1,10.8,9.4,50000,285,4.5,3.4
2020,9,21,02:00,UTC,7,1013.1,93,0,-1,10.3,9.3,50000,250,5.3,3.4
2020,9,21,03:00,UTC,1,1012.5,96,0,-1,9,8.4,50000,241,4.1,3.5
2020,9,21,04:00,UTC,0,1012.5,97,0,-1,8.9,8.4,50000,249,4.2,3.1
2020,9,21,05:00,UTC,1,1012.9,96,0,-1,9.3,8.8,49890,252,5.8,3.9
2020,9,21,06:00,UTC,3,1013.1,89,0,-1,10.7,9,50000,245,3.7,2.5
2020,9,21,07:00,UTC,7,1012.8,75,0,-1,11.9,7.5,50000,250,5,3.6
2020,9,21,08:00,UTC,0,1012.4,68,0,-1,13.4,7.5,50000,251,5.1,3.4
2020,9,21,09:00,UTC,0,1012.3,61,0,-1,13.7,6.5,50000,250,5.6,4
2020,9,21,10:00,UTC,0,1011.5,58,0,-1,14.9,6.8,50000,227,8.6,6.1
2020,9,21,11:00,UTC,0,1010.8,64,0,-1,14.7,7.9,50000,215,8.4,6.2
2020,9,21,12:00,UTC,0,1010.3,74,0,-1,14.1,9.5,50000,222,9,6.5
2020,9,21,13:00,UTC,2,1009.4,82,0,-1,13.5,10.5,50000,218,9.5,6.8
2020,9,21,14:00,UTC,6,1008.8,82,0,-1,13.9,10.8,50000,223,10.1,6.9
2020,9,21,15:00,UTC,1,1007.9,84,0,-1,13.7,11,50000,220,9,6.2
2020,9,21,16:00,UTC,5,1007.1,87,0,-1,13.4,11.3,50000,228,11.6,7.3
2020,9,21,17:00,UTC,0,1006,88,0,-1,13.1,11.2,49500,227,11.5,7.3
2020,9,21,18:00,UTC,0,1005.3,88,0,-1,12.9,10.9,50000,235,11.5,8
2020,9,21,19:00,UTC,0,1005.4,85,0,-1,12.8,10.4,50000,241,12.1,7.7
2020,9,21,20:00,UTC,0,1005,84,0,-1,13,10.3,50000,241,11,7.3
2020,9,21,21:00,UTC,0,1004.4,85,0,-1,13,10.5,50000,237,8.5,6.2
2020,9,21,22:00,UTC,0,1004.2,87,0,-1,12.9,10.8,50000,241,8.2,5.8
2020,9,21,23:00,UTC,2,1004.1,89,0,-1,12.8,11,50000,244,7.2,5.3
2020,9,22,00:00,UTC,5,1003.6,92,0,-1,12.3,11,44690,239,7.2,5.2
2020,9,22,01:00,UTC,7,1003.8,92,0,-1,12.3,11.1,41220,242,5.5,3.6
2020,9,22,02:00,UTC,7,1003.7,92,0,-1,12.1,10.8,46920,245,7.1,4.5
2020,9,22,03:00,UTC,7,1004,92,0,-1,11.9,10.7,50000,246,5.7,3.9
2020,9,22,04:00,UTC,7,1003.9,92,0,-1,11.8,10.5,50000,249,6.4,4.1
2020,9,22,05:00,UTC,4,1004,92,0,-1,11.6,10.3,50000,245,7.2,4.2
2020,9,22,06:00,UTC,,,,,,12,,,,,
2020,9,22,07:00,UTC,8,1005.1,87,0,-1,12.3,10.3,50000,255,7.2,4.8
2020,9,22,08:00,UTC,8,1005.2,85,0,-1,12.8,10.3,50000,246,7.8,5.2
2020,9,22,09:00,UTC,7,1005.7,82,0,-1,13.2,10.2,50000,250,6.6,4.6
2020,9,22,10:00,UTC,6,1005.8,77,0,-1,14.3,10.3,50000,247,7.9,5.8
2020,9,22,11:00,UTC,2,1006.4,71,0,-1,15.5,10.4,46390,255,7.7,5.5
2020,9,22,12:00,UTC,2,1006.7,66,0,-1,16.9,10.6,49770,275,6.9,4.9
2020,9,22,13:00,UTC,4,1007.3,64,0,-1,17,10.1,48670,292,6.8,3.7
2020,9,22,14:00,UTC,3,1007.5,67,0,-1,16.4,10.2,50000,234,6.9,4.7
2020,9,22,15:00,UTC,1,1007.7,80,0,-1,14,10.7,43810,216,5.9,4.6
2020,9,22,16:00,UTC,0,1008,88,0,-1,12.3,10.3,47930,214,5.6,4.3
2020,9,22,17:00,UTC,0,1008.3,90,0,-1,11.2,9.6,50000,234,6.4,4.2
2020,9,22,18:00,UTC,0,1008.4,94,0,-1,10.1,9.2,29460,237,4.7,3.2
2020,9,22,19:00,UTC,0,1008.4,94,0,-1,10.1,9.1,40510,224,5.2,3.8
2020,9,22,20:00,UTC,0,1008.5,97,0,-1,8.8,8.4,21240,241,2.8,2.3
2020,9,22,21:00,UTC,0,1008.5,98,0,-1,8.2,7.9,8230,226,1.2,0.9
2020,9,22,22:00,UTC,7,1008.4,98,0,-1,7.8,7.5,15860,128,1.2,0.9
2020,9,22,23:00,UTC,8,1008.1,95,0,-1,9.2,8.6,33950,161,2.2,1.5
2020,9,23,00:00,UTC,8,1007.8,89,0,-1,11.2,9.5,50000,188,3.7,2.8
2020,9,23,01:00,UTC,7,1007.6,91,0,-1,11.6,10.1,38450,174,5.5,3.7
2020,9,23,02:00,UTC,2,1007.4,98,0,-1,10.6,10.3,5090,184,3.7,2.9
2020,9,23,03:00,UTC,8,1007.2,99,0,-1,11.6,11.4,2950,196,5.9,4.2
2020,9,23,04:00,UTC,7,1007,96,0,-1,11.7,11.1,10600,188,6.3,4.3
2020,9,23,05:00,UTC,7,1007.1,93,0,-1,11.5,10.4,16610,187,7.5,5.4
2020,9,23,06:00,UTC,8,1006.8,94,0,-1,12.1,11.2,11280,188,6.7,4.5
2020,9,23,07:00,UTC,8,1006.6,91,0,-1,12.9,11.5,22780,187,7.4,4.9
2020,9,23,08:00,UTC,7,1006.6,88,0,-1,13.7,11.7,28410,192,6.6,4.7
2020,9,23,09:00,UTC,0,1006.2,78,0,-1,15.8,12,45210,187,5.3,4
2020,9,23,10:00,UTC,0,1006,75,0,-1,16.4,12,30820,173,6.1,4.6
2020,9,23,11:00,UTC,0,1006,72,0,-1,17,11.9,37500,181,7.4,4.9
2020,9,23,12:00,UTC,0,1005.9,69,0,-1,17.7,11.9,40980,183,6.7,5.1
2020,9,23,13:00,UTC,3,1005.4,70,0,-1,17.2,11.6,43000,177,5.6,4.1
2020,9,23,14:00,UTC,8,1005.5,73,0,-1,16.9,12.1,38200,179,5.7,4.3
2020,9,23,15:00,UTC,7,1005.1,75,0,-1,16.6,12.1,40940,183,4,2.9
2020,9,23,16:00,UTC,8,1005,80,0,-1,16.2,12.8,25200,162,1.5,1.1
2020,9,23,17:00,UTC,6,1005.1,85,0,-1,15.2,12.8,25130,143,2.9,1.8
2020,9,23,18:00,UTC,3,1005.4,94,0,-1,13.4,12.3,12850,245,1.9,1.6
2020,9,23,19:00,UTC,0,1005.4,95,0,-1,13.4,12.6,10200,213,2.4,1.8
2020,9,23,20:00,UTC,0,1005.5,94,0,-1,11.7,10.8,10940,174,2.1,1.6
2020,9,23,21:00,UTC,2,1005.7,96,0,-1,11.5,10.9,6740,162,2,1.5
2020,9,23,22:00,UTC,1,1005.8,97,0,-1,12.9,12.4,4810,162,4.1,3.1
2020,9,23,23:00,UTC,0,1005.9,97,0,-1,12.6,12.1,3950,186,3.5,2.7
2020,9,24,00:00,UTC,0,1005.8,98,0,-1,12.6,12.3,4330,185,3.9,3.1
2020,9,24,01:00,UTC,0,1005.9,97,0,-1,12.7,12.2,5490,166,3.7,2.5
2020,9,24,02:00,UTC,0,1006.1,98,0,-1,12,11.7,2900,178,3.1,2.2
2020,9,24,03:00,UTC,0,1006.2,98,0,-1,12.3,12,3080,167,3.6,2.5
2020,9,24,04:00,UTC,9,1006.1,99,0,-1,11.2,11.1,180,149,3.7,3
2020,9,24,05:00,UTC,9,1006.2,99,0,-1,11.5,11.4,110,143,3.3,2.8
2020,9,24,06:00,UTC,2,1006.4,99,0,-1,12.7,12.6,3500,141,4.2,3.5
2020,9,24,07:00,UTC,3,1006.5,94,0,-1,14.5,13.5,10590,149,3.6,2.5
2020,9,24,08:00,UTC,4,1006.8,90,0,-1,15.5,13.9,15630,128,3.6,2.6
2020,9,24,09:00,UTC,1,1006.5,76,0,-1,18.5,14.1,24890,134,5,4.1
2020,9,24,10:00,UTC,0,1006.3,68,0,-1,19.3,13.3,32140,154,6.8,5.2
2020,9,24,11:00,UTC,0,1006.3,69,0,-1,19.5,13.8,37100,161,6.5,5
2020,9,24,12:00,UTC,0,1006.1,66,0,-1,20.6,13.9,30740,152,5.8,4.4
2020,9,24,13:00,UTC,0,1005.9,65,0,-1,20.7,14,40121,149,6.5,5
2020,9,24,14:00,UTC,0,1005.7,66,0,-1,20.8,14.3,38486,153,6.2,5
2020,9,24,15:00,UTC,0,1005.5,70,0,-1,19.6,14,37953,148,5,3.6
2020,9,24,16:00,UTC,0,1005.7,78,0,-1,17.6,13.8,34050,150,4.6,3.8
2020,9,24,17:00,UTC,0,1005.7,82,0,-1,16.6,13.4,33430,143,4.2,3.4
2020,9,24,18:00,UTC,0,1005.8,83,0,-1,15.8,13,34338,142,3.6,3
2020,9,24,19:00,UTC,0,1005.8,82,0,-1,15.7,12.7,41423,158,4.4,3
2020,9,24,20:00,UTC,0,1005.5,83,0,-1,15.4,12.6,39129,145,4.9,3.5
2020,9,24,21:00,UTC,0,1005.4,86,0,-1,15.1,12.7,12653,147,4.5,3.6
2020,9,24,22:00,UTC,0,1005.5,88,0,-1,14.7,12.8,19399,150,4.1,3.7
2020,9,24,23:00,UTC,7,1005.6,92,0,-1,15.1,13.8,27282,181,5.4,3.7
2020,9,25,00:00,UTC,6,1005.6,94,0,-1,14.7,13.8,24408,166,4.4,3.5
2020,9,25,01:00,UTC,2,1005.6,95,0,-1,14.2,13.4,21033,158,3.6,2.6
2020,9,25,02:00,UTC,3,1005.6,94,0,-1,14.9,14,19333,181,5.8,4.1
2020,9,25,03:00,UTC,6,1005.8,94,0,-1,15,14.1,17426,179,6.5,4.6
2020,9,25,04:00,UTC,3,1006.2,94,0,-1,15,14.2,10805,188,7,4.9
2020,9,25,05:00,UTC,5,1006.5,98,0,-1,14,13.7,7895,187,5.4,3.9
2020,9,25,06:00,UTC,8,1007,95,0,-1,15.1,14.4,10327,198,4.7,3.6
2020,9,25,07:00,UTC,8,1007.5,95,0,-1,15.2,14.4,10978,186,5.8,4.1
2020,9,25,08:00,UTC,8,1008.1,94,0,-1,15.4,14.4,11240,190,4.3,3.1
2020,9,25,09:00,UTC,7,1008.3,90,0,-1,15.9,14.2,15037,223,2.3,1.5
2020,9,25,10:00,UTC,7,1008.5,89,0,-1,16,14.2,18981,147,2.7,1.8
2020,9,25,11:00,UTC,7,1008.9,91,0,-1,16.4,15,15656,143,3,2.2
2020,9,25,12:00,UTC,7,1008.7,91,0,-1,16.9,15.4,14790,83,5.2,2.3
2020,9,25,13:00,UTC,7,1008.6,87,0,-1,17.5,15.3,22443,116,3.6,2.4
2020,9,25,14:00,UTC,1,1008.5,86,0,-1,17.6,15.3,25322,122,4.3,3.2
2020,9,25,15:00,UTC,0,1008.4,87,0,-1,16.8,14.6,28030,92,5.2,2.6
2020,9,25,16:00,UTC,7,1008.3,89,0,-1,15.9,14,24090,74,4,3.1
2020,9,25,17:00,UTC,2,1008.5,90,0,-1,14.8,13.1,28024,81,5.8,3.8
2020,9,25,18:00,UTC,3,1008.6,87,0,-1,14.5,12.4,29583,81,4.8,3.4
2020,9,25,19:00,UTC,0,1008.7,87,0,-1,13.9,11.7,29194,96,3.3,2.1
2020,9,25,20:00,UTC,0,1008.5,85,0,-1,13.5,11,30626,116,4.5,2.7
2020,9,25,21:00,UTC,3,1008.6,83,0,-1,13.7,10.8,32215,109,4.5,3.1
2020,9,25,22:00,UTC,0,1008.4,84,0,-1,13.5,10.8,33938,96,4.9,3.5
2020,9,25,23:00,UTC,2,1008.2,89,0,-1,12.9,11.1,14387,97,4.1,2.9
2020,9,26,00:00,UTC,7,1008.3,90,0,-1,13,11.4,24151,97,3.2,2.4
2020,9,26,01:00,UTC,5,1008.2,91,0,-1,13,11.5,23912,103,4.1,2.9
2020,9,26,02:00,UTC,0,1008.2,92,0,-1,12.6,11.3,20862,95,4.2,3
2020,9,26,03:00,UTC,0,1008.2,92,0,-1,12.5,11.3,19939,96,3.9,2.9
2020,9,26,04:00,UTC,0,1008.2,93,0,-1,12.3,11.2,21906,99,6,4.3
2020,9,26,05:00,UTC,0,1008.8,93,0,-1,12.5,11.3,21068,97,4.2,3.2
2020,9,26,06:00,UTC,0,1008.8,89,0,-1,13.7,11.8,26949,107,6.9,4.9
2020,9,26,07:00,UTC,0,1009.3,82,0,-1,15.3,12.4,26556,119,6,4
2020,9,26,08:00,UTC,0,1009.4,75,0,-1,16.9,12.4,31646,105,6.9,4.7
2020,9,26,09:00,UTC,0,1009.7,66,0,-1,18.6,12.1,36402,109,7.5,5.1
2020,9,26,10:00,UTC,0,1010.1,63,0,-1,18.8,11.7,36378,119,9.5,6.2
2020,9,26,11:00,UTC,0,1010.7,70,0,-1,17.9,12.3,35097,126,7.8,5.6
2020,9,26,12:00,UTC,0,1010.6,69,0,-1,18.6,12.8,36198,95,6.6,4.6
2020,9,26,13:00,UTC,0,1010.6,70,0,-1,18.4,12.8,34180,102,6.8,4.6
2020,9,26,14:00,UTC,0,1011,72,0,-1,17.6,12.6,32451,96,7.8,5.2
2020,9,26,15:00,UTC,0,1011.2,76,0,-1,16.9,12.6,31486,85,6.3,4.7
2020,9,26,16:00,UTC,0,1011.7,81,0,-1,15.8,12.5,30607,79,5.8,4.2
2020,9,26,17:00,UTC,0,1012.4,83,0,-1,15.2,12.4,29960,79,4.4,3
2020,9,26,18:00,UTC,0,1013,86,0,-1,14.9,12.5,28347,80,4.8,3.4
2020,9,26,19:00,UTC,0,1013.4,87,0,-1,14.6,12.5,28552,76,4.5,3.7
2020,9,26,20:00,UTC,0,1013.7,86,0,-1,15,12.6,29245,81,4.7,3.7
2020,9,26,21:00,UTC,0,1014.3,87,0,-1,14.8,12.6,28306,87,4.1,3.2
2020,9,26,22:00,UTC,0,1014.9,90,0,-1,14,12.4,26415,81,3.4,2
2020,9,26,23:00,UTC,0,1015.3,95,0,-1,12.6,11.7,26726,63,3.4,2.8
2020,9,27,00:00,UTC,0,1015.6,95,0,-1,12.6,11.8,24884,61,4,3.2
2020,9,27,01:00,UTC,0,1015.8,94,0,-1,12.7,11.8,25154,67,4.8,3.1
2020,9,27,02:00,UTC,0,1016.3,95,0,-1,12.3,11.6,22101,78,2.9,2
2020,9,27,03:00,UTC,0,1016.5,96,0,-1,11.8,11.2,18157,73,3.1,2.4
2020,9,27,04:00,UTC,0,1016.9,97,0,-1,11.4,11,21206,67,3.6,2.7
2020,9,27,05:00,UTC,0,1017.1,95,0,-1,12,11.3,21580,70,4.3,2.9
2020,9,27,06:00,UTC,0,1017.6,91,0,-1,13.1,11.7,31119,82,4.1,3
2020,9,27,07:00,UTC,0,1017.9,85,0,-1,14.5,11.9,38279,78,4.3,2.9
2020,9,27,08:00,UTC,0,1018.3,76,0,-1,16.5,12.3,40190,92,4.9,3
2020,9,27,09:00,UTC,0,1018.3,68,0,-1,18.5,12.4,45953,96,5.7,3.4
2020,9,27,10:00,UTC,0,1018.2,60,0,-1,19.8,11.7,47519,105,6.7,4.4
2020,9,27,11:00,UTC,0,1018.1,55,0,-1,20.9,11.4,51350,91,7.2,4.6
2020,9,27,12:00,UTC,0,1017.9,50,0,-1,20.8,9.9,51061,85,7.2,4.8
2020,9,27,13:00,UTC,0,1017.6,51,0,-1,20.5,9.9,46201,94,7.6,5.1
2020,9,27,14:00,UTC,0,1017.7,56,0,-1,19.3,10.2,45829,82,5.5,3.6
2020,9,27,15:00,UTC,0,1018,58,0,-1,18.1,9.7,44277,78,6.4,4.6
2020,9,27,16:00,UTC,0,1018.3,66,0,-1,16.5,10.2,42283,75,5.6,3.6
2020,9,27,17:00,UTC,0,1018.5,70,0,-1,15.6,10.2,41724,77,6,3.9
2020,9,27,18:00,UTC,0,1018.5,74,0,-1,15.1,10.5,36856,69,6.1,4.2
2020,9,27,19:00,UTC,0,1018.7,81,0,-1,13.9,10.6,36524,71,4.9,3.4
2020,9,27,20:00,UTC,2,1018.9,85,0,-1,13.3,10.8,33948,71,5.8,3.3
2020,9,27,21:00,UTC,0,1019.2,89,0,-1,12.7,10.9,31934,71,4.7,2.7
2020,9,27,22:00,UTC,0,1019.2,90,0,-1,13,11.3,31629,68,6.2,3.9
2020,9,27,23:00,UTC,0,1019.2,90,0,-1,12.9,11.4,31083,79,5,4
2020,9,28,00:00,UTC,0,1019,93,0,-1,12.3,11.1,29122,75,5.3,3.5
2020,9,28,01:00,UTC,0,1018.9,94,0,-1,12,11,28008,70,4.4,3.3
2020,9,28,02:00,UTC,0,1018.7,95,0,-1,11.6,10.8,25413,78,4.4,3.2
2020,9,28,03:00,UTC,0,1018.8,96,0,-1,10.9,10.3,24933,74,3.7,2.7
2020,9,28,04:00,UTC,0,1018.8,97,0,-1,10.5,10,21240,77,4.3,3.4
2020,9,28,05:00,UTC,0,1019.1,96,0,-1,10.6,10.1,22157,77,3.8,3
2020,9,28,06:00,UTC,0,1019.2,93,0,-1,11.7,10.5,29274,81,5.1,3.7
2020,9,28,07:00,UTC,0,1019.4,87,0,-1,13.2,11.1,34591,93,5.9,3.5
2020,9,28,08:00,UTC,0,1019.7,79,0,-1,14.6,11,34568,118,7.7,4.5
2020,9,28,09:00,UTC,0,1020,76,0,-1,14.8,10.5,35176,128,7.6,5.2
2020,9,28,10:00,UTC,0,1020,67,0,-1,16.3,10.3,34986,100,5.8,3.7
2020,9,28,11:00,UTC,0,1019.8,60,0,-1,17.1,9.3,43459,111,6.1,4
2020,9,28,12:00,UTC,0,1019.4,56,0,-1,17.9,9,42283,98,6.5,4.1
2020,9,28,13:00,UTC,0,1019.1,56,0,-1,17.6,8.7,42902,88,5.2,3.6
2020,9,28,14:00,UTC,7,1018.7,63,0,-1,16.6,9.5,41728,75,5.2,3.5
2020,9,28,15:00,UTC,8,1019,67,0,-1,15.4,9.3,40158,92,6.3,4.1
2020,9,28,16:00,UTC,8,1019.3,69,0,-1,14.6,9,41358,72,5.3,3.2
2020,9,28,17:00,UTC,8,1019.3,73,0,-1,14.3,9.5,37067,77,4,3.1
2020,9,28,18:00,UTC,8,1019.4,73,0,-1,13.8,9,40468,71,4,3.1
2020,9,28,19:00,UTC,8,1019.3,74,0,-1,13.5,8.9,39021,85,6.6,3
2020,9,28,20:00,UTC,8,1019.5,82,0,-1,12.1,9.2,36382,78,6.4,2.9
2020,9,28,21:00,UTC,2,1019.3,90,0,-1,11.4,9.7,32106,76,3.8,2.8
2020,9,28,22:00,UTC,8,1019.3,91,0,-1,11.9,10.5,30495,81,4.9,2.7
2020,9,28,23:00,UTC,8,1019.1,92,0,-1,12,10.8,30336,80,3.2,2.4
2020,9,29,00:00,UTC,8,1018.9,93,0,-1,11.9,10.9,29558,83,2.3,1.6
2020,9,29,01:00,UTC,7,1018.9,96,0,-1,11.2,10.6,26914,78,2.8,2.4
2020,9,29,02:00,UTC,8,1018.9,96,0,-1,11.8,11.1,26745,92,3.2,2.2
2020,9,29,03:00,UTC,8,1018.9,95,0,-1,12,11.3,28698,79,2.4,1.9
2020,9,29,04:00,UTC,8,1019,95,0,-1,12.2,11.5,27329,90,1.9,1.4
2020,9,29,05:00,UTC,8,1019.2,95,0,-1,12.4,11.7,25614,98,3.2,1.9
2020,9,29,06:00,UTC,8,1019.4,96,0,-1,12.5,11.9,19227,92,3,2
2020,9,29,07:00,UTC,8,1019.6,95,0,-1,12.7,12,14178,86,3,2.1
2020,9,29,08:00,UTC,8,1019.8,95,0.3,-1,13,12.3,15532,131,2.4,1.6
2020,9,29,09:00,UTC,8,1020.1,97,1.6,-1,13.1,12.6,4968,151,4.4,2.6
2020,9,29,10:00,UTC,8,1020.1,94,0,-1,13.3,12.5,30218,126,3.3,2.5
2020,9,29,11:00,UTC,8,1020.1,92,0,-1,13.7,12.4,39970,113,4.1,2.9
2020,9,29,12:00,UTC,8,1020,90,0,-1,13.8,12.3,40772,118,5.3,3.6
2020,9,29,13:00,UTC,8,1020.1,91,0,-1,13.5,12.1,31932,128,5.8,3.7
2020,9,29,14:00,UTC,8,1019.9,96,0,-1,13.1,12.5,24636,114,4.2,2.8
2020,9,29,15:00,UTC,8,1020,94,0,-1,13,12.2,26193,116,5.4,3.1
2020,9,29,16:00,UTC,8,1020.3,93,0,-1,13,11.9,29485,114,4.6,3.3
2020,9,29,17:00,UTC,8,1020.5,96,0,-1,12.7,12.1,14730,104,3.3,2.2
2020,9,29,18:00,UTC,8,1020.7,94,0,-1,12.6,11.7,13225,99,5.1,3.4
2020,9,29,19:00,UTC,8,1021,92,0,-1,12.6,11.4,26456,95,4.8,3.3
2020,9,29,20:00,UTC,8,1021.1,93,0,-1,12.4,11.3,27762,98,4.3,2.7
2020,9,29,21:00,UTC,8,1021,94,0,-1,12.5,11.4,30806,93,3.9,2.8
2020,9,29,22:00,UTC,8,1021,94,0,-1,12.4,11.5,33596,86,3.3,2.4
2020,9,29,23:00,UTC,8,1020.9,95,0,-1,12.3,11.5,28057,84,2.8,2.1
2020,9,30,00:00,UTC,8,1020.9,96,0,-1,12,11.3,24735,82,3.1,2.2
2020,9,30,01:00,UTC,7,1020.8,96,0,-1,11.9,11.3,21793,80,3,2.2
2020,9,30,02:00,UTC,7,1020.8,96,0,-1,12.1,11.5,19132,98,3.9,2.7
2020,9,30,03:00,UTC,7,1020.8,96,0,-1,12.1,11.5,19762,99,2.2,1.7
2020,9,30,04:00,UTC,8,1020.9,96,0,-1,12.1,11.6,16640,88,3.8,2.4
2020,9,30,05:00,UTC,8,1021.1,96,0,-1,12.1,11.4,22628,94,4.1,2.4
2020,9,30,06:00,UTC,8,1021.2,96,0,-1,12.2,11.6,16544,85,4,2.7
2020,9,30,07:00,UTC,7,1021.6,93,0,-1,12.6,11.5,32186,102,4.2,2.7
2020,9,30,08:00,UTC,8,1021.7,87,0,-1,13.4,11.3,46407,101,4.5,3
2020,9,30,09:00,UTC,7,1021.7,82,0,-1,13.8,10.9,40122,107,4.9,3
2020,9,30,10:00,UTC,7,1021.6,80,0,-1,14,10.7,58541,106,6.4,4.2
2020,9,30,11:00,UTC,7,1021.3,72,0,-1,15.9,10.9,65544,146,5.1,4
2020,9,30,12:00,UTC,7,1021.2,68,0,-1,15.8,10,62420,160,5,3.3
2020,9,30,13:00,UTC,7,1021,69,0,-1,16.1,10.5,70061,163,5.2,3.4
2020,9,30,14:00,UTC,8,1021.2,81,0,-1,14.1,11,56807,151,5.7,4.6
2020,9,30,15:00,UTC,7,1021.1,84,0,-1,13.5,10.9,48166,122,3,2.1
2020,9,30,16:00,UTC,1,1021.5,91,0,-1,11.8,10.4,46490,83,3.4,2
2020,9,30,17:00,UTC,5,1021.8,97,0,-1,10.5,10,42905,81,2.2,1.8
2020,9,30,18:00,UTC,4,1022.1,95,0,-1,11.1,10.3,30848,88,3,2.3
2020,9,30,19:00,UTC,7,1022.1,96,0,-1,11.2,10.5,27849,70,3.7,1.6
2020,9,30,20:00,UTC,5,1022,98,0,-1,9.6,9.3,23021,60,3.3,1.6
2020,9,30,21:00,UTC,0,1021.5,99,0,-1,9.4,9.3,18414,45,4,2.4
2020,9,30,22:00,UTC,0,1021.5,99,0,-1,9.3,9.2,16942,48,4,2.8
2020,9,30,23:00,UTC,0,1021.4,99,0,-1,9.2,9,19991,49,3.6,2.8
2020,10,1,00:00,UTC,0,1021.1,98,0,-1,9,8.8,18845,43,3.4,2.5
2020,10,1,01:00,UTC,7,1021,98,0,-1,9.7,9.4,22515,60,4.4,3
2020,10,1,02:00,UTC,9,1020.8,100,0,-1,9.8,9.8,912,71,5.3,3.4
2020,10,1,03:00,UTC,9,1020.5,100,0,-1,9.4,9.4,705,51,5.8,4.1
2020,10,1,04:00,UTC,9,1020.5,100,0,-1,9.4,9.4,1120,48,6.2,3.3
2020,10,1,05:00,UTC,8,1020.7,100,0,-1,9.5,9.5,3091,50,5.5,3.9
2020,10,1,06:00,UTC,8,1020.8,100,0,-1,9.4,9.4,4016,54,5.5,3.8
2020,10,1,07:00,UTC,8,1020.8,98,0,-1,9.8,9.5,14552,79,4.6,3.2
2020,10,1,08:00,UTC,7,1020.7,94,0,-1,10.4,9.4,25041,67,5.3,3.8
2020,10,1,09:00,UTC,6,1020.3,85,0,-1,11.7,9.2,35193,76,5.4,4
2020,10,1,10:00,UTC,0,1019.9,77,0,-1,13.2,9.3,44743,57,5.9,4.2
2020,10,1,11:00,UTC,0,1019.9,72,0,-1,14.1,9.1,46274,61,6.6,3.8
2020,10,1,12:00,UTC,0,1019.4,67,0,-1,15.3,9.3,46982,56,6.1,4.3
2020,10,1,13:00,UTC,7,1019.3,60,0,-1,16.5,8.7,50016,73,7.1,4.9
2020,10,1,14:00,UTC,0,1019.3,63,0,-1,15.3,8.3,48259,85,5,3.3
2020,10,1,15:00,UTC,0,1019.3,62,0,-1,14.4,7.1,51666,80,7.6,4.4
2020,10,1,16:00,UTC,2,1019.5,68,0,-1,13.1,7.3,47779,80,6.9,4.8
2020,10,1,17:00,UTC,0,1019.8,73,0,-1,12.3,7.5,44170,71,6.6,4.1
2020,10,1,18:00,UTC,1,1020,78,0,-1,12,8.2,43380,67,5.9,4.1
2020,10,1,19:00,UTC,3,1020.2,82,0,-1,10.8,7.8,39346,65,5.8,3.7
2020,10,1,20:00,UTC,0,1020.3,88,0,-1,10,8.1,36244,63,6,4.2
2020,10,1,21:00,UTC,0,1020.4,91,0,-1,10,8.5,33502,68,5.2,3.7
2020,10,1,22:00,UTC,0,1020.4,93,0,-1,10.1,8.9,29557,72,6.3,4
2020,10,1,23:00,UTC,0,1020.5,95,0,-1,9.6,8.9,26703,70,4.2,3.2
2020,10,2,00:00,UTC,8,1020.7,96,0,-1,9.4,8.8,17167,74,3.5,2.5
2020,10,2,01:00,UTC,8,1020.4,97,0,-1,9.3,8.9,16852,59,3.8,3
2020,10,2,02:00,UTC,8,1020.6,98,0,-1,9.1,8.7,13149,61,4.5,3.4
2020,10,2,03:00,UTC,8,1020.9,98,0,-1,9.2,8.8,13408,69,5.9,4.1
2020,10,2,04:00,UTC,8,1021.2,98,0,-1,8.8,8.5,13332,69,5.1,3.9
2020,10,2,05:00,UTC,8,1021.5,99,0,-1,8.9,8.7,10193,71,5.1,3.9
2020,10,2,06:00,UTC,7,1021.8,99,0,-1,9.2,9,7616,68,5.4,4.2
2020,10,2,07:00,UTC,6,1022.1,96,0,-1,10.3,9.8,15497,77,4.7,3.3
2020,10,2,08:00,UTC,0,1022.6,90,0,-1,11.9,10.3,25168,81,5.2,3.9
2020,10,2,09:00,UTC,8,1022.8,85,0,-1,13.1,10.6,27598,70,5.5,4
2020,10,2,10:00,UTC,7,1022.8,78,0,-1,14.3,10.5,32309,94,8,4.7
2020,10,2,11:00,UTC,0,1022.6,61,0,-1,16.2,8.6,35491,91,7.1,4.2
2020,10,2,12:00,UTC,1,1022.6,52,0,-1,16.4,6.4,47170,104,8.3,5.1
2020,10,2,13:00,UTC,0,1022.5,54,0,-1,16,6.6,46586,101,8.3,5.4
2020,10,2,14:00,UTC,0,1022.5,58,0,-1,15.3,7,44870,91,7.6,5.1
2020,10,2,15:00,UTC,0,1022.7,65,0,-1,14.1,7.7,43146,80,7.2,4
2020,10,2,16:00,UTC,4,1023,71,0,-1,12.8,7.7,43523,74,5.5,4.1
2020,10,2,17:00,UTC,8,1023.2,74,0,-1,12.3,7.8,42026,72,6.8,4.9
2020,10,2,18:00,UTC,8,1023.5,76,0,-1,11.8,7.7,38286,73,5.7,4.1
2020,10,2,19:00,UTC,0,1023.8,77,0,-1,11.7,7.8,36403,77,6.5,4.1
2020,10,2,20:00,UTC,0,1024,82,0,-1,10.8,8,33876,71,5.7,3.6
2020,10,2,21:00,UTC,0,1024,89,0,-1,9.4,7.7,32201,55,4.5,3.3
2020,10,2,22:00,UTC,0,1023.9,90,0,-1,9.8,8.3,31477,65,5.7,3.7
2020,10,2,23:00,UTC,0,1023.8,91,0,-1,9.8,8.4,29775,72,6.3,4.3
2020,10,3,00:00,UTC,0,1023.6,92,0,-1,9.7,8.4,30306,72,4.9,3.8
2020,10,3,01:00,UTC,0,1023.5,93,0,-1,9.4,8.3,28005,65,6,4.3
2020,10,3,02:00,UTC,0,1023.2,94,0,-1,9.1,8.3,25730,60,6,4.6
2020,10,3,03:00,UTC,0,1023.2,95,0,-1,8.8,8,23855,66,5.5,4.4
2020,10,3,04:00,UTC,0,1023.1,95,0,-1,8.9,8.2,20191,73,6.8,4.9
2020,10,3,05:00,UTC,8,1023.1,95,0,-1,9.5,8.8,19521,70,7.1,5
2020,10,3,06:00,UTC,8,1023,93,0,-1,10.5,9.5,22542,80,6.6,4.9
2020,10,3,07:00,UTC,7,1022.9,91,0,-1,11.7,10.3,26168,78,6.7,4.8
2020,10,3,08:00,UTC,2,1022.4,84,0,-1,13.3,10.7,32400,84,6.8,5
2020,10,3,09:00,UTC,8,1022.5,80,0,-1,13.8,10.4,35690,103,8.5,5.4
2020,10,3,10:00,UTC,8,1022.4,77,0,-1,14.2,10.3,34888,96,8.4,5.8
2020,10,3,11:00,UTC,8,1022,75,0,-1,14.8,10.4,36350,92,8.2,5
2020,10,3,12:00,UTC,0,1021.4,67,0,-1,14.9,8.8,38827,94,9.1,6
2020,10,3,13:00,UTC,8,1021.3,69,0,-1,14.8,9.2,35295,104,11,7.1
2020,10,3,14:00,UTC,8,1020.9,72,0,-1,14.4,9.5,32527,95,7.6,5.2
2020,10,3,15:00,UTC,7,1020.8,74,0,-1,13.9,9.4,31692,92,9.1,5.2
2020,10,3,16:00,UTC,8,1020.6,73,0,-1,13.9,9.1,33221,78,7.8,4.5
2020,10,3,17:00,UTC,7,1020.6,76,0,-1,13.6,9.5,31714,90,7.3,4.6
2020,10,3,18:00,UTC,8,1020.6,77,0,-1,13.8,9.8,32203,95,6.5,4.5
2020,10,3,19:00,UTC,7,1020.3,77,0,-1,13.9,9.9,30986,97,6.8,4.4
2020,10,3,20:00,UTC,8,1020.2,76,0,-1,13.9,9.8,31197,109,7.3,4.3
2020,10,3,21:00,UTC,8,1019.9,77,0,-1,13.9,9.9,32134,102,7.5,5.2
2020,10,3,22:00,UTC,7,1019.8,79,0,-1,13.6,10,32572,100,7.9,4.5
2020,10,3,23:00,UTC,8,1019.8,83,0,-1,13.2,10.4,29538,103,7.6,5
2020,10,4,00:00,UTC,7,1019.2,85,0,-1,13,10.6,28087,95,7.5,5.4
2020,10,4,01:00,UTC,8,1019.1,83,0,-1,13.3,10.5,27941,100,8.7,5.9
2020,10,4,02:00,UTC,8,1018.7,85,0,-1,13.3,10.9,25468,106,10,6.5
2020,10,4,03:00,UTC,8,1018.1,90,0,-1,12.9,11.3,22662,105,9.1,5.8
2020,10,4,04:00,UTC,8,1017.9,92,0,-1,13,11.8,17621,101,10.6,7.4
2020,10,4,05:00,UTC,8,1017.9,93,0.5,-1,12.4,11.3,17380,95,12.2,7.5
2020,10,4,06:00,UTC,7,1017.5,91,0,-1,12.4,10.9,18917,92,10.7,6.6
2020,10,4,07:00,UTC,8,1017.6,91,0.3,-1,12.2,10.9,21172,95,10.5,6.8
2020,10,4,08:00,UTC,7,1017,92,0,-1,12.3,11.1,20330,91,10.7,6.9
2020,10,4,09:00,UTC,7,1016.8,88,0,-1,12.7,10.7,21488,92,11.7,7.1
2020,10,4,10:00,UTC,7,1016.4,85,0,-1,12.9,10.4,23705,94,13,8
2020,10,4,11:00,UTC,7,1016,84,0,-1,13,10.3,28849,93,12.1,8.2
2020,10,4,12:00,UTC,6,1015.4,81,0,-1,13,9.8,33207,96,11.5,7.5
2020,10,4,13:00,UTC,7,1015,85,0,-1,12.4,10,23587,93,13.2,8.4
2020,10,4,14:00,UTC,8,1014.6,86,0,-1,12.4,10.1,30451,91,12.3,6.8
2020,10,4,15:00,UTC,8,1014.4,89,0,-1,12.2,10.3,21308,97,10.1,6.8
2020,10,4,16:00,UTC,8,1013.8,91,0,-1,11.9,10.5,17273,87,10.8,7.4
2020,10,4,17:00,UTC,8,1013,94,0,-1,11.7,10.9,19152,98,13.1,8.4
2020,10,4,18:00,UTC,8,1013.2,93,0,-1,11.9,10.8,19227,107,10.6,6.8
2020,10,4,19:00,UTC,8,1012.8,94,0,-1,11.9,10.9,18440,108,10.7,7.3
2020,10,4,20:00,UTC,8,1012.4,93,0,-1,12.1,10.9,19288,103,10.2,6.5
2020,10,4,21:00,UTC,8,1011.9,92,0,-1,12.3,11,20016,106,9.5,6.1
2020,10,4,22:00,UTC,7,1011.3,92,0,-1,12.3,11.1,19178,95,10,7
2020,10,4,23:00,UTC,7,1011,92,0,-1,12.5,11.3,19133,101,7.6,5.5
2020,10,5,00:00,UTC,7,1010.9,91,0,-1,13,11.6,19131,106,7.3,4.7
2020,10,5,01:00,UTC,7,1011,92,0,-1,13.1,11.9,19212,97,6.8,4.7
2020,10,5,02:00,UTC,3,1011.2,93,0,-1,13.1,11.9,20002,117,5.6,3.7
2020,10,5,03:00,UTC,3,1011.3,94,0,-1,13,12.1,17230,125,5.3,3.7
2020,10,5,04:00,UTC,7,1011.8,92,0,-1,14,12.7,25751,157,6.9,4.9
2020,10,5,05:00,UTC,6,1012.5,87,0,-1,14.2,12.2,39326,188,7.2,5.4
2020,10,5,06:00,UTC,7,1013.3,84,0,-1,14.6,12,50436,188,8.8,5.5
2020,10,5,07:00,UTC,7,1014,86,0,-1,14.7,12.3,56563,201,10.3,7.3
2020,10,5,08:00,UTC,3,1014.6,82,0,-1,15.5,12.3,54317,196,8.3,5.6
2020,10,5,09:00,UTC,7,1015.4,85,0,-1,14.9,12.3,54986,196,8.3,5.8
2020,10,5,10:00,UTC,7,1015.5,78,0,-1,15.7,11.9,53659,193,6.4,3.8
2020,10,5,11:00,UTC,6,1015.6,72,0,-1,16.8,11.8,60969,192,7.6,4.6
2020,10,5,12:00,UTC,0,1015.7,71,0,-1,17.3,11.9,63291,174,6.9,4.4
2020,10,5,13:00,UTC,0,1015.6,66,0,-1,17.3,10.9,66402,186,6.2,4.4
2020,10,5,14:00,UTC,0,1015.5,72,0,-1,16.7,11.6,69252,159,4.6,3.5
2020,10,5,15:00,UTC,0,1015.5,77,0,-1,15.4,11.3,58889,113,3.8,2.2
2020,10,5,16:00,UTC,0,1015.3,87,0,-1,13.5,11.4,57708,94,3.8,2.8
2020,10,5,17:00,UTC,0,1015.1,90,0,-1,13,11.4,50021,93,4.8,3.3
2020,10,5,18:00,UTC,6,1014.8,93,0,-1,12.9,11.8,39480,80,4.5,3.4
2020,10,5,19:00,UTC,2,1014.2,97,0,-1,12.5,12,20957,75,4.7,3.4
2020,10,5,20:00,UTC,7,1013.8,98,0,-1,12.6,12.3,10001,88,5.3,3.3
2020,10,5,21:00,UTC,8,1013.1,99,0,-1,13.4,13.2,4538,79,4.7,3.4
2020,10,5,22:00,UTC,8,1012.4,98,0,-1,14.1,13.7,6766,76,5.4,3.5
2020,10,5,23:00,UTC,8,1011.5,99,0.3,-1,14.3,14.1,2408,84,5.8,4.4
2020,10,6,00:00,UTC,8,1010.9,99,5.3,-1,14.5,14.2,4275,96,6.6,3.8
2020,10,6,01:00,UTC,8,1009.9,98,2,-1,14.5,14.1,8716,112,8.2,5
2020,10,6,02:00,UTC,8,1008.9,98,0,-1,14.2,13.9,4970,116,7.5,4.9
2020,10,6,03:00,UTC,8,1008.3,96,0,-1,13.7,13.1,20425,116,8.4,5.7
2020,10,6,04:00,UTC,8,1007.5,93,0,-1,13.5,12.3,29586,110,7.7,5.4
2020,10,6,05:00,UTC,8,1006.8,91,0,-1,13.3,11.8,31430,103,9.7,5.9
2020,10,6,06:00,UTC,8,1006.1,91,0,-1,12.9,11.5,29199,99,8.2,5.8
2020,10,6,07:00,UTC,8,1005.9,88,0,-1,12.9,10.9,34896,101,8.5,5.5
2020,10,6,08:00,UTC,8,1005.4,82,0,-1,13.3,10.4,28808,118,10.7,7.3
2020,10,6,09:00,UTC,7,1005.1,77,0,-1,14.8,10.8,41017,123,9.8,6.4
2020,10,6,10:00,UTC,2,1005.2,78,0,-1,14.9,11.1,41066,136,10.8,7.3
2020,10,6,11:00,UTC,8,1005.3,77,0,-1,15.2,11.1,39154,144,10.2,7.3
2020,10,6,12:00,UTC,8,1005.1,78,0,-1,15.3,11.6,39736,147,9.4,6.7
2020,10,6,13:00,UTC,8,1005.1,81,0,-1,15,11.8,39779,143,7.3,5.3
2020,10,6,14:00,UTC,8,1005.4,80,0,-1,15.2,11.7,46244,154,7.5,5.7
2020,10,6,15:00,UTC,8,1005.5,79,0,-1,15,11.4,53858,158,8.9,6.4
2020,10,6,16:00,UTC,8,1006.1,93,0.4,-1,13.6,12.5,13413,175,10.6,7.2
2020,10,6,17:00,UTC,7,1006.5,96,0.7,-1,13.4,12.7,26294,167,8.3,6.1
2020,10,6,18:00,UTC,7,1007.1,94,0,-1,13.4,12.5,40184,178,8.9,5.5
2020,10,6,19:00,UTC,7,1007.3,90,0,-1,13.5,11.9,43122,178,9.2,5.7
2020,10,6,20:00,UTC,7,1007.6,90,,-1,12.8,11.2,49618,170,7.9,5.3
2020,10,6,21:00,UTC,0,1008,90,0,-1,12.4,10.9,49361,167,7.6,5.4
2020,10,6,22:00,UTC,7,1008.2,92,0,-1,12.3,11,44226,164,6.9,4.3
2020,10,6,23:00,UTC,0,1008.2,90,0,-1,12.2,10.5,47389,164,7.7,5.1
2020,10,7,00:00,UTC,7,1008.6,90,0,-1,11.9,10.3,47058,160,6.1,4.1
2020,10,7,01:00,UTC,8,1008.7,88,0,-1,12.2,10.3,46504,147,5,3.8
2020,10,7,02:00,UTC,8,1008.8,88,0,-1,12.1,10.2,51217,150,5,4.1
2020,10,7,03:00,UTC,5,1009,90,0,-1,11.5,9.8,48620,141,4.1,3.3
2020,10,7,04:00,UTC,2,1009.3,94,0,-1,10.6,9.6,34659,122,4.6,3.6
2020,10,7,05:00,UTC,5,1009.7,94,0,-1,10.8,9.8,37634,134,4.4,3.6
2020,10,7,06:00,UTC,6,1010,94,0,-1,11.1,10.1,30647,115,4.4,3.2
2020,10,7,07:00,UTC,4,1010.3,90,0,-1,12.4,10.8,45088,149,5.5,3.8
2020,10,7,08:00,UTC,0,1010.5,85,0,-1,12.8,10.4,47319,149,6.6,5.2
2020,10,7,09:00,UTC,8,1010.9,87,0,-1,12.7,10.6,45670,147,6.1,4.8
2020,10,7,10:00,UTC,8,1010.7,85,0,-1,13.1,10.6,46653,133,6.3,4.3
2020,10,7,11:00,UTC,7,1010.6,81,0,-1,14.2,11,47004,132,5.6,4
2020,10,7,12:00,UTC,7,1011.1,82,0,-1,13.4,10.4,47295,129,6.7,5.1
2020,10,7,13:00,UTC,8,1011.3,84,0,-1,13.3,10.6,45382,142,5.7,4.3
2020,10,7,14:00,UTC,7,1011.1,84,0,-1,13.7,11.1,43202,138,4.8,3.2
2020,10,7,15:00,UTC,8,1011.5,87,0,-1,13.4,11.2,44738,122,3.4,2.3
2020,10,7,16:00,UTC,7,1011.7,89,0,-1,13,11.2,39992,115,2.7,2.2
2020,10,7,17:00,UTC,7,1011.8,91,0,-1,12.7,11.1,39345,129,3.3,2.1
2020,10,7,18:00,UTC,7,1011.6,92,0.4,-1,12.5,11.3,22736,109,3.6,2.6
2020,10,7,19:00,UTC,6,1011.7,93,0,-1,12.3,11.1,34174,116,3.8,2.6
2020,10,7,20:00,UTC,2,1011.8,93,0,-1,11.9,10.7,40181,120,4,3.2
2020,10,7,21:00,UTC,7,1011.8,93,0,-1,12.6,11.5,34806,119,4.5,3.2
2020,10,7,22:00,UTC,8,1011.7,88,0,-1,13.3,11.4,39165,146,6.9,4.6
2020,10,7,23:00,UTC,8,1012.3,92,0,-1,12.6,11.4,33422,164,5,3.8
2020,10,8,00:00,UTC,8,1011.9,96,0,-1,12.1,11.5,26604,120,4.1,3
2020,10,8,01:00,UTC,8,1012,95,0,-1,12.4,11.6,27043,139,4.7,3.8
2020,10,8,02:00,UTC,7,1012,94,0,-1,12.5,11.5,25096,152,5.1,3.7
2020,10,8,03:00,UTC,8,1012,98,4.2,-1,12.1,11.8,9333,158,4,3.1
2020,10,8,04:00,UTC,8,1012,98,0,-1,12.2,11.9,10539,159,4.8,3.8
2020,10,8,05:00,UTC,8,1011.9,98,0,-1,12.3,12,12227,178,4.4,3.2
2020,10,8,06:00,UTC,8,1012.3,98,0,-1,12.5,12.1,15595,164,5.3,3.5
2020,10,8,07:00,UTC,8,1012.8,96,0,-1,12.5,11.8,16471,167,6.2,4.4
2020,10,8,08:00,UTC,8,1012.9,95,0,-1,12.8,12,22030,196,6.6,4.5
2020,10,8,09:00,UTC,8,1013.1,92,0,-1,12.3,11,26150,190,8.1,5.7
2020,10,8,10:00,UTC,7,1013.1,92,0,-1,12.9,11.6,28606,173,6.3,4.4
2020,10,8,11:00,UTC,7,1013.1,86,0,-1,13.3,11.1,42369,181,7.2,4.8
2020,10,8,12:00,UTC,7,1012.9,88,0,-1,13.6,11.7,30843,169,6.7,4.9
2020,10,8,13:00,UTC,7,1012.7,79,0,-1,15,11.3,52983,200,9.1,6
2020,10,8,14:00,UTC,5,1012.8,82,0,-1,14,10.9,51673,173,6.4,4.5
2020,10,8,15:00,UTC,8,1012.8,84,0,-1,13.5,10.9,42644,156,5.3,4
2020,10,8,16:00,UTC,8,1013,93,0.8,-1,12.7,11.7,38479,187,4,2.7
2020,10,8,17:00,UTC,8,1012.9,96,0,-1,12.3,11.6,30449,164,4.1,3
2020,10,8,18:00,UTC,8,1012.9,89,1.7,-1,12.8,11.1,16246,191,10,6.9
2020,10,8,19:00,UTC,7,1013.1,89,0,-1,12.6,10.8,40416,196,8.8,6
2020,10,8,20:00,UTC,8,1013.1,91,0,-1,12.5,11,40036,187,6.7,5.3
2020,10,8,21:00,UTC,7,1013.1,92,0,-1,12.5,11.1,31516,183,5.5,4
2020,10,8,22:00,UTC,8,1012.7,92,0,-1,12.6,11.3,31205,183,6.4,4.3
2020,10,8,23:00,UTC,7,1012.3,91,0,-1,12.7,11.3,40110,195,7.7,5.4
2020,10,9,00:00,UTC,7,1012.1,92,0,-1,12.5,11.1,41188,177,6.3,4.3
2020,10,9,01:00,UTC,8,1011.8,92,0,-1,12.2,11,42746,174,8.1,5.5
2020,10,9,02:00,UTC,8,1011.2,92,0,-1,12.1,10.8,42092,169,9.1,5.7
2020,10,9,03:00,UTC,8,1011.1,91,0,-1,12,10.5,41635,184,7.9,5.5
2020,10,9,04:00,UTC,8,1010.9,92,0,-1,11.8,10.6,38870,173,7.5,5.3
2020,10,9,05:00,UTC,8,1010.9,91,0,-1,11.6,10.2,36885,186,8.8,5.4
2020,10,9,06:00,UTC,8,1010.8,92,,-1,11.6,10.3,33819,172,6.4,4.8
2020,10,9,07:00,UTC,8,1010.7,90,0,-1,11.8,10.2,35811,177,7.7,5.2
2020,10,9,08:00,UTC,8,1010.7,87,0,-1,12.1,10.1,40585,182,7.5,5.4
2020,10,9,09:00,UTC,8,1010.5,88,0,-1,11.8,9.9,37812,176,8.9,5.7
2020,10,9,10:00,UTC,7,1010.1,86,0,-1,11.8,9.5,37122,162,10,6.5
2020,10,9,11:00,UTC,7,1009.4,82,0,-1,12.3,9.4,44725,150,8.1,6.5
2020,10,9,12:00,UTC,8,1008.9,84,0,-1,12.1,9.5,19744,141,9.1,6.7
2020,10,9,13:00,UTC,8,1008.3,94,0.7,-1,11.4,10.5,6353,140,7.3,5.4
2020,10,9,14:00,UTC,8,1008,93,2.1,-1,11.8,10.7,5043,163,7.8,5.5
2020,10,9,15:00,UTC,8,1007.7,95,0.7,-1,11.8,11,5897,191,11.5,7.6
2020,10,9,16:00,UTC,8,1008.4,95,0.1,-1,12.1,11.4,32078,205,9.7,6.9
2020,10,9,17:00,UTC,5,1009,93,0,-1,11.5,10.4,48660,227,7.3,5.4
2020,10,9,18:00,UTC,0,1009.7,94,0,-1,9.6,8.7,52568,218,4.2,3.5
2020,10,9,19:00,UTC,1,1010.2,95,0,-1,9.1,8.4,36340,216,4.6,3.5
2020,10,9,20:00,UTC,0,1010.7,92,0,-1,9,7.7,51270,219,5,3.7
2020,10,9,21:00,UTC,6,1011,90,0,-1,9.3,7.7,53806,211,4.8,3.8
2020,10,9,22:00,UTC,7,1011.1,85,0,-1,9.9,7.6,56362,198,5.8,4.3
2020,10,9,23:00,UTC,7,1011.4,84,0,-1,10.1,7.6,54504,204,5.5,4.3
2020,10,10,00:00,UTC,8,1011.7,82,0,-1,10.6,7.7,57461,209,5,3.9
2020,10,10,01:00,UTC,0,1012.1,85,0,-1,8.8,6.4,57245,225,5.3,4.2
2020,10,10,02:00,UTC,0,1012.4,86,0,-1,8.2,6.1,54834,209,4.3,3.5
2020,10,10,03:00,UTC,0,1013,84,0,-1,8.7,6.2,51944,209,5.3,4.5
2020,10,10,04:00,UTC,6,1013.4,87,0,-1,8.4,6.4,50176,208,4.7,3.7
2020,10,10,05:00,UTC,1,1013.8,91,0,-1,7.3,5.9,50666,225,3,2.6
2020,10,10,06:00,UTC,0,1014.5,88,0,-1,8.8,6.9,50706,224,4.2,3.2
2020,10,10,07:00,UTC,1,1015.1,82,0,-1,10.7,7.8,53481,224,5.6,4.1
2020,10,10,08:00,UTC,0,1015.5,76,0,-1,12,7.9,55458,230,7,5
2020,10,10,09:00,UTC,0,1015.8,72,0,-1,13.1,8.1,56876,229,8.6,5.5
2020,10,10,10:00,UTC,4,1016.1,68,0,-1,13.3,7.5,53734,236,5.8,4.2
2020,10,10,11:00,UTC,3,1016.3,73,0,-1,13.1,8.3,58796,221,6.7,4.1
2020,10,10,12:00,UTC,2,1016.4,70,0,-1,13.4,8,55721,214,5.7,3.9
2020,10,10,13:00,UTC,2,1016.5,76,0,-1,12.9,8.8,54805,195,8.3,6.4
2020,10,10,14:00,UTC,1,1016.5,76,0,-1,12.6,8.4,48938,197,6.2,5
2020,10,10,15:00,UTC,0,1016.6,81,0,-1,11.4,8.3,46858,195,4.7,3.8
2020,10,10,16:00,UTC,7,1016.8,89,0,-1,9.9,8.1,45062,164,3.4,2.6
2020,10,10,17:00,UTC,7,1016.8,86,0,-1,10.8,8.6,43238,146,4.3,3.4
2020,10,10,18:00,UTC,7,1016.9,91,0,-1,11.2,9.7,38286,167,5,3.7
2020,10,10,19:00,UTC,7,1016.9,92,0,-1,10.7,9.5,41657,169,5.8,4
2020,10,10,20:00,UTC,6,1016.8,93,0,-1,9.8,8.8,40222,131,3.1,2.5
2020,10,10,21:00,UTC,7,1016.6,94,0,-1,9.7,8.8,39549,130,3.9,2.8
2020,10,10,22:00,UTC,7,1016,96,0,-1,9.6,8.9,35498,91,3.8,2.4
2020,10,10,23:00,UTC,8,1015.6,95,0,-1,9.8,9.1,35752,98,4,3.1
2020,10,11,00:00,UTC,8,1015.3,93,0,-1,10.4,9.3,42323,99,3.8,2.9
2020,10,11,01:00,UTC,8,1014.7,90,0.1,-1,10.5,8.9,16942,120,5,3.5
2020,10,11,02:00,UTC,8,1014.4,95,1,-1,9.9,9.2,4526,144,6.5,4.5
2020,10,11,03:00,UTC,8,1014.1,96,0.4,-1,10,9.4,11894,122,5.8,3.7
2020,10,11,04:00,UTC,8,1013.8,97,0.8,-1,10.1,9.7,12686,131,4.6,3.3
2020,10,11,05:00,UTC,8,1013.8,98,1.7,-1,10.4,10.1,8432,141,4.1,2.9
2020,10,11,06:00,UTC,8,1014,98,0.8,-1,10.6,10.3,10698,204,3.9,3
2020,10,11,07:00,UTC,8,1014.3,98,0.6,-1,11,10.7,14257,202,2.9,2.1
2020,10,11,08:00,UTC,8,1014.7,93,0.3,-1,11.3,10.2,32177,199,3.9,2.8
2020,10,11,09:00,UTC,7,1014.8,93,0,-1,11.2,10.2,21049,199,4.7,3.5
2020,10,11,10:00,UTC,8,1014.9,90,0,-1,11.4,9.7,41173,212,4,2.9
2020,10,11,11:00,UTC,7,1014.9,88,0,-1,12.3,10.4,62266,235,3.5,1.9
2020,10,11,12:00,UTC,6,1015,74,0,-1,12.9,8.4,66880,240,5.5,4
2020,10,11,13:00,UTC,0,1015.2,68,0,-1,13.1,7.3,70177,244,4.9,3.2
2020,10,11,14:00,UTC,3,1015.5,73,0,-1,12.2,7.5,70691,266,4.2,2.9
2020,10,11,15:00,UTC,1,1015.8,75,0,-1,11.1,6.8,68908,246,3.5,2.1
2020,10,11,16:00,UTC,3,1016.2,84,0,-1,9.6,7,65391,210,3.1,2.5
2020,10,11,17:00,UTC,6,1016.3,93,0,-1,7.8,6.8,63849,20,1,0.4
2020,10,11,18:00,UTC,7,1016.3,98,0,-1,6.6,6.3,54932,256,1.6,1.4
2020,10,11,19:00,UTC,7,1016.5,99,0,-1,5.8,5.6,32677,238,0.9,0.6
2020,10,11,20:00,UTC,8,1016.3,99,0,-1,6,5.8,31988,271,0.6,0.4
2020,10,11,21:00,UTC,7,1016.1,99,0,-1,5.3,5.1,43024,5,1.6,1
2020,10,11,22:00,UTC,7,1016.1,99,0,-1,5,4.8,44784,131,0.8,0.6
2020,10,11,23:00,UTC,7,1015.8,99,0,-1,4.3,4.2,33507,34,1.2,1
2020,10,12,00:00,UTC,7,1015.4,100,0,-1,3.8,3.8,18712,20,1,0.8
2020,10,12,01:00,UTC,7,1014.9,99,0,-1,3.4,3.2,50757,52,1.3,1.2
2020,10,12,02:00,UTC,7,1014.4,100,0,-1,4.2,4.2,53160,63,1.7,1.5
2020,10,12,03:00,UTC,7,1013.9,98,0,-1,4.2,3.9,49244,72,1.8,1.5
2020,10,12,04:00,UTC,7,1013.5,98,0,-1,5,4.7,46470,103,3.6,2
2020,10,12,05:00,UTC,7,1013.3,97,0,-1,5.5,5.1,48963,98,2.1,1.7
2020,10,12,06:00,UTC,5,1012.9,97,0,-1,6.3,6,48786,105,1.6,0.9
2020,10,12,07:00,UTC,8,1012.8,96,0,-1,8.5,7.9,43550,159,3.5,3
2020,10,12,08:00,UTC,3,1012.7,89,0,-1,10.5,8.7,58017,182,4.6,3
2020,10,12,09:00,UTC,6,1012.2,78,0,-1,11.6,7.9,62460,177,8.4,5.9
2020,10,12,10:00,UTC,5,1011.9,74,0,-1,12.2,7.6,66924,198,7.6,5.9
2020,10,12,11:00,UTC,7,1011.4,70,0,-1,12.6,7.2,66252,191,9.7,6.8
2020,10,12,12:00,UTC,8,1011.3,77,0,-1,11.6,7.8,61725,196,10.4,7
2020,10,12,13:00,UTC,5,1011.3,78,0,-1,11.5,7.7,62033,197,9.7,6.3
2020,10,12,14:00,UTC,6,1011.2,74,0,-1,11.3,6.9,63479,203,10.4,7.8
2020,10,12,15:00,UTC,7,1011.5,86,0,-1,9.6,7.3,43273,240,6.2,3.9
2020,10,12,16:00,UTC,7,1011.4,86,0,-1,9.6,7.3,63677,185,5.8,3.9
2020,10,12,17:00,UTC,7,1011.6,92,0,-1,8.9,7.7,54628,175,4.3,2.8
2020,10,12,18:00,UTC,7,1011.5,94,0,-1,8.8,7.8,52964,179,3.7,2.5
2020,10,12,19:00,UTC,7,1011.6,89,0,-1,9.3,7.6,62764,203,4,3.1
2020,10,12,20:00,UTC,7,1011.7,95,0,-1,8.4,7.7,59648,184,3.7,2.8
2020,10,12,21:00,UTC,7,1011.7,90,0,-1,8.7,7.2,63832,210,3.5,2.5
2020,10,12,22:00,UTC,8,1012,89,0,-1,8.9,7.2,61268,200,3.2,2.6
2020,10,12,23:00,UTC,7,1012.1,90,0,-1,8.3,6.7,64626,216,2.7,2.1
2020,10,13,00:00,UTC,7,1012.1,94,0,-1,6.8,6,71008,193,2.9,2.3
2020,10,13,01:00,UTC,7,1012.3,92,0,-1,7,5.8,63501,225,2.7,2.3
2020,10,13,02:00,UTC,7,1012.2,99,0,-1,5.7,5.5,71667,120,1.4,0.9
2020,10,13,03:00,UTC,8,1012.2,99,0,-1,5.6,5.5,65267,352,0.8,0.7
2020,10,13,04:00,UTC,8,1012.3,99,0,-1,5.8,5.6,65133,83,2.1,0.8
2020,10,13,05:00,UTC,8,1012.6,99,0,-1,5.6,5.4,53722,287,1.3,0.4
2020,10,13,06:00,UTC,5,1013,100,0,-1,5.8,5.8,45457,29,0.9,0.5
2020,10,13,07:00,UTC,8,1013.2,95,0,-1,7.8,7.1,52403,138,0.8,0.4
2020,10,13,08:00,UTC,7,1013.5,79,0,-1,9.1,5.6,60742,225,2.7,1.7
2020,10,13,09:00,UTC,7,1014,73,0,-1,9.9,5.3,69692,260,3.6,2.5
2020,10,13,10:00,UTC,8,1014.2,69,0,-1,10,4.5,71512,245,4.3,2.5
2020,10,13,11:00,UTC,6,1014.4,62,0,-1,10.6,3.6,66795,248,3.8,1.9
2020,10,13,12:00,UTC,7,1014.6,66,0,-1,10.5,4.5,72664,251,3.1,2.2
2020,10,13,13:00,UTC,6,1015.1,61,0,-1,10.4,3.2,75000,229,2.9,2.1
2020,10,13,14:00,UTC,8,1015.5,64,0,-1,10.4,3.9,72876,248,4.3,2.7
2020,10,13,15:00,UTC,0,1016.4,82,0,-1,8.3,5.4,71845,322,4.8,3.5
2020,10,13,16:00,UTC,6,1017.2,93,0,-1,6.3,5.2,57994,332,1.7,1.4
2020,10,13,17:00,UTC,5,1018,99,0,-1,4.9,4.7,58099,305,1.7,1.5
2020,10,13,18:00,UTC,0,1018.5,98,0,-1,4.9,4.6,62227,335,3.2,2.8
2020,10,13,19:00,UTC,0,1019.1,99,0,-1,4.5,4.3,57701,335,3.6,3
2020,10,13,20:00,UTC,0,1019.6,96,0,-1,4.9,4.4,60365,349,4.9,3.4
2020,10,13,21:00,UTC,0,1020.6,98,0,-1,3.6,3.4,56722,337,3.3,2.8
2020,10,13,22:00,UTC,0,1020.9,99,0,-1,3.5,3.3,53384,345,3.9,3.3
2020,10,13,23:00,UTC,0,1021.1,98,0,-1,3.7,3.5,46401,348,5.1,3.7
2020,10,14,00:00,UTC,4,1021.8,99,0,-1,3.5,3.3,4012,345,5,3.6
2020,10,14,01:00,UTC,7,1022.1,100,0,-1,3.7,3.7,9064,349,2.7,1.8
2020,10,14,02:00,UTC,0,1022.3,100,0,-1,1.8,1.8,24119,354,2.2,1.8
2020,10,14,03:00,UTC,1,1022.4,100,0,-1,3.4,3.3,36997,351,4.1,3.4
2020,10,14,04:00,UTC,8,1022.6,98,0,-1,4.8,4.6,49851,6,4.4,3.3
2020,10,14,05:00,UTC,8,1022.9,98,0,-1,5.2,4.9,39022,10,5.6,3.5
2020,10,14,06:00,UTC,8,1023.3,98,0,-1,5.3,5,37153,13,3.8,2.6
2020,10,14,07:00,UTC,8,1023.5,97,0,-1,5.9,5.5,47591,13,5.7,3.9
2020,10,14,08:00,UTC,8,1023.7,93,0,-1,6.2,5.2,65955,33,6.3,4.2
2020,10,14,09:00,UTC,,1023.6,91,0,-1,7.5,6.2,69812,48,5.4,3.8
2020,10,14,10:00,UTC,7,1023.6,84,0,-1,8.1,5.6,65355,54,7.1,4.8
2020,10,14,11:00,UTC,6,1023.3,73,0,-1,9.4,4.8,65579,47,7.2,4.9
2020,10,14,12:00,UTC,8,1023.2,80,0,-1,8.6,5.4,71689,25,8.7,5.6
2020,10,14,13:00,UTC,8,1023,76,0,-1,8.8,4.8,75000,14,7.1,5
2020,10,14,14:00,UTC,7,1022.7,79,0,-1,8.5,5,66307,25,6.5,4.4
2020,10,14,15:00,UTC,7,1022.4,81,0,-1,7.9,4.8,65567,28,5.9,4
2020,10,14,16:00,UTC,5,1022.5,84,0,-1,7.2,4.6,68369,17,6,3.7
2020,10,14,17:00,UTC,8,1022.3,86,0,-1,7,4.7,64838,14,6.9,5.1
2020,10,14,18:00,UTC,8,1021.9,85,0,-1,6.9,4.6,61145,21,7.3,5
2020,10,14,19:00,UTC,7,1021.8,88,0,-1,6.2,4.4,55831,6,6.4,4.3
2020,10,14,20:00,UTC,7,1021.6,88,0,-1,6.1,4.3,59083,11,6.5,4.7
2020,10,14,21:00,UTC,8,1021.4,87,0,-1,6.2,4.1,62137,14,7,4.6
2020,10,14,22:00,UTC,8,1020.9,88,0,-1,5.9,4,60612,17,6.3,4.2
2020,10,14,23:00,UTC,7,1020.5,91,0,-1,5.2,3.8,56471,3,6.6,4.5
2020,10,15,00:00,UTC,8,1020.2,93,0,-1,4.8,3.7,55652,2,8.4,5.8
2020,10,15,01:00,UTC,8,1019.6,91,0,-1,4.7,3.4,55028,7,7.9,5.3
2020,10,15,02:00,UTC,7,1019.1,91,0,-1,4.2,2.9,56840,13,6.7,4.4
2020,10,15,03:00,UTC,7,1018.7,93,0,-1,4.1,3,52585,5,7.7,5.2
2020,10,15,04:00,UTC,8,1018.5,93,0,-1,4,3,12566,358,6.5,4
2020,10,15,05:00,UTC,8,1018.5,93,0,-1,3.6,2.5,22308,355,5.8,3.9
2020,10,15,06:00,UTC,8,1018.6,91,0,-1,3.2,1.9,32792,354,7.3,5
2020,10,15,07:00,UTC,8,1018.5,88,0,-1,3.5,1.7,28906,359,6.2,3.9
2020,10,15,08:00,UTC,4,1018.3,82,0,-1,4.3,1.5,62639,9,7.6,5
2020,10,15,09:00,UTC,0,1017.9,69,0,-1,5.2,0,50471,10,7.6,4.7
2020,10,15,10:00,UTC,1,1018,69,0,-1,6,0.7,44944,5,6.9,4.1
2020,10,15,11:00,UTC,0,1017.7,67,0,-1,6.5,0.7,39108,352,7.4,4.9
2020,10,15,12:00,UTC,0,1017.4,67,0,-1,7,1.3,61270,4,7.6,5.5
2020,10,15,13:00,UTC,0,1017,71,0,-1,6.3,1.5,70501,345,8.2,4.7
2020,10,15,14:00,UTC,3,1017,76,0,-1,5.5,1.6,30029,346,7.6,5.4
2020,10,15,15:00,UTC,0,1017.2,82,,,4.5,1.7,34029,348,4.2,3
2020,10,15,16:00,UTC,1,1017.2,89,0,-1,3.3,1.6,62284,311,4.1,3
2020,10,15,17:00,UTC,7,1016.9,91,0,-1,3.2,1.9,61987,315,5.1,3.6
2020,10,15,18:00,UTC,7,1016.8,90,0,-1,3.8,2.4,60677,321,4,2.9
2020,10,15,19:00,UTC,7,1016.8,88,0,-1,4,2.2,66201,328,3.8,2.8
2020,10,15,20:00,UTC,7,1016.8,87,0,-1,4,2,67421,331,3.3,2.4
2020,10,15,21:00,UTC,7,1016.8,86,0,-1,4.1,2,70262,320,3,2.3
2020,10,15,22:00,UTC,8,1017,88,0,-1,3.9,2.1,69921,318,4,3.1
2020,10,15,23:00,UTC,7,1017.1,89,0,-1,3.4,1.8,71915,324,3.6,2.6
2020,10,16,00:00,UTC,7,1017.4,90,0,-1,3.1,1.6,70196,322,3.5,2.6
2020,10,16,01:00,UTC,8,1017.4,86,0,-1,2.9,0.7,73257,327,4,2.5
2020,10,16,02:00,UTC,4,1017.5,88,0,-1,1.8,0,75000,322,3.6,2.6
2020,10,16,03:00,UTC,0,1017.7,91,0,-1,1.4,0.1,73247,326,4.3,3.1
2020,10,16,04:00,UTC,0,1018.1,95,0,-1,0.5,-0.3,58323,313,3.9,3.1
2020,10,16,05:00,UTC,0,1018.4,96,0,-1,0.1,-0.5,56348,325,4,3.3
2020,10,16,06:00,UTC,0,1019.1,95,0,-1,0.8,0.1,57070,328,3.5,2.7
2020,10,16,07:00,UTC,0,1019.4,90,0,-1,2.2,0.7,43648,345,4.1,3
2020,10,16,08:00,UTC,0,1019.8,81,0,-1,4.1,1.1,61013,352,6.3,4.7
2020,10,16,09:00,UTC,0,1020.2,71,0,-1,5.1,0.2,46161,351,6.5,4.3
2020,10,16,10:00,UTC,0,1020.1,64,0,-1,6.4,0,42849,344,7.1,5
2020,10,16,11:00,UTC,6,1020.2,66,0,-1,5.9,0,61279,357,6.9,4.9
2020,10,16,12:00,UTC,7,1020.3,62,0,-1,6.6,-0.1,71708,336,7.9,5.3
2020,10,16,13:00,UTC,7,1020.4,70,0,-1,6,0.9,61127,325,7.2,5.3
2020,10,16,14:00,UTC,7,1020.5,68,0,-1,5.8,0.4,72732,347,6.2,4.6
2020,10,16,15:00,UTC,7,1020.5,76,0,-1,5.1,1.3,69026,311,4,2.8
2020,10,16,16:00,UTC,0,1020.7,89,0,-1,2.6,0.9,65633,291,2.4,1.9
2020,10,16,17:00,UTC,3,1021.2,94,0,-1,1.3,0.4,57662,307,2.8,2
2020,10,16,18:00,UTC,0,1021.3,92,0,-1,0.8,-0.4,54308,255,2.2,1.8
2020,10,16,19:00,UTC,0,1021.5,98,0,-1,-0.2,-0.5,34761,246,1.8,1.4
2020,10,16,20:00,UTC,0,1021.3,98,0,-1,-1.4,-1.6,24781,275,1.8,1.2
2020,10,16,21:00,UTC,0,1021.4,97,0,-1,-2.3,-2.7,15826,273,1.9,1.5
2020,10,16,22:00,UTC,0,1021,98,0,-1,-2.7,-3.1,16158,279,1.6,1.1
2020,10,16,23:00,UTC,7,1020.9,97,0,-1,-2.2,-2.6,26832,281,2.2,1.7
2020,10,17,00:00,UTC,7,1020.5,98,0,-1,-0.5,-0.7,40242,254,1.6,1
2020,10,17,01:00,UTC,4,1020,96,0,-1,-0.9,-1.5,39719,247,1.6,1.4
2020,10,17,02:00,UTC,0,1019.4,98,0,-1,-1.9,-2.2,42758,239,1.8,1.2
2020,10,17,03:00,UTC,0,1019.1,96,0,-1,-2.5,-3,42252,243,1.1,0.8
2020,10,17,04:00,UTC,0,1018.4,97,0,-1,-2.7,-3.1,43955,227,1.7,1.2
2020,10,17,05:00,UTC,0,1017.7,96,0,-1,-2.9,-3.4,51344,227,2.2,1.5
2020,10,17,06:00,UTC,0,1017.2,97,0,-1,-0.2,-0.6,61012,240,2.2,1.5
2020,10,17,07:00,UTC,3,1016.4,90,0,-1,2.9,1.4,67046,242,3.4,2
2020,10,17,08:00,UTC,7,1015.7,78,0,-1,6.5,2.9,73906,228,7.1,5.2
2020,10,17,09:00,UTC,8,1015.1,76,0,-1,7.6,3.6,74422,234,8.4,6.4
2020,10,17,10:00,UTC,8,1014.2,71,0,-1,8.4,3.4,74325,237,8,5.6
2020,10,17,11:00,UTC,8,1013,67,0,-1,9.2,3.3,75000,234,7.5,5
2020,10,17,12:00,UTC,8,1012.1,83,0,-1,7.9,5.1,21483,239,7.2,4.9
2020,10,17,13:00,UTC,8,1011,77,0,-1,8.2,4.5,75000,250,7.1,5.4
2020,10,17,14:00,UTC,8,1010.2,72,0,-1,8.1,3.4,74943,234,7.4,5.1
2020,10,17,15:00,UTC,8,1009.4,71,0,-1,8,3,75000,234,8.3,5.6
2020,10,17,16:00,UTC,8,1008.4,67,0,-1,8.1,2.4,72893,218,7.8,5.2
2020,10,17,17:00,UTC,8,1007.5,69,0,-1,8.1,2.6,72469,213,7.5,5
2020,10,17,18:00,UTC,8,1006.5,74,0,-1,8.2,3.7,71260,216,5.9,4.4
2020,10,17,19:00,UTC,8,1005.6,76,0,-1,8.4,4.5,69695,214,7.6,5.4
2020,10,17,20:00,UTC,8,1004.4,83,0,-1,8.2,5.4,71267,206,7.9,6
2020,10,17,21:00,UTC,8,1003.3,92,0,-1,7.6,6.4,16053,213,4.3,3.3
2020,10,17,22:00,UTC,8,1002,93,0,-1,7.6,6.5,31219,204,5.3,4.1
2020,10,17,23:00,UTC,8,1000.8,91,0,-1,8,6.6,55892,195,6.2,4.6
2020,10,18,00:00,UTC,8,999.5,92,0,-1,7.9,6.7,61836,201,4.3,3.3
2020,10,18,01:00,UTC,7,998.2,88,0,-1,7.8,6,63199,209,4.6,3.3
2020,10,18,02:00,UTC,8,997,95,0,-1,6.8,6,15487,231,3.5,2.1
2020,10,18,03:00,UTC,8,996.4,95,0,-1,6.1,5.3,23367,292,3.8,2.8
2020,10,18,04:00,UTC,8,996.1,93,1.1,-1,4.3,3.3,14537,340,7.1,5.1
2020,10,18,05:00,UTC,8,995.4,95,0.7,-1,3.6,2.9,34361,303,2.9,2.1
2020,10,18,06:00,UTC,8,994.9,96,0,-1,3.7,3,73107,221,2.5,1.7
2020,10,18,07:00,UTC,8,994.8,92,0,-1,4.2,2.9,75000,254,3.8,2.6
2020,10,18,08:00,UTC,4,994.6,91,0,-1,4,2.6,65068,271,4.7,3.7
2020,10,18,09:00,UTC,3,994.1,85,0,-1,4.3,2,69256,282,5,3.2
2020,10,18,10:00,UTC,7,993.8,81,0,-1,5.1,2.1,68403,274,4.7,3.6
2020,10,18,11:00,UTC,5,993.5,72,0,-1,5.9,1.2,66965,280,7.1,4.7
2020,10,18,12:00,UTC,0,993.3,69,0,-1,5,-0.1,68771,272,7.4,5.5
2020,10,18,13:00,UTC,1,993.2,66,0,-1,5,-0.9,70825,271,5,3.5
2020,10,18,14:00,UTC,4,993.5,69,0,-1,4.1,-1,72625,287,4.2,3.1
2020,10,18,15:00,UTC,8,993.7,73,0,-1,3.7,-0.7,75000,260,5.9,4.2
2020,10,18,16:00,UTC,6,994.1,82,0,-1,2.3,-0.5,73713,270,5.7,4.2
2020,10,18,17:00,UTC,5,994.5,88,0,-1,1.5,-0.2,68016,255,3.5,2.5
2020,10,18,18:00,UTC,4,994.8,92,0,-1,1.2,0,23369,270,5.3,3.7
2020,10,18,19:00,UTC,6,995.1,90,0,-1,1.2,-0.2,71159,273,6.1,4.3
2020,10,18,20:00,UTC,7,995.3,83,0,-1,1.6,-0.9,75000,273,6.5,4.4
2020,10,18,21:00,UTC,8,995.4,84,0,-1,1.5,-0.8,71791,274,5.5,3.6
2020,10,18,22:00,UTC,8,995.5,84,0,-1,1.6,-0.8,73794,286,6,4.2
2020,10,18,23:00,UTC,8,995.8,82,0,-1,1.5,-1.2,75000,274,8.6,5.9
2020,10,19,00:00,UTC,8,996.2,87,0,-1,1.5,-0.4,37201,265,6.4,3.7
2020,10,19,01:00,UTC,8,996.5,89,0,-1,1.4,-0.2,44864,275,6.2,4.4
2020,10,19,02:00,UTC,8,996.6,89,0,-1,1.4,-0.2,48058,271,7.3,4.8
2020,10,19,03:00,UTC,8,996.7,86,0,-1,1.6,-0.5,65966,245,6.3,3.4
2020,10,19,04:00,UTC,8,996.6,93,0.3,-1,1.1,0.1,17236,244,4,2.9
2020,10,19,05:00,UTC,8,996.5,96,0.2,-1,0.7,0.2,8425,242,4.4,3.2
2020,10,19,06:00,UTC,7,996.8,93,0,0,0.9,-0.1,29283,277,6.8,4.3
2020,10,19,07:00,UTC,7,997.2,94,0,0,1.1,0.2,56578,289,5.8,4.1
2020,10,19,08:00,UTC,7,998,91,0,0,1.7,0.4,68407,294,7.1,5
2020,10,19,09:00,UTC,8,999,86,0,0,1.7,-0.4,34713,324,8.5,5.6
2020,10,19,10:00,UTC,6,999.9,83,0,0,2.2,-0.5,69814,309,8.4,5.8
2020,10,19,11:00,UTC,8,1000.9,88,0,0,1.7,0,47374,333,6.8,4.7
2020,10,19,12:00,UTC,2,1001.7,81,0,0,2.8,-0.2,71060,323,6.6,4.9
2020,10,19,13:00,UTC,5,1002.6,80,0,0,2.6,-0.5,64890,299,6.2,4.1
2020,10,19,14:00,UTC,6,1003.5,83,0,0,2.2,-0.4,72555,318,6.5,3.9
2020,10,19,15:00,UTC,7,1004.3,88,0,0,1.4,-0.4,25158,313,6.8,4.5
2020,10,19,16:00,UTC,7,1004.8,91,0,0,1.1,-0.1,68641,303,6.5,4.3
2020,10,19,17:00,UTC,6,1005.3,95,0,0,0.4,-0.4,66285,301,6.8,4
2020,10,19,18:00,UTC,7,1005.8,94,0,0,0.7,-0.2,22821,288,5.1,3.8
2020,10,19,19:00,UTC,8,1006.7,93,0,0,1.2,0.2,33345,300,6.7,4.1
2020,10,19,20:00,UTC,8,1007.7,86,0,0,1.7,-0.4,64977,319,7.7,4.5
2020,10,19,21:00,UTC,7,1008.5,92,0,0,1.2,0,31130,305,6.6,4.1
2020,10,19,22:00,UTC,4,1009.2,95,0,0,0.9,0.1,56530,321,5.8,4
2020,10,19,23:00,UTC,7,1010,93,0,0,0.8,-0.2,62145,313,6,4.7
2020,10,20,00:00,UTC,3,1010.8,92,0,0,0.8,-0.3,66311,324,5.4,4.3
2020,10,20,01:00,UTC,6,1011.8,90,0,0,0.8,-0.6,72424,320,6.5,3.7
2020,10,20,02:00,UTC,7,1012.7,89,0,0,0.8,-0.8,70981,326,7,4.4
2020,10,20,03:00,UTC,1,1013.9,94,0,0,-0.2,-1.1,65960,308,5.5,4.2
2020,10,20,04:00,UTC,2,1014.8,94,0,0,-0.6,-1.5,64896,301,5,3.8
2020,10,20,05:00,UTC,0,1015.5,93,0,0,-1,-1.9,65390,275,4.1,3.2
2020,10,20,06:00,UTC,0,1016.2,92,0,0,-0.9,-2,67071,312,4.6,3.2
2020,10,20,07:00,UTC,0,1016.8,86,0,0,0.4,-1.6,63590,327,5.1,3.5
2020,10,20,08:00,UTC,0,1017.3,77,0,0,1.5,-2.1,55664,334,6.4,4.3
2020,10,20,09:00,UTC,1,1018.3,74,0,0,2.6,-1.5,63907,316,5.6,3.6
2020,10,20,10:00,UTC,8,1018.9,77,0,0,2.2,-1.4,65372,283,4.9,3.5
2020,10,20,11:00,UTC,8,1019.3,77,0,0,1.6,-2,64364,294,4.7,3.1
2020,10,20,12:00,UTC,8,1019.5,79,0,0,1.4,-1.9,62683,308,3.7,2.2
2020,10,20,13:00,UTC,8,1019.7,79,0,0,1.5,-1.7,63934,267,4.7,2.7
2020,10,20,14:00,UTC,8,1019.6,79,0,0,1.2,-2.1,65800,313,2.9,1.3
2020,10,20,15:00,UTC,8,1019.5,82,0,0,1,-1.8,66371,300,3.6,2.2
2020,10,20,16:00,UTC,8,1019.3,79,0,0,0.6,-2.6,64445,351,2.6,1.7
2020,10,20,17:00,UTC,7,1019.1,82,0,0,0.2,-2.6,62565,360,2.9,2
2020,10,20,18:00,UTC,0,1018.7,94,0,0,-1.8,-2.7,70553,30,1.7,1.2
2020,10,20,19:00,UTC,0,1018.6,95,0,0,-2.1,-2.8,63585,64,1.5,1.3
2020,10,20,20:00,UTC,8,1018.3,95,0,0,-1.9,-2.6,53517,82,1.4,1.1
2020,10,20,21:00,UTC,8,1017.7,93,0,0,-1.4,-2.4,57456,68,1.7,1.1
2020,10,20,22:00,UTC,8,1017.3,85,0,0,-0.5,-2.7,59875,82,3.7,2.6
2020,10,20,23:00,UTC,8,1016.6,84,0,0,-0.2,-2.6,63722,81,3.3,2.5
2020,10,21,00:00,UTC,8,1016.1,88,0,0,0,-1.8,26948,82,4.4,3
2020,10,21,01:00,UTC,8,1015.2,94,0.5,0,0.3,-0.5,14999,76,4.6,3.6
2020,10,21,02:00,UTC,8,1014.4,97,1.3,0,0.7,0.2,9128,83,6,4.3
2020,10,21,03:00,UTC,8,1013.5,98,0.3,0,1,0.7,13991,74,5.1,4.2
2020,10,21,04:00,UTC,8,1012.7,99,0.1,0,1.3,1.1,9021,78,4.1,3.1
2020,10,21,05:00,UTC,8,1012,99,0,0,1.8,1.7,10100,82,3.4,2.3
2020,10,21,06:00,UTC,8,1011.5,99,0.8,0,2.7,2.6,9842,95,4.2,2.8
2020,10,21,07:00,UTC,8,1011.2,96,0.4,0,4.8,4.2,50355,129,6.6,4.2
2020,10,21,08:00,UTC,8,1011,89,0,0,5.9,4.2,59311,148,8.2,5.9
2020,10,21,09:00,UTC,8,1010.7,87,0,0,6.2,4.2,51555,156,9,6.4
2020,10,21,10:00,UTC,8,1010.3,86,0,0,6.6,4.5,52835,146,8.9,6.3
2020,10,21,11:00,UTC,8,1010,90,0.1,0,6.5,5,29389,152,8.6,6.4
2020,10,21,12:00,UTC,8,1009.4,92,0,0,6.5,5.3,23201,144,7.1,5.1
2020,10,21,13:00,UTC,8,1009.3,89,0,0,6.7,4.9,39555,148,7.7,5.5
2020,10,21,14:00,UTC,8,1009.1,89,0,0,6.6,5,18762,140,6.7,5.2
2020,10,21,15:00,UTC,8,1008.7,96,0.1,0,6.2,5.6,6997,148,7.3,5.5
2020,10,21,16:00,UTC,8,1008.3,97,0,0,6.3,5.8,14262,137,7.6,5.5
2020,10,21,17:00,UTC,8,1007.8,97,0.3,0,6.6,6.1,10463,148,6.8,5.4
2020,10,21,18:00,UTC,8,1007.4,97,0,0,6.8,6.4,3210,155,8.4,5.9
2020,10,21,19:00,UTC,8,1006.9,98,0.2,0,7,6.7,2663,160,6.5,4.7
2020,10,21,20:00,UTC,8,1006.5,98,0.3,0,7.5,7.2,4513,157,6.6,5
2020,10,21,21:00,UTC,8,1006,99,0.8,0,7.9,7.7,2561,151,5.6,4.2
2020,10,21,22:00,UTC,8,1005.4,99,0.3,0,8.3,8.1,8831,162,5.6,4.3
2020,10,21,23:00,UTC,8,1004.8,98,0.4,0,8.5,8.3,2889,161,5.7,4.1
2020,10,22,00:00,UTC,9,1004,100,0,0,9,8.9,1038,171,7.3,4.5
2020,10,22,01:00,UTC,8,1003.3,99,0,0,9.5,9.3,3297,181,7,4.5
2020,10,22,02:00,UTC,8,1002.4,99,0.9,0,9.5,9.4,3893,175,7,4.4
2020,10,22,03:00,UTC,9,1001.5,100,0,0,9.2,9.2,708,171,8.2,5.5
2020,10,22,04:00,UTC,8,1000.5,99,0.7,0,9.2,9,3687,164,7.5,5.5
2020,10,22,05:00,UTC,8,999.5,98,0.2,0,9.1,8.8,7073,161,8.6,6
2020,10,22,06:00,UTC,8,998.7,97,0.8,0,9,8.6,7123,161,7.3,5.2
2020,10,22,07:00,UTC,8,998.1,97,2.5,0,8.7,8.3,4664,147,6.7,4.6
2020,10,22,08:00,UTC,8,997.1,98,,,8.8,8.4,8254,141,8.2,5.7
2020,10,22,09:00,UTC,8,996.1,97,1.9,0,8.9,8.5,18013,138,6.7,4.6
2020,10,22,10:00,UTC,8,994.9,98,0.7,0,9.3,8.9,16328,148,6.2,4.7
2020,10,22,11:00,UTC,8,993.7,97,0.2,0,9.3,8.9,7756,142,6.4,4.9
2020,10,22,12:00,UTC,8,992.7,98,0.8,0,9.5,9.2,6589,140,6.7,5
2020,10,22,13:00,UTC,8,991.9,98,0.3,0,9.8,9.4,4364,138,7.1,5.4
2020,10,22,14:00,UTC,8,991.1,99,0.1,0,9.9,9.8,2462,141,4.6,3.6
2020,10,22,15:00,UTC,8,990.8,99,0,0,10.4,10.3,9465,154,4,2.8
2020,10,22,16:00,UTC,9,990.9,100,1.7,0,10.9,10.9,492,207,3.5,2.6
2020,10,22,17:00,UTC,8,991.2,100,0.7,0,11.1,11.1,4619,236,4.4,3.2
2020,10,22,18:00,UTC,8,992.1,95,0,0,10.6,9.9,54264,295,9.9,7
2020,10,22,19:00,UTC,8,993.9,95,0,0,9.6,8.8,75000,290,9.8,6.6
2020,10,22,20:00,UTC,8,994.9,95,0,0,9.2,8.5,73276,289,7.5,5.7
2020,10,22,21:00,UTC,8,996.1,95,0,0,9.5,8.8,55319,256,7.6,4.7
2020,10,22,22:00,UTC,8,996.4,95,0,0,9.6,8.8,70598,248,5.5,4
2020,10,22,23:00,UTC,8,996.5,95,0,0,9.5,8.8,70930,236,3.8,2.9
2020,10,23,00:00,UTC,8,996.1,96,0,0,9.7,9,55113,221,4.1,2.8
2020,10,23,01:00,UTC,8,995.3,97,1.3,0,9.6,9.1,18940,198,5,3.4
2020,10,23,02:00,UTC,8,994.3,99,0,0,9.4,9.2,15689,171,3.9,2.8
2020,10,23,03:00,UTC,8,993.6,98,0.1,0,10.5,10.1,21870,228,6.8,4.9
2020,10,23,04:00,UTC,7,992.9,97,0.1,0,10.7,10.2,47998,222,7.5,5.7
2020,10,23,05:00,UTC,7,992.7,94,0,0,10.8,9.9,48044,236,9,5.7
2020,10,23,06:00,UTC,7,992.7,91,0,0,10.7,9.3,55899,236,8.4,5.8
2020,10,23,07:00,UTC,7,992.5,90,0,0,10.7,9.1,50349,231,8,5.7
2020,10,23,08:00,UTC,8,992.5,89,0,0,10.8,9,34768,241,8.9,6.3
2020,10,23,09:00,UTC,7,992.7,90,0,0,10.6,9,58100,257,8.4,5.9
2020,10,23,10:00,UTC,6,993.6,83,0,0,10.1,7.4,75000,288,9.4,6.5
2020,10,23,11:00,UTC,8,994.5,82,,0,8.4,5.6,67141,301,10.8,7.4
2020,10,23,12:00,UTC,7,995.2,83,0,0,7.8,5,11531,305,10.7,8
2020,10,23,13:00,UTC,7,996.7,84,0,0,6.9,4.3,51957,300,10.8,7
2020,10,23,14:00,UTC,7,997.8,84,0,0,6.2,3.7,71458,310,11.2,6.8
2020,10,23,15:00,UTC,8,999,88,0,0,5.7,3.8,29750,302,6.6,4.5
2020,10,23,16:00,UTC,8,1000.1,88,0,0,5.2,3.4,61605,312,7.1,4.7
2020,10,23,17:00,UTC,6,1000.9,90,0,0,4.5,3,32821,328,5.5,4.3
2020,10,23,18:00,UTC,7,1001.7,89,0,0,4,2.2,66633,327,6.3,4.3
2020,10,23,19:00,UTC,7,1002.5,88,0,0,3.2,1.4,64094,293,4.2,2.6
2020,10,23,20:00,UTC,7,1003.4,87,0,0,2.1,0.2,66539,304,6,4.4
2020,10,23,21:00,UTC,0,1004.1,91,0,0,0.9,-0.5,47314,276,3.4,2.6
2020,10,23,22:00,UTC,0,1004.6,94,0,0,-0.1,-1,66411,253,3.5,3
2020,10,23,23:00,UTC,0,1004.9,96,0,0,0,-0.6,59109,255,4.5,3.4
2020,10,24,00:00,UTC,0,1005,96,0,0,-0.2,-0.7,48330,254,4.2,3.2
2020,10,24,01:00,UTC,0,1005,97,0,0,-0.5,-1,50125,270,3.4,2.4
2020,10,24,02:00,UTC,0,1005.1,98,0,0,-1.9,-2.2,36946,225,3.5,3.1
2020,10,24,03:00,UTC,5,1005.2,96,0,0,-1.3,-1.8,53197,232,3.4,2.8
2020,10,24,04:00,UTC,8,1005.1,92,0,0,0.2,-0.9,60756,252,2.7,1.5
2020,10,24,05:00,UTC,7,1004.9,88,0,0,1,-0.7,65854,235,2.3,1.5
2020,10,24,06:00,UTC,7,1004.9,91,0,0,0.1,-1.1,68035,236,2.9,2
2020,10,24,07:00,UTC,3,1005,89,0,0,0.6,-0.9,61299,235,2.7,2
2020,10,24,08:00,UTC,0,1005.1,81,0,0,3,0,64598,249,1.9,1
2020,10,24,09:00,UTC,5,1005.1,74,0,0,4.8,0.6,66491,243,2.8,2
2020,10,24,10:00,UTC,7,1005.3,74,0,0,4.7,0.5,70817,229,2.2,1.5
2020,10,24,11:00,UTC,7,1005.3,70,0,0,5,0,69535,238,2,1.3
2020,10,24,12:00,UTC,6,1005.3,67,0,0,5.1,-0.5,67953,237,1,0.5
2020,10,24,13:00,UTC,7,1005,70,0,0,5,-0.1,72360,258,0.6,0.5
2020,10,24,14:00,UTC,8,1004.8,79,0,0,4.7,1.3,67496,36,1.2,0.8
2020,10,24,15:00,UTC,8,1004.6,88,0,0,4,2.2,52117,94,1.7,1.4
2020,10,24,16:00,UTC,8,1004.3,88,0,0,4,2.3,50658,113,1.7,1.1
2020,10,24,17:00,UTC,8,1004.1,88,0,0,4,2.2,35801,75,2.8,2.2
2020,10,24,18:00,UTC,8,1004,91,0,0,3.9,2.5,24256,63,3.4,2.7
2020,10,24,19:00,UTC,8,1004.1,88,0,0,3.9,2.1,54832,45,4.9,3.4
2020,10,24,20:00,UTC,8,1004.5,94,0,0,3.3,2.4,13042,31,6.4,4.5
2020,10,24,21:00,UTC,8,1004.5,97,0.3,0,3.3,2.9,15731,43,4.5,3.3
2020,10,24,22:00,UTC,8,1004.9,97,0,0,3,2.5,5424,62,6.6,4
2020,10,24,23:00,UTC,8,1005.6,97,0,0,3,2.5,27319,37,4.7,3.5
2020,10,25,00:00,UTC,8,1006.3,97,0,0,2.9,2.4,39962,36,4.3,2.8
2020,10,25,01:00,UTC,8,1006.6,95,0,0,3,2.3,57938,40,3.2,2.2
2020,10,25,02:00,UTC,8,1007.3,94,0,0,3.1,2.2,58526,355,1.6,1
2020,10,25,03:00,UTC,8,1007.9,95,0,0,3,2.3,59173,356,1.9,1.4
2020,10,25,04:00,UTC,8,1008.5,96,0,0,3.1,2.5,54820,338,1.4,1.1
2020,10,25,05:00,UTC,8,1009.2,96,0,0,3,2.4,51965,338,3.2,2.4
2020,10,25,06:00,UTC,8,1010.1,94,0,0,3.1,2.3,50670,331,2.8,2.2
2020,10,25,07:00,UTC,8,1010.4,90,0,0,3.7,2.2,48518,168,0.9,0.5
2020,10,25,08:00,UTC,8,1010.6,87,0,0,4.4,2.4,50283,93,0.8,0.3
2020,10,25,09:00,UTC,8,1011.4,87,0,0,4.7,2.7,44763,225,3.3,1.5
2020,10,25,10:00,UTC,8,1012,86,0,0,5,2.9,26902,202,2.3,1.4
2020,10,25,11:00,UTC,8,1012,89,0,0,5.2,3.6,13951,154,2.7,1.8
2020,10,25,12:00,UTC,8,1012,89,0,0,5.6,4,43453,211,2.1,1.1
2020,10,25,13:00,UTC,8,1011.8,89,0,0,5.8,4,47928,118,4.8,3.8
2020,10,25,14:00,UTC,8,1012,89,0,0,5.9,4.2,52343,126,3.9,2.7
2020,10,25,15:00,UTC,8,1011.8,92,0,0,5.8,4.5,12797,111,3,2
2020,10,25,16:00,UTC,7,1011.5,92,0,0,6.2,4.9,52138,115,3.1,2.4
2020,10,25,17:00,UTC,8,1011.2,90,0,0,7.7,6.1,38836,151,5.1,3.9
2020,10,25,18:00,UTC,8,1011,87,0,0,8.3,6.2,36765,154,7.5,5.5
2020,10,25,19:00,UTC,8,1010.7,90,0,0,8.6,7.1,26927,156,8,5.9
2020,10,25,20:00,UTC,8,1010.4,91,0,0,8.8,7.4,11095,152,7.7,5.9
2020,10,25,21:00,UTC,8,1010.1,96,0.1,0,8.4,7.9,6782,160,6,4.7
2020,10,25,22:00,UTC,8,1009.5,96,0,0,9,8.4,10850,162,6.9,5.4
2020,10,25,23:00,UTC,8,1009.4,95,,,9.6,8.9,10100,180,7.9,5.4
2020,10,26,00:00,UTC,8,1008.8,95,0,0,10,9.2,8370,167,7.9,5.5
2020,10,26,01:00,UTC,8,1008.6,94,0,0,10.4,9.4,21258,177,9.1,6.1
2020,10,26,02:00,UTC,8,1008.4,92,0,0,11,9.7,19652,189,10.9,6.9
2020,10,26,03:00,UTC,8,1008.2,93,0,0,10.8,9.7,19291,184,7.7,4.9
2020,10,26,04:00,UTC,8,1008.1,94,0,0,10.6,9.8,17043,171,8.4,6
2020,10,26,05:00,UTC,8,1008.2,93,0,0,10.8,9.7,14320,179,9.5,6
2020,10,26,06:00,UTC,8,1008.4,93,0,0,10.6,9.5,12532,178,8.7,6.1
2020,10,26,07:00,UTC,8,1008.5,92,0,0,10.3,9,14497,182,11.2,8
2020,10,26,08:00,UTC,8,1008.3,89,0,0,10.2,8.5,22401,171,9.7,6.9
2020,10,26,09:00,UTC,7,1009.3,88,0,0,10.3,8.4,27667,187,10,7
2020,10,26,10:00,UTC,8,1009.6,87,0,0,10,8,28962,192,9.7,6.8
2020,10,26,11:00,UTC,8,1009.2,87,0,0,9.8,7.8,21930,179,9.2,6.2
2020,10,26,12:00,UTC,8,1009,97,0,0,9.1,8.6,5581,169,6.8,4.9
2020,10,26,13:00,UTC,8,1009.2,97,0.5,0,9.5,9,3574,185,9,6.1
2020,10,26,14:00,UTC,8,1009.6,97,0,0,9.4,8.9,3990,189,8.1,5.5
2020,10,26,15:00,UTC,8,1009.6,97,0,0,9.3,8.8,4168,187,8.4,5.6
2020,10,26,16:00,UTC,8,1009.4,98,0.7,0,9.1,8.8,3351,170,7.5,4.9
2020,10,26,17:00,UTC,8,1009,98,0,0,9.1,8.8,8862,167,8.9,5.9
2020,10,26,18:00,UTC,8,1008.8,97,0,0,9.2,8.7,20294,174,8.1,5.6
2020,10,26,19:00,UTC,8,1009.3,95,0,0,9.6,8.8,25392,181,6.6,4.6
2020,10,26,20:00,UTC,8,1009.6,95,0,0,9.6,8.8,21019,179,7.8,5.4
2020,10,26,21:00,UTC,8,1009.4,95,0,0,9.5,8.8,25879,179,6.5,4.5
2020,10,26,22:00,UTC,8,1009.3,95,0,0,9.6,8.9,25959,177,6.8,4.6
2020,10,26,23:00,UTC,8,1008.6,95,0,0,9.7,9,25459,161,6.9,5.2
2020,10,27,00:00,UTC,8,1008.9,97,0,0,9.7,9.2,11696,176,7.2,4.6
2020,10,27,01:00,UTC,8,1008.9,96,0,0,9.9,9.4,12350,180,8.4,4.9
2020,10,27,02:00,UTC,8,1007.7,98,0.4,0,10,9.7,3096,158,7.6,5.3
2020,10,27,03:00,UTC,8,1007,98,0,0,10.2,9.8,6043,164,9,5.4
2020,10,27,04:00,UTC,8,1006.9,97,0,0,10.4,9.9,9197,166,9.1,6.2
2020,10,27,05:00,UTC,8,1006.7,97,0,0,10.5,10,10151,165,9.1,6.2
2020,10,27,06:00,UTC,8,1006.2,97,0,0,10.7,10.2,9278,168,9.1,6.1
2020,10,27,07:00,UTC,8,1005.8,97,1.6,0,10.8,10.4,6329,162,9,5.9
2020,10,27,08:00,UTC,8,1005.4,97,0.1,0,11.1,10.6,8090,174,10.1,7.1
2020,10,27,09:00,UTC,8,1005.5,97,0.5,0,11.3,10.9,7075,178,10.7,6.8
2020,10,27,10:00,UTC,8,1005.4,97,0,0,11.6,11.2,5389,190,11.3,7.2
2020,10,27,11:00,UTC,8,1005.3,96,0.4,0,11.7,11.1,5046,181,9.5,6.2
2020,10,27,12:00,UTC,8,1005.6,97,0.5,0,11.7,11.2,3489,197,10.5,7.5
2020,10,27,13:00,UTC,8,1005.4,96,0,0,11.9,11.3,6990,198,11.9,7.1
2020,10,27,14:00,UTC,8,1005.8,96,0.4,0,11.8,11.1,9266,205,11,7.5
2020,10,27,15:00,UTC,8,1005.9,95,0,0,11.7,10.8,8334,204,9,6.3
2020,10,27,16:00,UTC,8,1006,95,0.2,0,11.5,10.7,7049,209,8.7,5.7
2020,10,27,17:00,UTC,8,1006,95,0,0,11.2,10.4,8170,206,5.8,4.3
2020,10,27,18:00,UTC,8,1006,96,0.1,0,10.9,10.4,6613,207,5.3,3.8
2020,10,27,19:00,UTC,7,1005.8,96,0,0,10.7,10.1,7355,200,4.1,3
2020,10,27,20:00,UTC,8,1005.6,97,0,0,10.3,9.8,9124,210,4.8,3.2
2020,10,27,21:00,UTC,8,1005.3,96,0,0,9.9,9.3,11897,226,4.1,2.5
2020,10,27,22:00,UTC,8,1005.2,96,1.4,0,9.6,8.9,11784,255,5.5,3.9
2020,10,27,23:00,UTC,8,1005.2,95,1.4,0,8.5,7.8,17680,231,3.4,2.5
2020,10,28,00:00,UTC,8,1005.2,94,1.3,0,8.3,7.4,16905,220,6,4.2
2020,10,28,01:00,UTC,8,1004.8,96,1.3,0,8,7.5,23092,203,5.1,3.7
2020,10,28,02:00,UTC,8,1004.6,96,0.4,0,8.3,7.6,36720,196,7.5,5.1
2020,10,28,03:00,UTC,8,1004.4,94,1.1,0,8.5,7.6,18685,201,8.6,6.2
2020,10,28,04:00,UTC,8,1004.2,94,1,0,8.8,7.9,9308,202,11.7,8.3
2020,10,28,05:00,UTC,8,1004.8,95,0.5,0,8.7,7.9,33739,225,6.8,4.7
2020,10,28,06:00,UTC,6,1005.4,92,0,0,8,6.8,52782,212,7.1,4
2020,10,28,07:00,UTC,7,1006,92,0,0,9.3,8.1,39551,217,8.5,5.9
2020,10,28,08:00,UTC,1,1006.7,90,0,0,9.5,7.9,44555,221,8.4,5.7
2020,10,28,09:00,UTC,4,1007.5,88,0,0,10.2,8.3,40707,219,7.7,5
2020,10,28,10:00,UTC,7,1008,83,0,0,10.6,7.8,36473,217,10,7.4
2020,10,28,11:00,UTC,7,1008.5,84,0,0,10.8,8.2,48028,200,7.9,6
2020,10,28,12:00,UTC,4,1008.6,83,0,0,10.5,7.8,45297,213,10,6.1
2020,10,28,13:00,UTC,7,1008.7,86,0,0,10.3,8,45361,202,9.6,6.4
2020,10,28,14:00,UTC,8,1008.7,85,0,0,10.4,7.9,43681,190,11.9,7.9
2020,10,28,15:00,UTC,7,1008.8,88,0,0,10,8.1,39987,184,7.9,5.4
2020,10,28,16:00,UTC,7,1008.4,84,0,0,10.2,7.5,43298,183,10.3,7
2020,10,28,17:00,UTC,7,1008.4,85,0,0,9.6,7.3,36124,182,11.6,7.4
2020,10,28,18:00,UTC,8,1008.1,84,0,0,9.5,6.9,40902,183,11.2,7.3
2020,10,28,19:00,UTC,8,1007.7,85,0,0,9.5,7.1,35950,187,10.1,6.8
2020,10,28,20:00,UTC,8,1007.5,88,0.5,0,9.4,7.5,18499,192,11.8,8.2
2020,10,28,21:00,UTC,8,1006.9,95,1.2,0,9,8.3,5866,173,11.4,7.2
2020,10,28,22:00,UTC,8,1006.6,95,0.4,0,9.1,8.4,5950,181,11.4,7
2020,10,28,23:00,UTC,8,1006.2,96,0.7,0,9.4,8.9,4625,198,11,7.5
2020,10,29,00:00,UTC,8,1006.3,96,0.3,0,9.6,9,29144,201,9.1,6.6
2020,10,29,01:00,UTC,8,1006.5,96,0.9,0,9.7,9.1,10431,209,8.8,5.2
2020,10,29,02:00,UTC,8,1006.5,94,0.2,0,10,9.1,22516,200,8.2,5.8
2020,10,29,03:00,UTC,7,1006.8,95,0,0,9.5,8.7,35614,210,6.2,4.5
2020,10,29,04:00,UTC,5,1007,94,0,0,9.7,8.8,40297,209,7.8,5.2
2020,10,29,05:00,UTC,7,1007.2,93,0,0,9.5,8.4,36391,212,7.3,5
2020,10,29,06:00,UTC,3,1007.6,93,0,0,9.3,8.2,33528,201,6,4.3
2020,10,29,07:00,UTC,2,1008,93,0,0,9.5,8.4,31339,206,5.8,4.6
2020,10,29,08:00,UTC,3,1008.3,89,0,0,10.2,8.5,34653,199,7.1,5.1
2020,10,29,09:00,UTC,3,1008.6,88,0,0,10.3,8.4,38729,197,7.9,5.4
2020,10,29,10:00,UTC,7,1008.7,88,0,0,10.5,8.6,42143,200,7.6,5.8
2020,10,29,11:00,UTC,7,1008.6,86,0,0,10.8,8.6,40778,196,7.1,5
2020,10,29,12:00,UTC,8,1008.5,86,0,0,10.8,8.5,39089,193,7.4,5.1
2020,10,29,13:00,UTC,6,1008.6,88,0,0,10.3,8.4,37564,198,6.9,4.9
2020,10,29,14:00,UTC,8,1009,90,0,0,10.2,8.7,31090,200,6,4.4
2020,10,29,15:00,UTC,7,1009.3,93,0,0,9.8,8.7,28871,188,4.4,3.2
2020,10,29,16:00,UTC,6,1009.4,93,0,0,9.8,8.7,26465,191,5.5,3.7
2020,10,29,17:00,UTC,7,1009.4,93,0,0,9.6,8.5,20524,206,3.8,2.8
2020,10,29,18:00,UTC,5,1009.5,95,0,0,8.3,7.5,25804,218,4,1.5
2020,10,29,19:00,UTC,7,1009.8,98,0,0,6.3,6,9227,171,1.9,1.2
2020,10,29,20:00,UTC,2,1009.9,100,0,0,6,6,3342,188,3.1,2.3
2020,10,29,21:00,UTC,7,1010.2,100,0,0,5.8,5.8,391,249,1.9,1.5
2020,10,29,22:00,UTC,7,1010.2,99,0,0,7.9,7.8,18272,238,3.5,2.3
2020,10,29,23:00,UTC,2,1010.2,96,0,0,5.9,5.4,11134,177,2,1.5
2020,10,30,00:00,UTC,8,1010.5,98,0,0,7.6,7.3,14616,240,1.8,1.3
2020,10,30,01:00,UTC,8,1010.6,99,0,0,7,6.9,11935,174,1.6,1
2020,10,30,02:00,UTC,4,1010.6,100,0,0,7,6.9,10057,52,1.9,1.4
2020,10,30,03:00,UTC,7,1010.7,100,0,0,5.6,5.6,7142,161,2.7,2.2
2020,10,30,04:00,UTC,8,1011,100,0,0,6.5,6.5,11391,268,1,0.7
2020,10,30,05:00,UTC,8,1011.2,100,0,0,6,6,11776,140,2.3,1.3
2020,10,30,06:00,UTC,8,1011.7,100,0,0,6.5,6.5,8503,279,1.2,0.6
2020,10,30,07:00,UTC,8,1012.2,100,0,0,7.6,7.5,6434,102,1,0.5
2020,10,30,08:00,UTC,8,1012.6,99,0,0,8.7,8.5,5551,177,1.4,0.9
2020,10,30,09:00,UTC,8,1012.9,96,0,0,9.6,8.9,8240,204,1.7,1.3
2020,10,30,10:00,UTC,8,1013.1,93,0,0,9.8,8.7,12790,203,2.1,1.6
2020,10,30,11:00,UTC,8,1013.4,94,0,0,9.7,8.9,11068,265,2.2,1.5
2020,10,30,12:00,UTC,8,1013.8,94,0,0,9.8,8.9,16607,250,1.4,1
2020,10,30,13:00,UTC,8,1014,97,0,0,9.3,8.9,4582,209,2.9,2.2
2020,10,30,14:00,UTC,6,1014.7,97,0,0,8.9,8.4,16378,135,0.7,0.3
2020,10,30,15:00,UTC,2,1015.1,99,0,0,7.8,7.6,4549,17,1,0.7
2020,10,30,16:00,UTC,4,1015.7,100,0,0,6.5,6.5,1819,37,1.7,1.4
2020,10,30,17:00,UTC,4,1016.2,100,0,0,5.2,5.1,258,96,1.4,0.9
2020,10,30,18:00,UTC,9,1016.9,100,0,0,4.6,4.6,101,76,1,0.5
2020,10,30,19:00,UTC,9,1017.4,100,0,0,6.2,6.2,114,348,1.1,0.7
2020,10,30,20:00,UTC,9,1017.8,100,0,0,6.4,6.4,140,177,0.8,0.5
2020,10,30,21:00,UTC,9,1018.4,100,0,0,6.7,6.7,131,341,2,1.6
2020,10,30,22:00,UTC,9,1019.1,100,0,0,6.9,6.9,411,324,2.7,2.1
2020,10,30,23:00,UTC,9,1019.5,100,0,0,6.7,6.7,673,21,1.4,1
2020,10,31,00:00,UTC,9,1020.1,100,0,0,6.1,6.1,774,358,2.1,1.5
2020,10,31,01:00,UTC,8,1020.3,100,0,0,5.7,5.7,7870,20,2.7,1.6
2020,10,31,02:00,UTC,8,1021.1,99,0,0,4.3,4.2,3359,11,2.6,1.7
2020,10,31,03:00,UTC,8,1021.8,99,0,0,3.2,3,12747,13,2.4,1.7
2020,10,31,04:00,UTC,8,1022.3,99,0,0,3.3,3.2,11955,330,2,1.6
2020,10,31,05:00,UTC,8,1022.6,98,0,0,3.2,3,24182,59,1.4,0.8
2020,10,31,06:00,UTC,8,1022.7,98,0,0,3,2.7,34965,77,2.7,1.2
2020,10,31,07:00,UTC,7,1023.2,98,0,0,3.3,3.1,35161,47,1.8,1.3
2020,10,31,08:00,UTC,8,1024.1,99,0,0,4.1,4,30722,21,1.2,0.6
2020,10,31,09:00,UTC,8,1024.7,99,0,0,4.3,4.1,27871,357,1.6,1.2
2020,10,31,10:00,UTC,8,1024.6,98,0,0,4.8,4.5,23762,11,2,1
2020,10,31,11:00,UTC,8,1024.9,97,0,0,4.9,4.5,32074,63,1.8,1.2
2020,10,31,12:00,UTC,8,1025.1,97,0,0,4.8,4.4,30971,8,2.1,1.5
2020,10,31,13:00,UTC,8,1025.2,96,0,0,5.7,5,26609,80,4.2,1.4
2020,10,31,14:00,UTC,8,1025.3,98,0.4,0,5.7,5.3,12059,64,1.5,1.2
2020,10,31,15:00,UTC,8,1025.4,99,0,0,5.8,5.7,15057,60,1.8,1.1
2020,10,31,16:00,UTC,7,1025.3,99,0,0,5.6,5.5,11637,55,1.9,1.3
2020,10,31,17:00,UTC,9,1025.4,100,0,0,6,6,290,65,1.3,1
2020,10,31,18:00,UTC,8,1025.5,100,0,0,5.3,5.3,3288,109,2.5,1.3
2020,10,31,19:00,UTC,8,1025.6,100,0,0,5.7,5.6,4408,127,1.5,1.2
2020,10,31,20:00,UTC,8,1025.5,100,0,0,5.7,5.6,4773,82,1.7,1.5
2020,10,31,21:00,UTC,8,1025.4,99,0,0,6.8,6.7,7118,149,3.8,2.9
2020,10,31,22:00,UTC,8,1025.1,98,0,0,7.3,7,13130,154,3.3,2.8
2020,10,31,23:00,UTC,8,1025.2,96,0,0,7.4,6.8,17295,151,3.7,3
2020,11,1,00:00,UTC,8,1025,96,0,0,7.4,6.8,18706,168,4.1,3.2
2020,11,1,01:00,UTC,8,1024.7,96,0,0,7.4,6.9,18847,161,3.3,2.4
2020,11,1,02:00,UTC,8,1024.4,93,0,0,7.7,6.7,25089,167,4.7,3
2020,11,1,03:00,UTC,8,1024,90,0,0,7.9,6.3,38846,175,4.9,3.4
2020,11,1,04:00,UTC,8,1023.9,91,0,0,7.9,6.5,34779,166,5.2,3.6
2020,11,1,05:00,UTC,8,1023.7,91,0,0,7.9,6.6,31424,166,6.4,4.1
2020,11,1,06:00,UTC,8,1023.7,90,0,0,7.9,6.4,33744,163,6,4.5
2020,11,1,07:00,UTC,8,1023.4,90,0,0,8,6.5,32522,151,5.4,4.2
2020,11,1,08:00,UTC,8,1023.1,88,0,0,8.1,6.3,40638,156,7,4.9
2020,11,1,09:00,UTC,8,1022.8,87,0,0,8.2,6.2,45418,162,6,4.3
2020,11,1,10:00,UTC,8,1022.3,87,0,0,8.3,6.2,41659,163,8.5,5.8
2020,11,1,11:00,UTC,8,1022,84,0,0,8.3,5.7,53566,166,8.9,6.1
2020,11,1,12:00,UTC,8,1021.5,82,0,0,8.3,5.3,62896,166,8.1,5.1
2020,11,1,13:00,UTC,8,1021.1,85,0,0,8.1,5.7,54072,155,7.4,5.4
2020,11,1,14:00,UTC,8,1020.6,87,0,0,8.1,6.1,47106,152,8.3,5.5
2020,11,1,15:00,UTC,8,1020,87,0,0,8.1,6.1,45575,155,7.8,6.2
2020,11,1,16:00,UTC,8,1019.5,87,0,0,8.2,6.1,49029,152,7.9,6.2
2020,11,1,17:00,UTC,8,1019,86,0,0,8.3,6.1,54659,156,10.3,7.4
2020,11,1,18:00,UTC,8,1018.6,86,0,0,8.3,6,55058,162,9.5,6.6
2020,11,1,19:00,UTC,8,1018.1,85,0,0,8.3,5.8,51510,155,9,6.9
2020,11,1,20:00,UTC,8,1017.9,83,0,0,8.2,5.6,53297,156,11.1,7.5
2020,11,1,21:00,UTC,8,1017.7,78,0,0,8.3,4.6,66752,174,10.9,7.1
2020,11,1,22:00,UTC,8,1017.3,76,0,0,8.4,4.4,66073,176,10.1,7.3
2020,11,1,23:00,UTC,8,1016.5,78,0,0,8.1,4.5,64421,165,10.6,6.8
2020,11,2,00:00,UTC,8,1016.3,77,0,0,7.9,4.1,65733,167,10.9,7.9
2020,11,2,01:00,UTC,8,1015.8,85,0,0,6.9,4.6,19077,155,11.9,8.3
2020,11,2,02:00,UTC,8,1015.1,84,,,6.7,4.2,49039,154,8.8,6.9
2020,11,2,03:00,UTC,8,1014.2,81,0,0,6.6,3.6,63981,154,12.7,9.4
2020,11,2,04:00,UTC,8,1013.3,79,0,0,6.6,3.1,62726,153,13.7,8.5
2020,11,2,05:00,UTC,8,1013.1,79,0,0,6.6,3.1,62088,148,13.4,9.3
2020,11,2,06:00,UTC,8,1012.7,80,0,0,6.4,3.3,60684,147,12.8,9.8
2020,11,2,07:00,UTC,8,1011.6,82,,,6.4,3.5,56678,151,12.6,9.7
2020,11,2,08:00,UTC,8,1011.3,80,0,0,6.5,3.3,56094,160,13.2,8.7
2020,11,2,09:00,UTC,8,1010.1,78,0,0,6.8,3.3,58595,161,14,9.9
2020,11,2,10:00,UTC,7,1009.5,78,0,0,6.9,3.3,50822,164,12.9,9.1
2020,11,2,11:00,UTC,8,1008.5,78,0,0,7.2,3.5,51104,161,12.8,9.4
2020,11,2,12:00,UTC,8,1007.5,77,0,0,7.3,3.5,53328,160,13.4,9.7
2020,11,2,13:00,UTC,8,1007.4,84,0,0,6.9,4.4,40478,162,15.9,9.9
2020,11,2,14:00,UTC,8,1006.3,83,0,0,7.1,4.4,43894,163,12.3,8.6
2020,11,2,15:00,UTC,8,1005.1,88,0,0,7.3,5.4,7218,160,14.7,10.7
2020,11,2,16:00,UTC,8,1004.3,90,1,0,7.4,5.9,7452,166,13.9,9
2020,11,2,17:00,UTC,8,1003.8,93,0.9,0,7.8,6.7,3729,175,14.7,9.2
2020,11,2,18:00,UTC,8,1002.4,92,2.6,0,8.3,7.2,7334,175,13.8,9.6
2020,11,2,19:00,UTC,8,1002,91,0,0,9,7.6,18348,179,13.7,9.8
2020,11,2,20:00,UTC,8,1001.7,95,0,0,9.2,8.4,15196,186,16.1,10.7
2020,11,2,21:00,UTC,8,1001,96,2.6,0,9.5,8.8,4298,188,17.1,10.8
2020,11,2,22:00,UTC,8,1000.7,95,0,0,10,9.3,32656,190,15.8,11.2
2020,11,2,23:00,UTC,8,1000.4,96,0.3,0,10.2,9.6,9425,194,15.2,11.1
2020,11,3,00:00,UTC,8,1000.2,97,1.7,0,10.6,10.1,3923,195,18,11.3
2020,11,3,01:00,UTC,8,999.8,97,0.4,0,11.1,10.6,5626,195,17.2,11.2
2020,11,3,02:00,UTC,8,999.5,98,1.5,0,11.2,10.9,6626,194,16.4,10.8
2020,11,3,03:00,UTC,8,999.2,97,2.5,0,11.2,10.8,3814,195,15.6,11.6
2020,11,3,04:00,UTC,8,999.3,97,2.8,0,12,11.6,4814,202,14.5,10.5
2020,11,3,05:00,UTC,8,999.9,92,0,0,12.8,11.5,28827,222,15.1,10.5
2020,11,3,06:00,UTC,7,1001.2,90,0,0,11.9,10.3,39139,216,13.5,8.7
2020,11,3,07:00,UTC,7,1003,84,0,0,11.2,8.6,53746,236,11.4,8
2020,11,3,08:00,UTC,3,1004.2,82,0,0,11.2,8.2,56275,230,12.2,7.8
2020,11,3,09:00,UTC,8,1005.4,77,0,0,11,7.1,51384,231,10.5,7
2020,11,3,10:00,UTC,8,1006.2,68,0,0,11.3,5.7,62008,233,11,8
2020,11,3,11:00,UTC,8,1006.9,72,0,0,11.4,6.6,57062,225,10.3,7.2
2020,11,3,12:00,UTC,7,1007.5,75,0,0,11.1,6.9,55196,232,12.2,7.8
2020,11,3,13:00,UTC,8,1008.4,72,0,0,10.8,5.9,58910,236,11.4,7
2020,11,3,14:00,UTC,8,1009,74,0,0,10.6,6.1,55026,225,8.4,5.1
2020,11,3,15:00,UTC,8,1009.6,85,0,0,9.8,7.5,46815,230,10.2,6
2020,11,3,16:00,UTC,7,1010.2,83,0,0,10,7.2,49352,231,7.4,5.2
2020,11,3,17:00,UTC,7,1011,87,0,0,9.3,7.1,47549,225,7.1,4.5
2020,11,3,18:00,UTC,7,1011.6,85,0,0,9,6.6,50766,218,7.2,4.9
2020,11,3,19:00,UTC,7,1012.5,88,0,0,9,7.1,41787,213,7.2,5.5
2020,11,3,20:00,UTC,3,1013.2,91,0,0,8.6,7.2,35758,218,5.7,4.4
2020,11,3,21:00,UTC,0,1014,93,0,0,7.9,6.8,31103,217,5.4,3.9
2020,11,3,22:00,UTC,2,1014.7,94,0,0,7.2,6.4,37393,235,3.9,3.1
2020,11,3,23:00,UTC,0,1015.4,93,0,0,7,6,35340,214,5.5,4.3
2020,11,4,00:00,UTC,0,1015.9,95,0,0,6.1,5.3,36141,223,4.8,3.7
2020,11,4,01:00,UTC,1,1016.4,95,0,0,5.9,5.2,39276,213,4.6,3.9
2020,11,4,02:00,UTC,0,1016.9,95,0,0,5.5,4.8,39616,230,4.2,2.9
2020,11,4,03:00,UTC,4,1016.9,95,0,0,5.6,4.8,38075,230,3.1,2.6
2020,11,4,04:00,UTC,0,1016.9,99,0,0,2.2,2,36345,163,2.7,1.9
2020,11,4,05:00,UTC,0,1017.2,100,0,0,2.9,2.9,35579,193,4.1,3.3
2020,11,4,06:00,UTC,3,1017,94,0,0,6.9,5.9,37608,204,6.1,4.6
2020,11,4,07:00,UTC,1,1017.2,93,0,0,6.9,5.9,37132,205,4.7,3.7
2020,11,4,08:00,UTC,3,1016.7,94,0,0,7.8,6.9,29214,194,5.8,4.5
2020,11,4,09:00,UTC,6,1016.6,92,0,0,8.7,7.5,34945,207,7.6,5.3
2020,11,4,10:00,UTC,4,1016,89,0,,8.9,7.2,40591,197,5.4,4.1
2020,11,4,11:00,UTC,7,1015.3,89,0,0,9.1,7.4,43045,196,6.3,4.1
2020,11,4,12:00,UTC,7,1014.3,90,0,0,8.8,7.3,40094,192,5.5,3.9
2020,11,4,13:00,UTC,8,1013.2,92,0,0,8.8,7.5,28239,196,3.9,3
2020,11,4,14:00,UTC,8,1013.1,93,2.7,0,6.9,5.9,16245,196,8.1,6
2020,11,4,15:00,UTC,7,1012.6,95,0,0,6.4,5.6,44372,227,4,2.9
2020,11,4,16:00,UTC,8,1012.4,96,0,0,6.4,5.8,41000,221,5.8,3.1
2020,11,4,17:00,UTC,7,1012.6,90,0,0,6.3,4.8,39533,251,9.5,6.8
2020,11,4,18:00,UTC,7,1013.2,95,0,0,4.9,4.2,73488,306,5.1,3.6
2020,11,4,19:00,UTC,5,1013.1,97,0,0,3.3,2.9,71226,238,2.9,2.5
2020,11,4,20:00,UTC,3,1013.3,97,0,0,3.3,2.8,46525,211,2.8,2
2020,11,4,21:00,UTC,3,1014,98,0,0,2.6,2.3,29513,220,3.6,2.8
2020,11,4,22:00,UTC,1,1013.6,96,0,0,3,2.5,49125,220,4.7,3.6
2020,11,4,23:00,UTC,0,1013.3,97,0,0,3,2.5,36927,232,4.6,3.1
2020,11,5,00:00,UTC,5,1013.3,98,0,0,2.6,2.4,22828,229,3.3,2.2
2020,11,5,01:00,UTC,8,1012.7,96,0,0,4.5,4,23727,219,4,3.1
2020,11,5,02:00,UTC,7,1012,94,0,0,4.9,4,37490,236,4.5,3.4
2020,11,5,03:00,UTC,3,1011.8,94,0,0,4.5,3.7,42601,240,4.6,3.3
2020,11,5,04:00,UTC,2,1011.2,96,0,0,3.8,3.2,35813,228,4.8,3.4
2020,11,5,05:00,UTC,2,1010.4,95,0,0,4.3,3.6,41756,237,4.9,3.6
2020,11,5,06:00,UTC,3,1010,93,0,0,4.9,3.9,48495,236,6.8,4.9
2020,11,5,07:00,UTC,8,1009,92,0,0,5.7,4.5,50689,237,8.2,5.7
2020,11,5,08:00,UTC,7,1007.8,91,0,0,6.5,5.1,53053,227,8.7,6.2
2020,11,5,09:00,UTC,8,1007,84,0,0,7.5,5,58159,234,10.9,7.2
2020,11,5,10:00,UTC,8,1006.1,78,0,0,8.2,4.6,65662,236,12.5,8.5
2020,11,5,11:00,UTC,7,1005.5,76,0,0,8.6,4.6,61985,251,12.3,7.8
2020,11,5,12:00,UTC,8,1005.5,77,0,0,8.4,4.5,65536,259,12.4,8
2020,11,5,13:00,UTC,7,1005.4,75,0,0,8.3,4.2,67550,259,10.3,7.4
2020,11,5,14:00,UTC,1,1005.9,76,0,0,8,4.1,67499,267,12.1,7.5
2020,11,5,15:00,UTC,0,1006.5,75,0,0,8.1,3.8,66618,281,10.6,6.8
2020,11,5,16:00,UTC,0,1006.9,77,0,0,7.4,3.7,67149,278,9.6,6.5
2020,11,5,17:00,UTC,0,1007.6,72,0,0,7.9,3.2,60520,278,12,7.1
2020,11,5,18:00,UTC,0,1008.1,69,0,0,7.9,2.6,63511,277,9,6.3
2020,11,5,19:00,UTC,3,1008.5,73,0,0,7.4,2.9,62780,258,6,4.2
2020,11,5,20:00,UTC,7,1009.1,81,0,0,6.3,3.2,63833,239,4.7,3.7
2020,11,5,21:00,UTC,7,1009,82,0,0,6.1,3.2,58728,245,4.4,3.5
2020,11,5,22:00,UTC,6,1009,77,0,0,6.7,3,60538,255,5.2,3.8
2020,11,5,23:00,UTC,1,1008.7,79,0,0,6.6,3.2,62965,266,5.9,4.2
2020,11,6,00:00,UTC,0,1009,80,0,0,6.4,3.2,60509,274,6.4,4.6
2020,11,6,01:00,UTC,5,1009.2,74,0,0,6.9,2.7,53083,295,8.2,5.9
2020,11,6,02:00,UTC,2,1010,79,0,0,5.9,2.5,48593,288,6.3,4.7
2020,11,6,03:00,UTC,0,1010.7,81,0,0,5.2,2.2,43722,286,6,4.4
2020,11,6,04:00,UTC,0,1011,81,0,0,4.9,1.8,40220,288,5,3.8
2020,11,6,05:00,UTC,0,1010.9,77,0,0,5.3,1.7,36907,298,6.9,4.2
2020,11,6,06:00,UTC,0,1012,80,0,0,4.9,1.7,23081,262,4.9,3.6
2020,11,6,07:00,UTC,0,1013,85,0,0,4.2,1.9,36164,246,5.4,3.8
2020,11,6,08:00,UTC,0,1013.5,72,0,0,6.9,2.2,38307,273,5.7,4.1
2020,11,6,09:00,UTC,0,1014.3,66,0,0,8.4,2.4,39582,284,6.1,4.3
2020,11,6,10:00,UTC,0,1014.7,66,0,0,9.4,3.4,48208,281,6.4,4.6
2020,11,6,11:00,UTC,0,1015,68,0,0,9.9,4.4,54707,286,6.5,4.3
2020,11,6,12:00,UTC,7,1015.3,72,0,0,10.4,5.5,64329,275,6.1,4.1
2020,11,6,13:00,UTC,0,1015.9,75,0,0,9.9,5.8,61140,273,5.9,4.2
2020,11,6,14:00,UTC,0,1015.6,83,0,0,8.4,5.7,56112,251,3.1,2.4
2020,11,6,15:00,UTC,4,1015.5,88,0,0,7.8,6,57244,234,4.5,3.2
2020,11,6,16:00,UTC,0,1015.6,89,0,0,8.5,6.7,59794,260,5,3.8
2020,11,6,17:00,UTC,0,1015.7,91,0,0,8.3,6.8,62308,254,6.9,4.2
2020,11,6,18:00,UTC,0,1016,87,0,0,8.9,6.8,71509,275,7.9,5.7
2020,11,6,19:00,UTC,0,1016.8,80,0,0,9.7,6.5,73395,285,11.5,7.8
2020,11,6,20:00,UTC,0,1016.9,80,0,0,9.9,6.6,75000,286,9.7,7.4
2020,11,6,21:00,UTC,0,1018,80,0,0,9.7,6.4,69874,287,10.3,7
2020,11,6,22:00,UTC,0,1018.4,74,0,0,10.2,5.8,75000,299,9.6,6.8
2020,11,6,23:00,UTC,0,1018.7,78,0,0,9.4,5.7,74847,285,7.6,5.6
2020,11,7,00:00,UTC,0,1018.9,80,0,0,8.7,5.5,72825,291,7.2,5.1
2020,11,7,01:00,UTC,0,1019.6,84,0,0,7.8,5.2,70213,285,5.5,4
2020,11,7,02:00,UTC,0,1019.1,88,0,0,6.6,4.7,69501,283,3.5,2.8
2020,11,7,03:00,UTC,0,1019.2,89,0,0,6,4.3,71212,264,3.5,2.6
2020,11,7,04:00,UTC,0,1019.4,89,0,0,5.9,4.3,69092,267,4.3,3.2
2020,11,7,05:00,UTC,0,1019.1,90,0,0,5.6,4.1,73251,275,3.9,3.1
2020,11,7,06:00,UTC,0,1019.6,91,0,0,4.8,3.5,66790,252,3.8,3.1
2020,11,7,07:00,UTC,0,1019.4,94,0,0,4.8,4,65349,233,3.8,3.1
2020,11,7,08:00,UTC,0,1019.4,88,0,0,7.2,5.4,70015,247,4.5,3.5
2020,11,7,09:00,UTC,0,1018.9,81,0,0,8.8,5.8,70167,246,4.1,2.7
2020,11,7,10:00,UTC,0,1017.8,73,0,0,10.2,5.6,75000,222,3.4,2.5
2020,11,7,11:00,UTC,0,1016.8,67,0,0,11.7,5.8,74340,222,6.2,4.4
2020,11,7,12:00,UTC,0,1015.6,82,0,0,10.9,8,67645,217,9.4,6.2
2020,11,7,13:00,UTC,7,1015.2,87,0,0,9.8,7.6,66274,229,8.6,5.9
2020,11,7,14:00,UTC,7,1014.6,84,0,0,9,6.4,66990,245,8.9,5.7
2020,11,7,15:00,UTC,8,1014.6,82,0,0,8.5,5.7,69228,259,10.5,7.6
2020,11,7,16:00,UTC,8,1014.7,82,0,0,8.1,5.2,62529,273,10,6.8
2020,11,7,17:00,UTC,8,1014.3,83,0,0,8.3,5.5,51926,264,8.3,5
2020,11,7,18:00,UTC,8,1014.1,84,0,0,8.5,5.8,48172,265,7.7,5.3
2020,11,7,19:00,UTC,8,1013.9,85,0,0,8.6,6.1,48899,278,9,5.3
2020,11,7,20:00,UTC,8,1013.6,84,0,0,8.4,5.9,51600,277,6.9,5.1
2020,11,7,21:00,UTC,7,1013.4,85,0,0,8.2,5.8,57524,283,5.7,3.7
2020,11,7,22:00,UTC,8,1013.3,86,0,0,7.9,5.6,58481,285,4.1,2.6
2020,11,7,23:00,UTC,8,1013.3,87,0,0,7.7,5.7,61147,296,4.5,3.1
2020,11,8,00:00,UTC,8,1013.3,89,0,0,7.4,5.7,42390,306,4.7,3.1
2020,11,8,01:00,UTC,8,1013.7,89,0,0,7.2,5.6,56135,298,4.3,3.1
2020,11,8,02:00,UTC,7,1014,88,0,0,6.9,5.1,57392,342,4.5,3
2020,11,8,03:00,UTC,7,1014.9,75,0,0,6.3,2.2,62541,357,8.7,6.2
2020,11,8,04:00,UTC,7,1015.5,72,0,0,5.1,0.4,58638,352,5.4,3.8
2020,11,8,05:00,UTC,7,1016.5,81,0,0,3.7,0.7,57599,333,4.7,3.6
2020,11,8,06:00,UTC,0,1017.5,84,0,0,2.2,-0.2,53925,326,5.1,3.8
2020,11,8,07:00,UTC,0,1018.4,84,0,0,2.1,-0.3,55628,323,6.1,4.2
2020,11,8,08:00,UTC,0,1019.2,81,0,0,3,0,54001,329,5.7,4.3
2020,11,8,09:00,UTC,0,1020,76,0,0,3.9,0,58324,318,5.3,4.2
2020,11,8,10:00,UTC,0,1020.9,71,0,0,4.8,0,53563,327,6.2,4.6
2020,11,8,11:00,UTC,0,1021.3,66,0,0,5.2,-0.6,54816,322,6.9,4.8
2020,11,8,12:00,UTC,0,1021.7,63,0,0,5.3,-1.2,56407,322,6.4,4.5
2020,11,8,13:00,UTC,0,1022.2,65,0,0,4.9,-1.2,58043,303,6,4.2
2020,11,8,14:00,UTC,0,1022.8,71,0,0,3.1,-1.7,58369,300,4.5,3.4
2020,11,8,15:00,UTC,0,1023.1,74,0,0,2.3,-1.7,54015,286,4.4,3.5
2020,11,8,16:00,UTC,0,1023.4,79,0,0,1.6,-1.6,51760,284,4.8,3.8
2020,11,8,17:00,UTC,0,1023.9,84,0,0,0.5,-1.9,50283,267,4.5,3.3
2020,11,8,18:00,UTC,0,1024.3,87,0,0,0.1,-1.8,46759,277,4.2,3.1
2020,11,8,19:00,UTC,0,1024.5,90,0,0,-1.1,-2.5,44998,270,3.8,2.9
2020,11,8,20:00,UTC,0,1025.2,94,0,0,-1.5,-2.4,35279,249,3.6,3
2020,11,8,21:00,UTC,0,1025.5,95,0,0,-0.1,-0.8,34746,262,4.6,3.6
2020,11,8,22:00,UTC,0,1025.6,97,0,0,-0.8,-1.3,32527,254,3.5,2.9
2020,11,8,23:00,UTC,0,1025.4,97,0,0,-0.3,-0.7,31179,271,4.2,2.9
2020,11,9,00:00,UTC,0,1025.3,97,0,0,-0.9,-1.4,34656,273,4,3.1
2020,11,9,01:00,UTC,2,1025.4,95,0,0,-0.6,-1.3,37026,262,3.7,2.8
2020,11,9,02:00,UTC,8,1025.2,95,0,0,0.1,-0.6,42736,243,2.8,2.2
2020,11,9,03:00,UTC,8,1024.6,93,0,0,1,0.1,47735,240,3,2.1
2020,11,9,04:00,UTC,8,1024.1,92,0,0,2.2,1.1,47127,242,4.5,3.1
2020,11,9,05:00,UTC,8,1023.8,92,0,0,2.9,1.8,53710,237,4.4,3.1
2020,11,9,06:00,UTC,8,1023.5,90,0,0,4.1,2.6,44151,250,5.7,3.9
2020,11,9,07:00,UTC,8,1023.5,94,0,0,4.8,3.9,21946,254,6.4,4.5
2020,11,9,08:00,UTC,7,1023.5,96,0,0,5.2,4.7,46705,267,5,3.6
2020,11,9,09:00,UTC,2,1023.6,90,,0,6.2,4.8,65805,283,6.1,4.6
2020,11,9,10:00,UTC,2,1023.7,81,0,0,6.3,3.3,62202,296,9.3,6.8
2020,11,9,11:00,UTC,0,1023.5,76,0,0,6.6,2.8,72624,283,7.7,5.6
2020,11,9,12:00,UTC,0,1023.8,75,0,0,6.8,2.6,67778,295,7.5,5.6
2020,11,9,13:00,UTC,2,1024.1,77,0,0,6.4,2.6,67452,290,8,5.6
2020,11,9,14:00,UTC,1,1024.7,82,0,0,5.3,2.4,65483,294,7.3,5.2
2020,11,9,15:00,UTC,0,1025.3,88,0,0,4,2.1,67109,281,5.1,3.6
2020,11,9,16:00,UTC,0,1026,91,0,0,3.2,1.9,65379,277,4.4,3.1
2020,11,9,17:00,UTC,0,1026.5,95,0,0,2.5,1.7,58070,286,5.7,3.4
2020,11,9,18:00,UTC,0,1026.9,95,0,0,2.2,1.6,57301,282,4,3.1
2020,11,9,19:00,UTC,0,1027.3,95,,0,2.4,1.7,55049,289,3.6,2.7
2020,11,9,20:00,UTC,0,1027.9,98,0,0,1.1,0.7,51849,292,4.3,3.1
2020,11,9,21:00,UTC,1,1028.2,99,0,0,1.3,1.2,41835,298,3.9,2.7
2020,11,9,22:00,UTC,0,1028.4,99,0,0,0.5,0.3,37612,302,4.3,3.3
2020,11,9,23:00,UTC,9,1028.8,100,0,0,0.7,0.7,259,300,4.5,3.4
2020,11,10,00:00,UTC,9,1029.2,100,0,0,0.6,0.6,327,303,5.3,3.8
2020,11,10,01:00,UTC,9,1029.3,100,0,0,0.4,0.4,274,308,4,2.8
2020,11,10,02:00,UTC,9,1029.4,100,0,0,0.2,0.2,364,303,4.5,3
2020,11,10,03:00,UTC,9,1029.6,100,0,0,0,0,471,320,4.8,3.7
2020,11,10,04:00,UTC,9,1029.8,100,0,0,-0.2,-0.2,285,331,3.6,2.6
2020,11,10,05:00,UTC,9,1030,100,0,0,-0.1,-0.1,199,339,1.7,1.4
2020,11,10,06:00,UTC,9,1030.6,100,0,0,-0.2,-0.2,211,339,2.1,1.2
2020,11,10,07:00,UTC,9,1031.1,100,0,0,-0.1,-0.1,403,256,3.5,2.5
2020,11,10,08:00,UTC,9,1031.6,100,0,0,-0.2,-0.2,218,240,2.5,1.5
2020,11,10,09:00,UTC,9,1032,100,0,0,0.1,0.1,229,226,2.3,1.7
2020,11,10,10:00,UTC,9,1032.4,100,0,0,0.2,0.2,216,275,2.5,1.7
2020,11,10,11:00,UTC,9,1032.6,100,0,0,0.8,0.8,376,279,2.2,1.5
2020,11,10,12:00,UTC,9,1032.6,100,0,0,0.7,0.7,202,296,1.4,0.8
2020,11,10,13:00,UTC,9,1032.6,100,0,0,0.5,0.5,187,327,2,1.4
2020,11,10,14:00,UTC,9,1032.7,100,0,0,0.5,0.5,217,330,2,1.2
2020,11,10,15:00,UTC,9,1032.7,100,0,0,0.2,0.2,176,351,0.5,0.3
2020,11,10,16:00,UTC,8,1032.7,100,0,0,0,0,211,41,0.7,0.4
2020,11,10,17:00,UTC,8,1032.8,100,0,0,0.3,0.3,8992,340,0.7,0.4
2020,11,10,18:00,UTC,7,1032.7,100,0,0,0.1,0.1,32549,19,1.6,1.2
2020,11,10,19:00,UTC,1,1032.8,100,0,0,-0.8,-0.8,390,272,1.4,1
2020,11,10,20:00,UTC,1,1032.9,100,0,0,-1.9,-1.9,401,19,0.9,0.4
2020,11,10,21:00,UTC,9,1033,100,0,0,-2.3,-2.3,208,281,1.4,1
2020,11,10,22:00,UTC,8,1032.9,100,0,0,-1.2,-1.2,15664,49,1.7,0.9
2020,11,10,23:00,UTC,8,1032.5,100,0,0,-0.3,-0.3,23671,65,2.1,1.9
2020,11,11,00:00,UTC,8,1032.2,99,0,0,0.1,0,19351,67,1,0.6
2020,11,11,01:00,UTC,8,1031.9,99,0,0,0.4,0.2,10797,208,1.8,1
2020,11,11,02:00,UTC,8,1031.8,99,0,0,0.7,0.6,21578,4,1.1,0.9
2020,11,11,03:00,UTC,8,1031.3,99,0,0,1.2,1,20379,56,1.7,1.4
2020,11,11,04:00,UTC,8,1031,99,0,0,1.4,1.3,6879,75,1.5,1.3
2020,11,11,05:00,UTC,8,1030.6,100,0,0,1.9,1.9,6389,328,1.9,1.2
2020,11,11,06:00,UTC,8,1030,100,0,0,2.3,2.3,9766,105,3.4,1.7
2020,11,11,07:00,UTC,8,1029.9,99,0,0,2.7,2.7,7975,73,1.3,1
2020,11,11,08:00,UTC,8,1029.9,99,0,0,3.3,3.2,8129,78,1.4,1
2020,11,11,09:00,UTC,8,1029.6,99,0,0,4,3.8,13018,68,1.2,0.9
2020,11,11,10:00,UTC,8,1029.4,100,0,0,4.7,4.6,6860,318,1.1,0.7
2020,11,11,11:00,UTC,8,1029.4,99,1.7,0,4.8,4.7,5865,339,1.8,1.2
2020,11,11,12:00,UTC,8,1029.2,99,0,0,4.6,4.5,7128,225,1.2,0.8
2020,11,11,13:00,UTC,8,1029.1,99,1.8,0,5.2,5.1,5310,224,2.1,1.5
2020,11,11,14:00,UTC,8,1029,99,0.1,0,5.2,5.1,7266,227,2.4,1.8
2020,11,11,15:00,UTC,8,1028.9,99,0,0,5.5,5.3,9922,242,2.1,1.6
2020,11,11,16:00,UTC,8,1028.7,99,0,0,5.6,5.4,10586,240,2,1.5
2020,11,11,17:00,UTC,8,1028.6,99,0,0,5.7,5.6,7536,255,1.1,0.9
2020,11,11,18:00,UTC,8,1028.5,100,0.4,0,5.5,5.5,5204,184,1.8,1.5
2020,11,11,19:00,UTC,8,1028.4,100,0,0,5.8,5.8,6057,104,2,1.1
2020,11,11,20:00,UTC,8,1028.5,100,0,0,5.6,5.5,3749,239,0.8,0.3
2020,11,11,21:00,UTC,8,1028.4,100,0,0,5.5,5.5,6871,195,2.4,1.8
2020,11,11,22:00,UTC,8,1028,100,0,0,6,5.9,10670,178,4,2.8
2020,11,11,23:00,UTC,8,1028,98,0,0,7.3,7,7221,204,4.9,3.6
2020,11,12,00:00,UTC,8,1028,98,0,0,7.2,6.9,8253,207,6,4.6
2020,11,12,01:00,UTC,8,1027.9,94,0,0,7.3,6.4,30520,198,6.7,4.3
2020,11,12,02:00,UTC,8,1027.7,91,0,0,7.3,5.9,39633,198,6.1,4.3
2020,11,12,03:00,UTC,8,1027.8,90,0,0,7.1,5.6,44295,196,4.4,3.2
2020,11,12,04:00,UTC,8,1027.9,90,0,0,6.8,5.2,43290,190,4.8,3.2
2020,11,12,05:00,UTC,8,1027.8,85,0,0,6.8,4.5,46683,199,6.2,4.2
2020,11,12,06:00,UTC,8,1027.7,83,0,0,6.5,3.8,49872,203,5.1,3.8
2020,11,12,07:00,UTC,8,1027.8,80,0,0,6.6,3.4,52733,199,4.8,3.2
2020,11,12,08:00,UTC,8,1028,80,0,0,6.7,3.5,56845,202,3.6,2.7
2020,11,12,09:00,UTC,7,1028,75,0,0,7.2,3.1,52846,191,4.2,2.8
2020,11,12,10:00,UTC,7,1027.9,78,0,0,7.1,3.4,36961,199,5.7,4
2020,11,12,11:00,UTC,8,1028,71,0,0,6.9,1.9,40940,202,6.9,5
2020,11,12,12:00,UTC,8,1028.1,75,0,0,6.6,2.4,37252,192,5.8,4.3
2020,11,12,13:00,UTC,7,1028.1,70,0,0,6.1,1.1,44276,190,6,3.9
2020,11,12,14:00,UTC,8,1028,72,0,0,5.5,0.8,41935,168,4.8,3
2020,11,12,15:00,UTC,8,1028,72,0,0,5.5,0.9,42687,158,5.6,4
2020,11,12,16:00,UTC,8,1028,75,0,0,5.3,1.2,43026,165,4.7,3.4
2020,11,12,17:00,UTC,8,1027.7,76,0,0,5.2,1.4,36565,157,4.7,3.4
2020,11,12,18:00,UTC,8,1027.7,79,0,0,5.4,2,38797,147,3.3,2.7
2020,11,12,19:00,UTC,8,1027.7,77,0,0,5.6,1.8,40671,169,4,3
2020,11,12,20:00,UTC,8,1027.8,69,0,0,5.7,0.3,43813,171,4.9,3.3
2020,11,12,21:00,UTC,8,1027.9,68,0,0,5.7,0.3,39583,173,4.8,3.3
2020,11,12,22:00,UTC,8,1027.8,66,0,0,5.7,-0.2,40527,184,4.5,2.8
2020,11,12,23:00,UTC,8,1027.6,66,0,0,5.7,-0.2,41811,175,5.4,3.6
2020,11,13,00:00,UTC,8,1027.5,79,0,0,5.5,2.1,42632,165,5.1,3.7
2020,11,13,01:00,UTC,8,1027.3,83,0,0,5.3,2.6,41345,164,4.7,3.4
2020,11,13,02:00,UTC,8,1026.9,84,0,0,5.2,2.7,40085,156,5.3,3.8
2020,11,13,03:00,UTC,8,1026.6,80,0,0,5.3,2.1,32495,159,6.4,4.2
2020,11,13,04:00,UTC,8,1026.3,66,0,0,5.5,-0.4,32044,162,6,4.1
2020,11,13,05:00,UTC,8,1026.1,70,0,0,5.4,0.3,32183,161,6.2,4.3
2020,11,13,06:00,UTC,8,1026,68,0,0,5.4,-0.1,31226,159,6.8,4.5
2020,11,13,07:00,UTC,8,1025.9,69,0,0,5.3,0,34838,159,7.2,4.8
2020,11,13,08:00,UTC,8,1026,68,0,0,5.2,-0.3,33335,160,5.5,4
2020,11,13,09:00,UTC,8,1025.9,64,0,0,5.2,-1,26891,144,4.8,3.4
2020,11,13,10:00,UTC,8,1025.6,68,0,0,5.1,-0.4,25275,146,3.4,2.6
2020,11,13,11:00,UTC,8,1025.2,78,0,0,5.1,1.5,29802,167,5.2,3.6
2020,11,13,12:00,UTC,8,1025.1,78,0,0,5.1,1.6,31865,163,4.9,3.6
2020,11,13,13:00,UTC,8,1024.9,81,0,0,4.9,1.9,28669,148,6.6,3.7
2020,11,13,14:00,UTC,8,1024.7,81,0,0,4.7,1.6,28394,151,5.5,3.8
2020,11,13,15:00,UTC,8,1024.5,80,0,0,4.7,1.4,30440,147,4.8,3.7
2020,11,13,16:00,UTC,8,1024.2,81,0,0,4.7,1.7,30568,169,6.3,4.5
2020,11,13,17:00,UTC,8,1024,81,0,0,4.6,1.5,34688,162,4.8,3.7
2020,11,13,18:00,UTC,8,1023.8,77,0,0,4.6,0.9,33151,156,5.7,3.6
2020,11,13,19:00,UTC,8,1023.8,71,0,0,4.5,-0.2,37875,152,8.1,5.1
2020,11,13,20:00,UTC,8,1023.7,82,0,0,3.8,1,24912,153,8.5,6
2020,11,13,21:00,UTC,8,1023.4,87,0,0,3.5,1.6,39008,137,4.4,2.9
2020,11,13,22:00,UTC,8,1023.4,83,0,0,3.9,1.3,39459,151,4.9,3.7
2020,11,13,23:00,UTC,8,1023.3,85,0,0,3.9,1.6,35748,156,6,4.3
2020,11,14,00:00,UTC,8,1023.2,85,0,0,3.8,1.5,38852,155,5.5,3.9
2020,11,14,01:00,UTC,8,1022.9,86,0,0,3.9,1.7,36319,148,5.3,3.7
2020,11,14,02:00,UTC,8,1022.9,87,0,0,3.8,1.8,34670,159,3.9,2.9
2020,11,14,03:00,UTC,8,1022.6,86,0,0,3.7,1.5,32891,143,2.6,2
2020,11,14,04:00,UTC,8,1022.5,85,0,0,3.8,1.6,34010,146,3,2.3
2020,11,14,05:00,UTC,8,1022.2,86,0,0,3.9,1.8,27935,134,5.1,2.7
2020,11,14,06:00,UTC,8,1022,85,0,0,3.8,1.6,31735,148,4.3,3.1
2020,11,14,07:00,UTC,8,1022,85,,,3.9,1.6,28845,149,4.7,3.6
2020,11,14,08:00,UTC,,,,0,0,,,,,,
2020,11,14,09:00,UTC,,,,0,0,,,,,,
2020,11,14,10:00,UTC,,,,0,0,,,,,,
2020,11,14,11:00,UTC,,,,0,0,,,,,,
2020,11,14,12:00,UTC,,,,0,0,,,,,,
2020,11,14,13:00,UTC,,,,0,0,,,,,,
2020,11,14,14:00,UTC,,,,0,0,,,,,,
2020,11,14,15:00,UTC,8,1021.8,85,0,0,3.9,1.6,28568,157,4.3,2.8
2020,11,14,16:00,UTC,8,1021.6,86,0,0,3.8,1.8,24542,148,4.6,3.7
2020,11,14,17:00,UTC,8,1021.7,86,0,0,3.8,1.7,24852,164,6.3,4.2
2020,11,14,18:00,UTC,8,1021.8,86,0,0,3.9,1.7,22579,157,6.4,4.7
2020,11,14,19:00,UTC,8,1022.1,86,0,0,3.9,1.7,21784,162,4.6,3.4
2020,11,14,20:00,UTC,8,1022.1,86,0,0,3.9,1.7,21605,148,5.9,4.2
2020,11,14,21:00,UTC,8,1022.1,87,0,0,3.8,1.9,20602,151,5.5,3.7
2020,11,14,22:00,UTC,8,1022,86,0,0,3.8,1.7,24099,152,6.7,4.7
2020,11,14,23:00,UTC,8,1021.8,85,0,0,3.8,1.4,23531,150,6.7,4.8
2020,11,15,00:00,UTC,8,1021.9,87,0,0,3.7,1.7,22115,148,5,4.1
2020,11,15,01:00,UTC,8,1021.7,87,0,0,3.9,2,20655,151,4.5,3.2
2020,11,15,02:00,UTC,8,1021.6,88,0,0,3.9,2.1,20642,158,5.6,4.2
2020,11,15,03:00,UTC,8,1021.4,89,0,0,3.8,2.2,19019,168,5.3,3.8
2020,11,15,04:00,UTC,8,1021.4,89,0,0,4,2.3,18244,166,5.7,4.1
2020,11,15,05:00,UTC,8,1021.4,88,0,0,4,2.2,18429,149,5.9,4.4
2020,11,15,06:00,UTC,7,1021.7,88,0,0,3.9,2.2,21638,160,5.1,3.8
2020,11,15,07:00,UTC,7,1021.9,88,0,0,3.7,1.9,18354,158,5.6,4.2
2020,11,15,08:00,UTC,7,1022,86,0,0,3.8,1.7,17366,159,7.7,5.5
2020,11,15,09:00,UTC,7,1022.1,80,0,0,3.9,0.9,30853,166,8.2,5.4
2020,11,15,10:00,UTC,7,1022,80,0,0,3.8,0.7,38954,172,7.3,4.9
2020,11,15,11:00,UTC,7,1021.9,78,0,0,3.9,0.4,45554,168,8.1,5.5
2020,11,15,12:00,UTC,6,1021.9,81,0,0,3.5,0.5,49613,168,8,5.6
2020,11,15,13:00,UTC,7,1021.6,81,0,0,3.1,0.2,47052,162,7.4,4.8
2020,11,15,14:00,UTC,5,1021.8,82,0,0,2.5,-0.3,42589,153,5.3,4.1
2020,11,15,15:00,UTC,4,1021.7,83,0,0,2.3,-0.3,43108,127,4.1,2.9
2020,11,15,16:00,UTC,7,1021.4,81,0,0,2.9,-0.1,38977,148,4.5,3.3
2020,11,15,17:00,UTC,8,1021.2,80,0,0,3.3,0.2,43522,162,6.8,4.9
2020,11,15,18:00,UTC,8,1021.3,79,0,,3.4,0.1,45957,159,7.4,4.9
2020,11,15,19:00,UTC,8,1021.2,79,0,0,3.3,0.1,44671,156,6.7,5.2
2020,11,15,20:00,UTC,8,1020.9,79,0,0,3.2,-0.1,32492,148,7.3,5.6
2020,11,15,21:00,UTC,8,1020.4,78,0,0,3.2,-0.4,38278,146,6.6,4.7
2020,11,15,22:00,UTC,8,1020.5,81,0,0,3,0,41794,149,7.2,5.3
2020,11,15,23:00,UTC,8,1020,82,0,0,3,0.2,34744,134,8,5.6
2020,11,16,00:00,UTC,8,1019.7,84,0,0,3.1,0.6,31675,136,9.7,6.6
2020,11,16,01:00,UTC,8,1019.4,88,0,0,2.9,1.1,24177,144,8.4,5.7
2020,11,16,02:00,UTC,8,1019.1,88,0,0,3,1.2,18359,143,7.6,5
2020,11,16,03:00,UTC,8,1018.9,91,0,0,3,1.6,23619,124,6.2,4.1
2020,11,16,04:00,UTC,8,1018.2,92,0,0,3.7,2.6,17961,138,7.1,5.5
2020,11,16,05:00,UTC,8,1017.8,91,0,0,3.6,2.3,22064,137,9.2,6.2
2020,11,16,06:00,UTC,8,1017.8,89,0,0,3.7,2.1,25403,147,8.6,6
2020,11,16,07:00,UTC,8,1017.7,91,0,0,3.8,2.5,6829,146,7.5,5.4
2020,11,16,08:00,UTC,8,1017.8,96,0,0,3.6,3,5177,154,8.1,6.1
2020,11,16,09:00,UTC,8,1017.7,95,0,0,3.8,3.1,12127,151,9.8,7.1
2020,11,16,10:00,UTC,8,1017.7,94,0,0,3.7,2.8,15022,161,10.4,7.5
2020,11,16,11:00,UTC,8,1017.4,90,0,0,3.9,2.4,21514,154,8.4,5.9
2020,11,16,12:00,UTC,8,1017.5,89,0,0,4,2.3,26516,160,10,6.7
2020,11,16,13:00,UTC,8,1017.6,88,0,0,4,2.2,25126,157,10.1,7.2
2020,11,16,14:00,UTC,8,1017.4,87,0,0,4.2,2.3,25132,155,9.1,6.6
2020,11,16,15:00,UTC,8,1017.4,87,0,0,4.4,2.4,23522,153,9.7,6.3
2020,11,16,16:00,UTC,8,1017.6,88,0,0,4.5,2.6,21771,153,8.7,6.2
2020,11,16,17:00,UTC,8,1017.4,88,0,0,4.6,2.8,21810,148,8.3,6
2020,11,16,18:00,UTC,8,1017.7,89,0,0,4.8,3.2,24181,163,8.1,5.5
2020,11,16,19:00,UTC,8,1017.6,90,0,0,4.9,3.4,23502,169,6.9,4.6
2020,11,16,20:00,UTC,8,1017.7,95,0.1,0,4.7,4,17932,167,8.2,5.1
2020,11,16,21:00,UTC,8,1017.4,96,0.6,0,4.9,4.3,11354,164,7.5,5.5
2020,11,16,22:00,UTC,8,1017.4,95,0,0,5.1,4.4,15384,164,7.2,5.7
2020,11,16,23:00,UTC,8,1017.3,95,0.1,0,5.3,4.6,12166,165,8.8,5.9
2020,11,17,00:00,UTC,8,1017.2,95,0.8,0,5.2,4.4,15175,166,10.6,6.2
2020,11,17,01:00,UTC,8,1017.2,93,0,0,5.1,4.1,23874,171,11,6.5
2020,11,17,02:00,UTC,8,1017.1,92,0.3,0,5,3.9,13479,172,9.8,7.1
2020,11,17,03:00,UTC,8,1017,93,0.5,0,5.1,4.1,12897,177,10.9,7
2020,11,17,04:00,UTC,8,1016.8,95,1.2,0,5.1,4.3,9964,169,9.1,6.2
2020,11,17,05:00,UTC,8,1016.8,95,0.1,0,5,4.2,6340,171,8.9,5.6
2020,11,17,06:00,UTC,8,1016.8,95,0.5,0,5,4.4,10123,169,8.7,6.2
2020,11,17,07:00,UTC,8,1016.9,94,0.5,0,5.1,4.3,25055,170,9.5,6.6
2020,11,17,08:00,UTC,8,1016.9,94,0.5,0,5.1,4.2,28440,169,10.7,7.2
2020,11,17,09:00,UTC,8,1016.9,93,0,0,5.1,4.1,39989,173,10.4,7.1
2020,11,17,10:00,UTC,8,1016.7,93,0,0,5,4,45427,171,9.3,7
2020,11,17,11:00,UTC,8,1016.5,93,0,0,4.9,3.9,29203,174,10.4,6.7
2020,11,17,12:00,UTC,8,1016.2,95,0,0,4.7,4,16961,168,10,6.8
2020,11,17,13:00,UTC,8,1015.9,97,0.4,0,4.9,4.4,7170,168,8.5,6.2
2020,11,17,14:00,UTC,8,1015.7,97,0.5,0,5.2,4.8,8650,169,8.1,5.9
2020,11,17,15:00,UTC,8,1015.2,96,0,0,5.4,4.8,9837,176,9.5,6.7
2020,11,17,16:00,UTC,8,1014.7,97,1.3,0,5.6,5.1,14437,173,9.5,6.5
2020,11,17,17:00,UTC,8,1014.2,97,0.3,0,6.4,5.9,19168,183,8,6.1
2020,11,17,18:00,UTC,8,1013.5,97,0.2,0,6.8,6.3,17073,177,10.3,7.3
2020,11,17,19:00,UTC,8,1012.7,97,0.1,0,7,6.6,27976,179,11.1,7.7
2020,11,17,20:00,UTC,8,1012,97,0,0,7.5,7,15158,182,8.9,6.1
2020,11,17,21:00,UTC,8,1010.8,97,0,0,7.9,7.4,5627,185,12.5,8.2
2020,11,17,22:00,UTC,8,1010.1,93,0,0,8.6,7.5,51355,204,12.7,9.4
2020,11,17,23:00,UTC,8,1008.7,94,1.7,0,8.5,7.7,17212,191,14.3,9.9
2020,11,18,00:00,UTC,8,1007,93,0.9,0,8.3,7.2,18916,184,15.4,10.7
2020,11,18,01:00,UTC,8,1005.1,95,5.5,0,7.9,7.2,3605,181,16.2,9.7
2020,11,18,02:00,UTC,8,1003.9,96,4,0,7.8,7.2,7778,191,17.9,11
2020,11,18,03:00,UTC,8,1003.2,96,1.7,0,8.5,8,3713,206,13.6,10.3
2020,11,18,04:00,UTC,8,1002.8,97,0.4,0,9,8.6,4619,219,11.3,8.1
2020,11,18,05:00,UTC,8,1003.1,97,0,0,9.5,9.1,8874,227,7.2,5.6
2020,11,18,06:00,UTC,8,1004.2,96,0,0,9.9,9.2,22716,249,8.4,5.5
2020,11,18,07:00,UTC,7,1005,93,0,0,9.4,8.2,74339,267,7.9,4.9
2020,11,18,08:00,UTC,4,1006.6,93,0,0,9.2,8.2,75000,259,6.5,4.4
2020,11,18,09:00,UTC,8,1007.1,91,0,0,9.3,7.9,75000,257,7.3,4.6
2020,11,18,10:00,UTC,7,1007.7,88,0,0,9.6,7.7,74035,258,6.6,4.7
2020,11,18,11:00,UTC,1,1007.9,87,0,0,9.6,7.6,75000,250,6.8,5.1
2020,11,18,12:00,UTC,5,1007.9,91,0,0,9.5,8.1,71017,238,4.3,3.2
2020,11,18,13:00,UTC,8,1007.8,91,0,0,9.7,8.2,55352,211,6,4.3
2020,11,18,14:00,UTC,8,1007.7,94,0,0,9.8,8.8,32662,212,6,4.2
2020,11,18,15:00,UTC,8,1007.1,94,0,0,10,9.1,28245,214,8.6,5.6
2020,11,18,16:00,UTC,8,1006,98,0.4,0,10.1,9.8,6020,202,8.7,6.1
2020,11,18,17:00,UTC,8,1005.2,98,0,0,10.4,10,3288,214,10.3,7.4
2020,11,18,18:00,UTC,8,1004.4,97,0,0,10.6,10.1,3533,221,12.6,9
2020,11,18,19:00,UTC,8,1003.5,97,0,0,10.6,10.1,11581,220,12.7,9.2
2020,11,18,20:00,UTC,8,1003.3,96,0,0,10.6,10.1,33365,223,12.4,9.1
2020,11,18,21:00,UTC,8,1002.1,94,0,0,10.8,9.9,26513,222,16.6,11.6
2020,11,18,22:00,UTC,8,1001,92,0,0,11,9.7,37325,221,18.3,12.4
2020,11,18,23:00,UTC,8,1000.8,91,0,0,10.7,9.3,27289,221,16.8,11.7
2020,11,19,00:00,UTC,8,1000.1,94,0.4,0,10.2,9.3,6274,223,14.9,10.5
2020,11,19,01:00,UTC,8,998.6,90,0.4,0,10.2,8.7,15015,222,19.9,13.7
2020,11,19,02:00,UTC,8,997.5,94,0.4,0,9.6,8.7,4266,220,18.2,12.5
2020,11,19,03:00,UTC,8,996.7,95,0.4,0,9.5,8.7,8152,224,20.6,12.8
2020,11,19,04:00,UTC,8,995.3,93,0.5,0,9.7,8.5,13441,219,20,13.4
2020,11,19,05:00,UTC,8,993.9,90,0,0,9.8,8.2,36780,213,21.9,13.4
2020,11,19,06:00,UTC,8,992.4,92,1.7,0,9.2,8,11195,208,21.6,13.7
2020,11,19,07:00,UTC,8,991.2,94,0.8,0,9.1,8.2,6154,206,19.2,13.5
2020,11,19,08:00,UTC,8,989.9,93,0.6,0,9.2,8.1,3441,206,23.5,14.7
2020,11,19,09:00,UTC,8,989,93,0,0,9.3,8.3,4796,209,19.8,13.5
2020,11,19,10:00,UTC,8,987.5,95,1.4,0,9.3,8.5,5717,206,22,15.5
2020,11,19,11:00,UTC,7,986.8,89,0.5,0,10.2,8.5,41665,222,19.7,12.3
2020,11,19,12:00,UTC,7,987,81,0.4,0,9.5,6.5,41450,229,18.5,13
2020,11,19,13:00,UTC,7,987.4,75,0,0,8.6,4.4,42324,226,16.1,10.1
2020,11,19,14:00,UTC,8,987.1,74,0,0,8.5,4.2,21712,228,16.5,11.3
2020,11,19,15:00,UTC,8,987.1,82,0.2,0,8.5,5.5,21244,220,15.2,11.2
2020,11,19,16:00,UTC,6,986.4,80,0,0,8.4,5.2,35572,218,17.8,12.4
2020,11,19,17:00,UTC,8,986.5,86,2,0,8.1,5.9,17374,237,11.3,7.2
2020,11,19,18:00,UTC,7,987,91,0.5,0,6.8,5.4,44421,224,10,7.5
2020,11,19,19:00,UTC,7,987.5,92,0,0,6.1,4.8,20275,231,7.8,5.6
2020,11,19,20:00,UTC,6,989.2,91,0,0,3.6,2.2,71969,274,8.6,6.4
2020,11,19,21:00,UTC,7,990.5,93,0,0,3,2,67188,281,4.6,3
2020,11,19,22:00,UTC,8,991.7,90,0,0,2.2,0.8,70847,302,9.1,6.1
2020,11,19,23:00,UTC,8,993.3,92,0.4,0,1.2,0,10628,297,7.6,5.4
2020,11,20,00:00,UTC,8,994.9,92,0,0,0.7,-0.5,4990,276,9.2,5.8
2020,11,20,01:00,UTC,8,996.2,99,0.7,0,-0.1,-0.2,2107,277,7.1,4.1
2020,11,20,02:00,UTC,5,997.4,96,0,0,-0.7,-1.3,75000,276,5.2,4
2020,11,20,03:00,UTC,0,997.9,93,0,0,-1,-1.9,73675,236,5,3.6
2020,11,20,04:00,UTC,2,998.1,91,0,0,-1.1,-2.4,65820,234,6,3.9
2020,11,20,05:00,UTC,8,998.1,94,0,0,-0.8,-1.6,10489,227,8.6,5.8
2020,11,20,06:00,UTC,2,999.2,89,0,0,-1.1,-2.6,74215,257,8,5.4
2020,11,20,07:00,UTC,2,1000.4,91,0,0,-1.6,-2.9,73577,271,6,4.2
2020,11,20,08:00,UTC,0,1001.6,91,0,0,-1.5,-2.8,67386,269,6.4,4.5
2020,11,20,09:00,UTC,3,1002.8,91,0,0,-0.8,-2.2,72554,273,7.9,5.8
2020,11,20,10:00,UTC,7,1003.8,91,0,0,-0.3,-1.7,70519,271,6.8,4.6
2020,11,20,11:00,UTC,8,1004.7,94,0,0,-0.1,-1,13432,262,5.7,4
2020,11,20,12:00,UTC,7,1005.9,91,0,0,0.4,-0.9,62369,284,9.2,5.8
2020,11,20,13:00,UTC,7,1007.2,92,0,0,0.6,-0.6,40684,285,7.5,5
2020,11,20,14:00,UTC,8,1009.1,91,0,0,0.9,-0.4,37082,282,7.5,5.1
2020,11,20,15:00,UTC,7,1010.6,89,0,0,1.1,-0.5,72767,286,8.3,5.8
2020,11,20,16:00,UTC,8,1012.1,90,0,0,1.1,-0.4,69004,298,6.3,4.5
2020,11,20,17:00,UTC,2,1013.6,92,0,0,0.4,-0.8,66875,297,7.8,5.1
2020,11,20,18:00,UTC,1,1014.9,93,0,0,0,-1,64802,299,8.1,5.1
2020,11,20,19:00,UTC,2,1015.7,92,0,0,0.1,-1.1,71027,296,6.3,4.5
2020,11,20,20:00,UTC,0,1016.9,94,0,0,-0.6,-1.5,65003,282,4.2,3
2020,11,20,21:00,UTC,7,1018,92,0,0,-0.2,-1.4,61743,301,7.2,5.4
2020,11,20,22:00,UTC,1,1018.9,93,0,0,-1,-2,64864,282,4.4,3.2
2020,11,20,23:00,UTC,0,1019.5,94,0,0,-1.5,-2.4,62860,270,4.2,3
2020,11,21,00:00,UTC,0,1020.4,96,0,0,-2.5,-3.1,63560,242,2.8,2.3
2020,11,21,01:00,UTC,0,1021.2,95,0,0,-2.4,-3,61357,240,2.8,1.6
2020,11,21,02:00,UTC,1,1021.7,97,0,0,-3.5,-3.8,57483,248,2.8,1.9
2020,11,21,03:00,UTC,0,1021.9,98,0,0,-3.1,-3.4,56069,238,2,1.7
2020,11,21,04:00,UTC,0,1022,99,0,0,-3.7,-3.9,53187,243,2.8,2.3
2020,11,21,05:00,UTC,0,1021.8,95,0,0,-4.9,-5.6,2771,200,1.4,1.1
2020,11,21,06:00,UTC,0,1022,97,0,0,-5.3,-5.6,21213,214,1.3,0.8
2020,11,21,07:00,UTC,0,1021.5,94,0,0,-5.3,-6.2,35308,145,2.1,1.4
2020,11,21,08:00,UTC,7,1020.5,96,0,0,-3.2,-3.8,45729,136,3.8,2.6
2020,11,21,09:00,UTC,7,1019.5,95,0,0,-1.8,-2.5,46481,110,1.7,1
2020,11,21,10:00,UTC,6,1018.1,94,0,0,1.1,0.3,53769,166,5.1,3.7
2020,11,21,11:00,UTC,7,1017.1,77,0,0,3.4,-0.2,68527,199,8.3,5.9
2020,11,21,12:00,UTC,7,1016,79,0,0,4,0.6,65822,195,11.5,8.2
2020,11,21,13:00,UTC,7,1014.3,77,0,0,4.6,0.8,65743,199,11.2,7.5
2020,11,21,14:00,UTC,8,1012.5,75,0,0,4.6,0.6,51130,193,14.4,9.9
2020,11,21,15:00,UTC,8,1010.6,86,0.7,0,4.2,2,17775,191,17.2,10.7
2020,11,21,16:00,UTC,8,1007.9,89,0.5,0,4.3,2.6,28373,191,16.7,11.7
2020,11,21,17:00,UTC,8,1005.3,90,0.5,0,4.7,3.2,22506,194,19.1,11.9
2020,11,21,18:00,UTC,8,1003.6,92,2.4,0,5.1,3.8,11990,202,18.3,12.7
2020,11,21,19:00,UTC,8,1001.3,91,1.7,0,5.7,4.3,14520,203,17.9,13
2020,11,21,20:00,UTC,8,999.8,94,3.7,0,5.8,4.9,7048,198,20.1,13.2
2020,11,21,21:00,UTC,8,998.4,95,4.8,0,6.3,5.5,6465,207,14,10.2
2020,11,21,22:00,UTC,8,998,91,2.6,0,6.5,5.2,17230,244,10.3,6.4
2020,11,21,23:00,UTC,8,997.3,94,0,0,6.4,5.5,58524,217,7,5.4
2020,11,22,00:00,UTC,7,997,94,0,0,6.6,5.6,57485,244,9,5.3
2020,11,22,01:00,UTC,1,996.9,95,0,0,5.2,4.4,59487,249,6.2,4.5
2020,11,22,02:00,UTC,7,997,94,0,0,5.7,4.7,57737,241,8,5.1
2020,11,22,03:00,UTC,7,997.3,94,0,0,5.5,4.6,56096,238,7,4.8
2020,11,22,04:00,UTC,1,997.3,96,0,0,3.7,3.1,50172,225,3.5,2.4
2020,11,22,05:00,UTC,8,997.5,96,0,0,4.8,4.2,39575,221,5.4,3.4
2020,11,22,06:00,UTC,7,997.5,94,0,0,4.7,3.8,43749,220,5.6,3.4
2020,11,22,07:00,UTC,8,997.4,91,0,0,5.2,3.8,41532,211,4.6,3.5
2020,11,22,08:00,UTC,7,997.3,83,0,0,5.6,2.9,51503,223,7.1,5
2020,11,22,09:00,UTC,3,997,87,0,0,5.2,3.1,42825,220,6.9,4.8
2020,11,22,10:00,UTC,3,996.7,79,0,0,6.2,2.9,49169,236,9.7,6.8
2020,11,22,11:00,UTC,6,996.3,76,0,0,6.4,2.5,46463,234,9.9,6.4
2020,11,22,12:00,UTC,7,995.7,75,0,0,6.5,2.4,46889,240,10.1,6
2020,11,22,13:00,UTC,0,995.3,79,0,0,5.4,2.1,42092,226,5.4,3.8
2020,11,22,14:00,UTC,0,995.2,87,0,0,3.6,1.7,36621,219,4.8,3.8
2020,11,22,15:00,UTC,3,994.9,83,0,0,4.9,2.3,36163,208,6.2,4.7
2020,11,22,16:00,UTC,6,994.9,83,0,0,4.8,2.1,37101,215,5.5,4.3
2020,11,22,17:00,UTC,7,994.7,81,0,0,5.5,2.5,40050,216,7.7,5.4
2020,11,22,18:00,UTC,8,994.6,80,0,0,5.8,2.5,43979,213,7.2,4.6
2020,11,22,19:00,UTC,7,994.7,84,0,0,5.3,2.8,22566,223,4.4,3.5
2020,11,22,20:00,UTC,7,994.7,85,0,0,5.1,2.9,39983,230,4.9,3
2020,11,22,21:00,UTC,7,994.7,87,0,0,4.4,2.4,40417,224,5.7,4.1
2020,11,22,22:00,UTC,6,994.5,87,0,0,3.8,1.9,50573,224,5.2,3.8
2020,11,22,23:00,UTC,4,994.9,90,0,0,3,1.6,50609,234,4.2,3.4
2020,11,23,00:00,UTC,1,994.9,88,0,0,3.3,1.5,58819,245,5.2,3.7
2020,11,23,01:00,UTC,4,995,87,0,0,3.6,1.7,63792,246,6.1,4.5
2020,11,23,02:00,UTC,0,995.2,88,0,0,3.2,1.5,63003,237,5.7,4.4
2020,11,23,03:00,UTC,6,995.4,91,0,0,2.5,1.3,57623,223,5.1,3.8
2020,11,23,04:00,UTC,7,995.4,88,0,0,3.5,1.7,62570,228,7.1,4.5
2020,11,23,05:00,UTC,8,995.3,86,0,0,3.7,1.6,67979,241,6.6,4.7
2020,11,23,06:00,UTC,8,995.5,87,0,0,3.2,1.2,71433,232,5.7,3.9
2020,11,23,07:00,UTC,7,996,86,0,0,3.3,1.2,67058,222,5.6,4.3
2020,11,23,08:00,UTC,7,996.1,82,,,4.4,1.5,72521,224,7.7,5.4
2020,11,23,09:00,UTC,0,996.6,78,0,0,4.7,1.2,74890,247,8,5.3
2020,11,23,10:00,UTC,0,996.7,76,0,0,5.1,1.2,73590,247,8.2,5.6
2020,11,23,11:00,UTC,3,996.8,74,0,0,5.4,1.1,75000,253,8.4,5.6
2020,11,23,12:00,UTC,7,997,74,0,0,5.4,1.1,74271,243,7.3,4.9
2020,11,23,13:00,UTC,8,997.7,80,0,0,4.9,1.8,72789,262,7.2,4.4
2020,11,23,14:00,UTC,8,998.1,87,0,0,4.1,2.1,53718,244,6,4.5
2020,11,23,15:00,UTC,7,998.5,88,0,0,3.9,2.1,38037,244,7.1,4.6
2020,11,23,16:00,UTC,8,998.9,87,0,0,3.9,2,20104,259,6.6,4.7
2020,11,23,17:00,UTC,8,999.2,90,0,0,3.5,2,54775,238,4.5,3.5
2020,11,23,18:00,UTC,8,999.5,92,0,0,3.4,2.2,48095,265,5,3.7
2020,11,23,19:00,UTC,7,1000.3,92,0,0,3.5,2.3,57064,289,6.9,4.6
2020,11,23,20:00,UTC,2,1001.1,95,0,0,2.6,1.8,56579,292,5.2,3.4
2020,11,23,21:00,UTC,2,1001.9,95,0,0,2.1,1.3,62844,283,4.4,3
2020,11,23,22:00,UTC,8,1002.8,93,0,0,2.9,1.9,63033,283,5.4,3.9
2020,11,23,23:00,UTC,7,1003.6,92,0,0,3.3,2,66876,282,6.3,4.1
2020,11,24,00:00,UTC,7,1004.1,88,0,0,3.7,1.9,66701,278,6.4,4.8
2020,11,24,01:00,UTC,5,1004.7,89,0,0,2.6,1,61444,272,6.8,4.7
2020,11,24,02:00,UTC,7,1004.9,88,0,0,2.7,0.9,61404,276,7.3,5
2020,11,24,03:00,UTC,7,1005.4,90,0,0,2.1,0.6,60835,270,6.9,4.5
2020,11,24,04:00,UTC,7,1005.8,87,0,0,3,1,61647,279,7.5,5.1
2020,11,24,05:00,UTC,8,1006.1,86,0,0,3.1,1,64658,277,8.6,5.7
2020,11,24,06:00,UTC,2,1006.4,86,0,0,2.6,0.4,54273,276,7.7,5.5
2020,11,24,07:00,UTC,3,1006.9,86,0,0,2.3,0.2,65881,286,7.4,5.1
2020,11,24,08:00,UTC,6,1007.4,86,0,0,2.8,0.8,65486,285,6.1,4.4
2020,11,24,09:00,UTC,7,1008.1,85,0,0,3,0.8,62597,299,8,5.5
2020,11,24,10:00,UTC,8,1008.7,91,0.6,0,2.7,1.4,12967,307,6.8,4.7
2020,11,24,11:00,UTC,7,1009,86,0,0,3.2,1.1,64141,283,5.9,4.3
2020,11,24,12:00,UTC,8,1009.2,83,0,0,3.3,0.7,68699,305,5,3.9
2020,11,24,13:00,UTC,7,1009.4,78,,,3,-0.6,68355,302,5.2,3.8
2020,11,24,14:00,UTC,2,1009.5,76,0,0,2.3,-1.5,67659,306,6,3.8
2020,11,24,15:00,UTC,8,1009.9,87,0,0,0.5,-1.4,68113,261,2.7,2
2020,11,24,16:00,UTC,2,1010.1,94,0,0,-1.2,-2.1,65193,281,1.9,1.3
2020,11,24,17:00,UTC,4,1010.1,97,0,0,-1.6,-2,57792,200,1.4,1
2020,11,24,18:00,UTC,7,1010.5,98,0,0,-2,-2.4,52080,14,0.6,0.3
2020,11,24,19:00,UTC,6,1010.8,98,0,0,-2.3,-2.6,36133,48,0.9,0.6
2020,11,24,20:00,UTC,4,1011.1,98,0,0,-2.3,-2.7,37076,29,1.1,0.7
2020,11,24,21:00,UTC,8,1011.3,97,0,0,-1.8,-2.2,34196,47,1.4,1
2020,11,24,22:00,UTC,8,1011.4,97,0,0,-1.1,-1.6,43496,56,2.1,1.8
2020,11,24,23:00,UTC,7,1011.6,98,0,0,-1.4,-1.7,34737,55,1.7,1.5
2020,11,25,00:00,UTC,8,1012,97,0,0,-1,-1.5,35486,73,1.6,1.4